{
"type": "FeatureCollection",
"name": "bellingham-neighborhood-overlay",
"crs": { "type": "name", "properties": { "name": "urn:ogc:def:crs:OGC:1.3:CRS84" } },
"xy_coordinate_resolution": 1e-05,
"features": [
{ "type": "Feature", "properties": { "name": "Alabama Hill" }, "geometry": { "type": "Polygon", "coordinates": [ [ [ -122.42627, 48.76799 ], [ -122.42627, 48.7678 ], [ -122.42454, 48.76779 ], [ -122.42447, 48.76062 ], [ -122.42458, 48.76062 ], [ -122.42462, 48.76053 ], [ -122.42472, 48.76001 ], [ -122.42425, 48.75772 ], [ -122.42478, 48.75558 ], [ -122.42478, 48.75526 ], [ -122.4259, 48.75397 ], [ -122.42599, 48.75372 ], [ -122.42659, 48.75337 ], [ -122.42691, 48.75345 ], [ -122.4272, 48.75384 ], [ -122.42737, 48.75394 ], [ -122.42822, 48.75363 ], [ -122.42837, 48.7535 ], [ -122.42803, 48.75293 ], [ -122.42812, 48.75274 ], [ -122.42887, 48.75247 ], [ -122.42905, 48.75234 ], [ -122.42913, 48.75204 ], [ -122.42954, 48.75177 ], [ -122.42956, 48.75159 ], [ -122.42941, 48.75121 ], [ -122.42986, 48.75083 ], [ -122.43047, 48.75062 ], [ -122.43062, 48.75066 ], [ -122.43079, 48.75134 ], [ -122.43159, 48.75167 ], [ -122.43255, 48.75182 ], [ -122.43352, 48.75213 ], [ -122.43361, 48.75266 ], [ -122.43398, 48.75267 ], [ -122.43436, 48.75255 ], [ -122.43459, 48.75303 ], [ -122.43527, 48.75328 ], [ -122.4353, 48.75346 ], [ -122.43551, 48.75369 ], [ -122.4355, 48.75443 ], [ -122.43586, 48.75452 ], [ -122.43655, 48.75448 ], [ -122.43683, 48.75454 ], [ -122.43729, 48.75473 ], [ -122.43759, 48.75515 ], [ -122.43788, 48.75527 ], [ -122.43835, 48.75531 ], [ -122.43884, 48.7551 ], [ -122.43902, 48.75513 ], [ -122.43948, 48.75562 ], [ -122.43982, 48.75571 ], [ -122.43987, 48.76171 ], [ -122.43781, 48.7617 ], [ -122.43781, 48.76302 ], [ -122.43577, 48.76302 ], [ -122.43577, 48.76777 ], [ -122.43407, 48.76777 ], [ -122.43472, 48.77032 ], [ -122.43511, 48.77091 ], [ -122.43569, 48.7714 ], [ -122.42631, 48.77138 ], [ -122.42627, 48.76799 ] ] ] } },
{ "type": "Feature", "properties": { "name": "Barkley" }, "geometry": { "type": "Polygon", "coordinates": [ [ [ -122.41525, 48.79328 ], [ -122.41496, 48.79288 ], [ -122.41406, 48.79228 ], [ -122.41525, 48.79226 ], [ -122.41527, 48.78949 ], [ -122.41552, 48.78949 ], [ -122.4155, 48.78591 ], [ -122.42019, 48.78587 ], [ -122.42019, 48.78561 ], [ -122.42, 48.78535 ], [ -122.41999, 48.78501 ], [ -122.42034, 48.78491 ], [ -122.42021, 48.78334 ], [ -122.4196, 48.78248 ], [ -122.42055, 48.78214 ], [ -122.42102, 48.78214 ], [ -122.42102, 48.77493 ], [ -122.42093, 48.77136 ], [ -122.43569, 48.7714 ], [ -122.4364, 48.77176 ], [ -122.43716, 48.77199 ], [ -122.438, 48.7721 ], [ -122.43892, 48.77208 ], [ -122.4402, 48.77178 ], [ -122.44121, 48.77122 ], [ -122.44161, 48.77083 ], [ -122.4434, 48.76853 ], [ -122.44385, 48.7681 ], [ -122.45319, 48.7681 ], [ -122.45319, 48.76965 ], [ -122.45622, 48.76961 ], [ -122.45623, 48.7711 ], [ -122.45639, 48.7711 ], [ -122.45639, 48.77216 ], [ -122.45839, 48.77204 ], [ -122.45895, 48.77183 ], [ -122.45942, 48.77149 ], [ -122.45968, 48.77215 ], [ -122.45987, 48.77238 ], [ -122.46348, 48.77104 ], [ -122.4638, 48.77173 ], [ -122.46426, 48.77235 ], [ -122.46488, 48.773 ], [ -122.46494, 48.77446 ], [ -122.46486, 48.77513 ], [ -122.46183, 48.7751 ], [ -122.46182, 48.77562 ], [ -122.45906, 48.77593 ], [ -122.45825, 48.77593 ], [ -122.45346, 48.7765 ], [ -122.45346, 48.77609 ], [ -122.44953, 48.77675 ], [ -122.44721, 48.77749 ], [ -122.44281, 48.7786 ], [ -122.44134, 48.7786 ], [ -122.43716, 48.78066 ], [ -122.4337, 48.78222 ], [ -122.43713, 48.78222 ], [ -122.43708, 48.78576 ], [ -122.43701, 48.78582 ], [ -122.43167, 48.78582 ], [ -122.43166, 48.7894 ], [ -122.42165, 48.7895 ], [ -122.42152, 48.78986 ], [ -122.42165, 48.79004 ], [ -122.4215, 48.7903 ], [ -122.42127, 48.79039 ], [ -122.42114, 48.79065 ], [ -122.42112, 48.79315 ], [ -122.41751, 48.79318 ], [ -122.41536, 48.79457 ], [ -122.41537, 48.79365 ], [ -122.41525, 48.79328 ] ] ] } },
{ "type": "Feature", "properties": { "name": "Birchwood" }, "geometry": { "type": "Polygon", "coordinates": [ [ [ -122.5167, 48.78886 ], [ -122.51622, 48.78868 ], [ -122.51548, 48.78922 ], [ -122.51383, 48.7882 ], [ -122.51276, 48.78766 ], [ -122.50988, 48.78652 ], [ -122.50858, 48.78611 ], [ -122.50503, 48.78611 ], [ -122.50432, 48.78516 ], [ -122.50332, 48.7843 ], [ -122.50099, 48.78431 ], [ -122.50063, 48.78406 ], [ -122.5003, 48.78397 ], [ -122.49343, 48.78363 ], [ -122.49342, 48.78326 ], [ -122.48815, 48.78302 ], [ -122.48611, 48.78276 ], [ -122.48608, 48.77634 ], [ -122.48663, 48.77632 ], [ -122.48729, 48.77616 ], [ -122.49129, 48.77468 ], [ -122.4911, 48.77402 ], [ -122.4916, 48.7737 ], [ -122.49237, 48.77343 ], [ -122.49262, 48.77319 ], [ -122.49304, 48.77314 ], [ -122.49354, 48.77385 ], [ -122.49506, 48.77324 ], [ -122.49595, 48.77269 ], [ -122.49614, 48.7725 ], [ -122.49599, 48.77244 ], [ -122.4961, 48.7721 ], [ -122.49622, 48.77197 ], [ -122.49587, 48.77158 ], [ -122.4962, 48.77111 ], [ -122.49653, 48.77102 ], [ -122.49665, 48.77089 ], [ -122.49706, 48.76984 ], [ -122.49706, 48.76914 ], [ -122.49762, 48.76863 ], [ -122.49773, 48.76789 ], [ -122.49801, 48.76764 ], [ -122.4983, 48.7672 ], [ -122.49933, 48.7662 ], [ -122.50009, 48.7661 ], [ -122.50055, 48.76615 ], [ -122.50189, 48.76562 ], [ -122.50189, 48.76543 ], [ -122.50161, 48.76553 ], [ -122.5015, 48.76544 ], [ -122.5015, 48.76518 ], [ -122.50164, 48.76518 ], [ -122.50167, 48.76485 ], [ -122.50196, 48.76485 ], [ -122.50196, 48.76452 ], [ -122.50221, 48.76452 ], [ -122.50221, 48.76392 ], [ -122.50263, 48.76392 ], [ -122.50269, 48.7637 ], [ -122.50311, 48.7637 ], [ -122.50311, 48.76409 ], [ -122.50425, 48.76409 ], [ -122.50425, 48.7636 ], [ -122.505, 48.76327 ], [ -122.50663, 48.76328 ], [ -122.5067, 48.76334 ], [ -122.50795, 48.76273 ], [ -122.50849, 48.76216 ], [ -122.5114, 48.76293 ], [ -122.51637, 48.76452 ], [ -122.51534, 48.76622 ], [ -122.51395, 48.76581 ], [ -122.51304, 48.76635 ], [ -122.51213, 48.76791 ], [ -122.51296, 48.76833 ], [ -122.50798, 48.76832 ], [ -122.50797, 48.76974 ], [ -122.51212, 48.76977 ], [ -122.518, 48.77087 ], [ -122.51803, 48.78245 ], [ -122.5186, 48.78244 ], [ -122.51859, 48.78424 ], [ -122.52304, 48.78422 ], [ -122.52303, 48.78591 ], [ -122.52426, 48.78587 ], [ -122.52425, 48.78948 ], [ -122.52695, 48.78947 ], [ -122.52695, 48.79331 ], [ -122.52434, 48.79331 ], [ -122.52342, 48.79255 ], [ -122.52252, 48.79195 ], [ -122.51923, 48.79022 ], [ -122.51837, 48.78956 ], [ -122.5167, 48.78886 ] ] ] } },
{ "type": "Feature", "properties": { "name": "City Center" }, "geometry": { "type": "Polygon", "coordinates": [ [ [ -122.50609, 48.76146 ], [ -122.50599, 48.76144 ], [ -122.50592, 48.76153 ], [ -122.50451, 48.7611 ], [ -122.50451, 48.76101 ], [ -122.50049, 48.7598 ], [ -122.49971, 48.75959 ], [ -122.49971, 48.75968 ], [ -122.49222, 48.75746 ], [ -122.49204, 48.75737 ], [ -122.49213, 48.7573 ], [ -122.48535, 48.75288 ], [ -122.48317, 48.75435 ], [ -122.48301, 48.75437 ], [ -122.48227, 48.75496 ], [ -122.48201, 48.75505 ], [ -122.48139, 48.75497 ], [ -122.48112, 48.75537 ], [ -122.47984, 48.75582 ], [ -122.47835, 48.75594 ], [ -122.4776, 48.75564 ], [ -122.47681, 48.75491 ], [ -122.47673, 48.75475 ], [ -122.47675, 48.75407 ], [ -122.47643, 48.75391 ], [ -122.4751, 48.75391 ], [ -122.4751, 48.75514 ], [ -122.47236, 48.75514 ], [ -122.47236, 48.75161 ], [ -122.47862, 48.7474 ], [ -122.47811, 48.74706 ], [ -122.48332, 48.74356 ], [ -122.48383, 48.74389 ], [ -122.48467, 48.74333 ], [ -122.4848, 48.74341 ], [ -122.48673, 48.74293 ], [ -122.48735, 48.74269 ], [ -122.49086, 48.74035 ], [ -122.49143, 48.73986 ], [ -122.49237, 48.73886 ], [ -122.49471, 48.73713 ], [ -122.49946, 48.7406 ], [ -122.49653, 48.74379 ], [ -122.49615, 48.74546 ], [ -122.4967, 48.74604 ], [ -122.50192, 48.75064 ], [ -122.51589, 48.75658 ], [ -122.51002, 48.76177 ], [ -122.50938, 48.76242 ], [ -122.50609, 48.76146 ] ] ] } },
{ "type": "Feature", "properties": { "name": "Columbia" }, "geometry": { "type": "Polygon", "coordinates": [ [ [ -122.48608, 48.77404 ], [ -122.48612, 48.76134 ], [ -122.49204, 48.75737 ], [ -122.49971, 48.75968 ], [ -122.49971, 48.75959 ], [ -122.50049, 48.7598 ], [ -122.50451, 48.76101 ], [ -122.50451, 48.7611 ], [ -122.50563, 48.76145 ], [ -122.50592, 48.76153 ], [ -122.50599, 48.76144 ], [ -122.50849, 48.76216 ], [ -122.50795, 48.76273 ], [ -122.5067, 48.76334 ], [ -122.50663, 48.76328 ], [ -122.505, 48.76327 ], [ -122.50425, 48.7636 ], [ -122.50425, 48.76409 ], [ -122.50311, 48.76409 ], [ -122.50311, 48.7637 ], [ -122.50269, 48.7637 ], [ -122.50263, 48.76392 ], [ -122.50221, 48.76392 ], [ -122.50221, 48.76452 ], [ -122.50196, 48.76452 ], [ -122.50196, 48.76485 ], [ -122.50167, 48.76485 ], [ -122.50164, 48.76518 ], [ -122.5015, 48.76518 ], [ -122.5015, 48.76544 ], [ -122.50161, 48.76553 ], [ -122.50189, 48.76543 ], [ -122.50189, 48.76562 ], [ -122.50055, 48.76615 ], [ -122.50009, 48.7661 ], [ -122.49933, 48.7662 ], [ -122.4983, 48.7672 ], [ -122.49767, 48.76799 ], [ -122.49762, 48.76863 ], [ -122.49706, 48.76914 ], [ -122.49706, 48.76984 ], [ -122.49665, 48.77089 ], [ -122.49653, 48.77102 ], [ -122.4962, 48.77111 ], [ -122.49587, 48.77158 ], [ -122.49588, 48.77167 ], [ -122.4962, 48.7719 ], [ -122.49622, 48.772 ], [ -122.4961, 48.7721 ], [ -122.49599, 48.77244 ], [ -122.49614, 48.7725 ], [ -122.49561, 48.77295 ], [ -122.49354, 48.77385 ], [ -122.49304, 48.77314 ], [ -122.49262, 48.77319 ], [ -122.49237, 48.77343 ], [ -122.4916, 48.7737 ], [ -122.4911, 48.77402 ], [ -122.49129, 48.77468 ], [ -122.48729, 48.77616 ], [ -122.48663, 48.77632 ], [ -122.48608, 48.77634 ], [ -122.48608, 48.77404 ] ] ] } },
{ "type": "Feature", "properties": { "name": "Cordata" }, "geometry": { "type": "Polygon", "coordinates": [ [ [ -122.49156, 48.80546 ], [ -122.49151, 48.79794 ], [ -122.49198, 48.79793 ], [ -122.49206, 48.7976 ], [ -122.49191, 48.79714 ], [ -122.49168, 48.79715 ], [ -122.49151, 48.79703 ], [ -122.4915, 48.79589 ], [ -122.49172, 48.79586 ], [ -122.49168, 48.79462 ], [ -122.49138, 48.79387 ], [ -122.49132, 48.79336 ], [ -122.49134, 48.78976 ], [ -122.50766, 48.78967 ], [ -122.51039, 48.79324 ], [ -122.51344, 48.79324 ], [ -122.51345, 48.79332 ], [ -122.52434, 48.79331 ], [ -122.53135, 48.80053 ], [ -122.51905, 48.8006 ], [ -122.51905, 48.80051 ], [ -122.51575, 48.80051 ], [ -122.51447, 48.79882 ], [ -122.51186, 48.7988 ], [ -122.51013, 48.79832 ], [ -122.50812, 48.7987 ], [ -122.50821, 48.80429 ], [ -122.50536, 48.8043 ], [ -122.50527, 48.81498 ], [ -122.50789, 48.81496 ], [ -122.50787, 48.81692 ], [ -122.49702, 48.81694 ], [ -122.49703, 48.81546 ], [ -122.4971, 48.8151 ], [ -122.49153, 48.81513 ], [ -122.49156, 48.80546 ] ] ] } },
{ "type": "Feature", "properties": { "name": "Cornwall Park" }, "geometry": { "type": "Polygon", "coordinates": [ [ [ -122.46798, 48.76972 ], [ -122.46908, 48.76963 ], [ -122.47219, 48.76963 ], [ -122.47218, 48.76434 ], [ -122.48084, 48.76437 ], [ -122.48122, 48.76463 ], [ -122.48612, 48.76134 ], [ -122.48611, 48.78276 ], [ -122.479, 48.78179 ], [ -122.47666, 48.78133 ], [ -122.47494, 48.78078 ], [ -122.47385, 48.78029 ], [ -122.4723, 48.77934 ], [ -122.47089, 48.7782 ], [ -122.46479, 48.77293 ], [ -122.4638, 48.77173 ], [ -122.46348, 48.77104 ], [ -122.46591, 48.77015 ], [ -122.46704, 48.76986 ], [ -122.46798, 48.76972 ] ] ] } },
{ "type": "Feature", "properties": { "name": "Edgemoor" }, "geometry": { "type": "Polygon", "coordinates": [ [ [ -122.51504, 48.71604 ], [ -122.51461, 48.71584 ], [ -122.51379, 48.71576 ], [ -122.51155, 48.71598 ], [ -122.50246, 48.716 ], [ -122.50205, 48.71592 ], [ -122.49995, 48.71439 ], [ -122.49987, 48.71014 ], [ -122.49857, 48.70862 ], [ -122.49177, 48.70482 ], [ -122.49178, 48.70296 ], [ -122.49726, 48.70301 ], [ -122.49727, 48.70147 ], [ -122.50561, 48.69765 ], [ -122.50318, 48.6958 ], [ -122.50548, 48.6958 ], [ -122.50483, 48.69405 ], [ -122.50294, 48.69199 ], [ -122.50275, 48.69046 ], [ -122.50351, 48.68803 ], [ -122.50488, 48.68802 ], [ -122.50585, 48.68982 ], [ -122.50587, 48.69036 ], [ -122.50626, 48.69097 ], [ -122.50639, 48.69097 ], [ -122.50644, 48.68884 ], [ -122.50944, 48.68882 ], [ -122.51392, 48.6942 ], [ -122.51579, 48.69661 ], [ -122.51658, 48.69912 ], [ -122.51867, 48.7006 ], [ -122.51794, 48.70282 ], [ -122.51739, 48.70347 ], [ -122.51881, 48.70738 ], [ -122.51851, 48.70943 ], [ -122.52132, 48.71106 ], [ -122.52413, 48.71542 ], [ -122.52269, 48.71669 ], [ -122.51893, 48.71589 ], [ -122.51837, 48.71594 ], [ -122.51797, 48.71652 ], [ -122.5176, 48.71679 ], [ -122.51715, 48.71692 ], [ -122.51667, 48.71694 ], [ -122.51598, 48.71674 ], [ -122.51539, 48.71617 ], [ -122.51504, 48.71604 ] ] ] } },
{ "type": "Feature", "properties": { "name": "Fairhaven" }, "geometry": { "type": "Polygon", "coordinates": [ [ [ -122.49991, 48.71723 ], [ -122.49991, 48.71554 ], [ -122.50223, 48.7167 ], [ -122.50221, 48.716 ], [ -122.51155, 48.71598 ], [ -122.51347, 48.71576 ], [ -122.51461, 48.71584 ], [ -122.51539, 48.71617 ], [ -122.516, 48.71675 ], [ -122.51663, 48.71694 ], [ -122.51713, 48.71692 ], [ -122.51758, 48.71679 ], [ -122.51797, 48.71652 ], [ -122.51837, 48.71594 ], [ -122.51893, 48.71589 ], [ -122.52269, 48.71669 ], [ -122.51606, 48.72254 ], [ -122.51392, 48.72487 ], [ -122.50701, 48.72245 ], [ -122.50053, 48.72244 ], [ -122.50057, 48.72091 ], [ -122.50049, 48.72091 ], [ -122.50049, 48.71851 ], [ -122.49991, 48.71851 ], [ -122.49991, 48.71723 ] ] ] } },
{ "type": "Feature", "properties": { "name": "Happy Valley" }, "geometry": { "type": "Polygon", "coordinates": [ [ [ -122.46968, 48.73365 ], [ -122.46772, 48.73364 ], [ -122.46814, 48.73288 ], [ -122.46868, 48.73225 ], [ -122.47194, 48.72917 ], [ -122.47248, 48.72854 ], [ -122.47302, 48.72778 ], [ -122.47363, 48.72647 ], [ -122.47379, 48.72581 ], [ -122.47386, 48.72492 ], [ -122.47377, 48.71677 ], [ -122.47403, 48.71546 ], [ -122.47454, 48.714 ], [ -122.47547, 48.71455 ], [ -122.48631, 48.71482 ], [ -122.48709, 48.71499 ], [ -122.48898, 48.71569 ], [ -122.48997, 48.71593 ], [ -122.49104, 48.71597 ], [ -122.49339, 48.71583 ], [ -122.49508, 48.71583 ], [ -122.49653, 48.71617 ], [ -122.49879, 48.7174 ], [ -122.49991, 48.71763 ], [ -122.49991, 48.71851 ], [ -122.50049, 48.71851 ], [ -122.50055, 48.72167 ], [ -122.4924, 48.72165 ], [ -122.49239, 48.72244 ], [ -122.49169, 48.72244 ], [ -122.49169, 48.72392 ], [ -122.4924, 48.72393 ], [ -122.4924, 48.72642 ], [ -122.48618, 48.72642 ], [ -122.48619, 48.72585 ], [ -122.48465, 48.72594 ], [ -122.48466, 48.72652 ], [ -122.48385, 48.72692 ], [ -122.48175, 48.7289 ], [ -122.4807, 48.72961 ], [ -122.4715, 48.73343 ], [ -122.47085, 48.7336 ], [ -122.46968, 48.73365 ] ] ] } },
{ "type": "Feature", "properties": { "name": "Irongate" }, "geometry": { "type": "Polygon", "coordinates": [ [ [ -122.44423, 48.8005 ], [ -122.43445, 48.80052 ], [ -122.4344, 48.79297 ], [ -122.43714, 48.79296 ], [ -122.43712, 48.79125 ], [ -122.43984, 48.79125 ], [ -122.43981, 48.7895 ], [ -122.43304, 48.78948 ], [ -122.43313, 48.7894 ], [ -122.43166, 48.7894 ], [ -122.43167, 48.78582 ], [ -122.43701, 48.78582 ], [ -122.43708, 48.78576 ], [ -122.43713, 48.78222 ], [ -122.4337, 48.78222 ], [ -122.43716, 48.78066 ], [ -122.44134, 48.7786 ], [ -122.44281, 48.7786 ], [ -122.44721, 48.77749 ], [ -122.44953, 48.77675 ], [ -122.45346, 48.77609 ], [ -122.45346, 48.7765 ], [ -122.45825, 48.77593 ], [ -122.45906, 48.77593 ], [ -122.46182, 48.77562 ], [ -122.46183, 48.7751 ], [ -122.46486, 48.77513 ], [ -122.46494, 48.77446 ], [ -122.46488, 48.773 ], [ -122.47157, 48.77877 ], [ -122.4548, 48.77866 ], [ -122.45477, 48.78226 ], [ -122.45882, 48.78227 ], [ -122.45876, 48.78766 ], [ -122.45741, 48.78766 ], [ -122.45741, 48.78786 ], [ -122.45699, 48.78831 ], [ -122.45636, 48.78843 ], [ -122.45608, 48.78861 ], [ -122.45537, 48.78855 ], [ -122.45526, 48.78866 ], [ -122.4544, 48.78892 ], [ -122.45432, 48.78912 ], [ -122.45407, 48.78926 ], [ -122.45407, 48.78953 ], [ -122.45336, 48.78953 ], [ -122.45344, 48.79319 ], [ -122.44815, 48.79317 ], [ -122.44833, 48.80041 ], [ -122.44821, 48.80041 ], [ -122.44821, 48.8005 ], [ -122.44423, 48.8005 ] ] ] } },
{ "type": "Feature", "properties": { "name": "King Mountain" }, "geometry": { "type": "Polygon", "coordinates": [ [ [ -122.47, 48.80419 ], [ -122.45913, 48.80422 ], [ -122.45897, 48.79809 ], [ -122.45934, 48.79759 ], [ -122.45896, 48.79759 ], [ -122.45894, 48.7967 ], [ -122.44824, 48.79682 ], [ -122.44815, 48.79317 ], [ -122.45344, 48.79319 ], [ -122.45336, 48.78953 ], [ -122.45407, 48.78953 ], [ -122.45407, 48.78926 ], [ -122.45432, 48.78912 ], [ -122.4544, 48.78892 ], [ -122.45526, 48.78866 ], [ -122.45537, 48.78855 ], [ -122.45608, 48.78861 ], [ -122.45636, 48.78843 ], [ -122.45699, 48.78831 ], [ -122.45741, 48.78786 ], [ -122.45741, 48.78766 ], [ -122.45876, 48.78766 ], [ -122.45882, 48.78227 ], [ -122.45477, 48.78226 ], [ -122.4548, 48.77866 ], [ -122.47157, 48.77877 ], [ -122.47288, 48.77974 ], [ -122.47385, 48.78029 ], [ -122.47494, 48.78078 ], [ -122.47598, 48.78114 ], [ -122.47599, 48.78239 ], [ -122.47517, 48.78241 ], [ -122.47504, 48.78969 ], [ -122.47631, 48.78971 ], [ -122.47636, 48.79317 ], [ -122.47513, 48.79315 ], [ -122.47526, 48.7987 ], [ -122.48063, 48.79876 ], [ -122.48072, 48.80416 ], [ -122.48077, 48.80431 ], [ -122.47, 48.80427 ], [ -122.47, 48.80419 ] ] ] } },
{ "type": "Feature", "properties": { "name": "Lettered Streets" }, "geometry": { "type": "Polygon", "coordinates": [ [ [ -122.4751, 48.756 ], [ -122.4751, 48.75391 ], [ -122.47657, 48.75395 ], [ -122.47675, 48.75407 ], [ -122.47673, 48.75475 ], [ -122.47681, 48.75491 ], [ -122.4776, 48.75564 ], [ -122.47835, 48.75594 ], [ -122.47932, 48.75589 ], [ -122.48005, 48.75578 ], [ -122.48079, 48.75552 ], [ -122.48112, 48.75537 ], [ -122.48139, 48.75497 ], [ -122.48201, 48.75505 ], [ -122.48227, 48.75496 ], [ -122.48301, 48.75437 ], [ -122.48317, 48.75435 ], [ -122.48535, 48.75288 ], [ -122.49213, 48.7573 ], [ -122.48122, 48.76463 ], [ -122.48084, 48.76437 ], [ -122.4751, 48.76434 ], [ -122.4751, 48.756 ] ] ] } },
{ "type": "Feature", "properties": { "name": "Meridian" }, "geometry": { "type": "Polygon", "coordinates": [ [ [ -122.48581, 48.81742 ], [ -122.48574, 48.81742 ], [ -122.48573, 48.80803 ], [ -122.48086, 48.80796 ], [ -122.48063, 48.79876 ], [ -122.47526, 48.7987 ], [ -122.47513, 48.79315 ], [ -122.47636, 48.79317 ], [ -122.47631, 48.78971 ], [ -122.47504, 48.78969 ], [ -122.47517, 48.78241 ], [ -122.47599, 48.78239 ], [ -122.47598, 48.78114 ], [ -122.47784, 48.78159 ], [ -122.479, 48.78179 ], [ -122.48684, 48.78286 ], [ -122.48815, 48.78302 ], [ -122.49342, 48.78326 ], [ -122.49343, 48.78363 ], [ -122.5003, 48.78397 ], [ -122.50063, 48.78406 ], [ -122.50099, 48.78431 ], [ -122.50332, 48.7843 ], [ -122.50432, 48.78516 ], [ -122.50503, 48.78611 ], [ -122.50858, 48.78611 ], [ -122.50988, 48.78652 ], [ -122.51276, 48.78766 ], [ -122.51383, 48.7882 ], [ -122.51548, 48.78922 ], [ -122.51622, 48.78868 ], [ -122.51742, 48.78914 ], [ -122.51837, 48.78956 ], [ -122.51923, 48.79022 ], [ -122.52252, 48.79195 ], [ -122.52342, 48.79255 ], [ -122.52434, 48.79331 ], [ -122.51345, 48.79332 ], [ -122.51344, 48.79324 ], [ -122.51039, 48.79324 ], [ -122.50766, 48.78967 ], [ -122.49134, 48.78976 ], [ -122.49132, 48.79336 ], [ -122.49138, 48.79387 ], [ -122.49168, 48.79462 ], [ -122.49172, 48.79586 ], [ -122.4915, 48.79589 ], [ -122.49151, 48.79703 ], [ -122.49168, 48.79715 ], [ -122.49191, 48.79714 ], [ -122.49206, 48.7976 ], [ -122.49198, 48.79793 ], [ -122.49151, 48.79794 ], [ -122.49153, 48.81513 ], [ -122.4971, 48.8151 ], [ -122.49703, 48.81546 ], [ -122.49702, 48.81694 ], [ -122.49715, 48.81694 ], [ -122.49714, 48.8174 ], [ -122.48581, 48.81742 ] ] ] } },
{ "type": "Feature", "properties": { "name": "Puget" }, "geometry": { "type": "Polygon", "coordinates": [ [ [ -122.45788, 48.75472 ], [ -122.45673, 48.75485 ], [ -122.45459, 48.75489 ], [ -122.45341, 48.75444 ], [ -122.45286, 48.75402 ], [ -122.45243, 48.75391 ], [ -122.45209, 48.75395 ], [ -122.45139, 48.75368 ], [ -122.45005, 48.75396 ], [ -122.44859, 48.75459 ], [ -122.44692, 48.75488 ], [ -122.44575, 48.75488 ], [ -122.44533, 48.75495 ], [ -122.4454, 48.75345 ], [ -122.4453, 48.75161 ], [ -122.44528, 48.74531 ], [ -122.448, 48.7453 ], [ -122.44799, 48.74257 ], [ -122.44787, 48.74257 ], [ -122.44786, 48.74077 ], [ -122.44802, 48.74077 ], [ -122.44805, 48.73356 ], [ -122.45357, 48.73358 ], [ -122.45356, 48.73539 ], [ -122.46741, 48.73544 ], [ -122.46753, 48.73815 ], [ -122.46748, 48.74216 ], [ -122.46736, 48.7428 ], [ -122.46709, 48.74354 ], [ -122.46527, 48.74656 ], [ -122.46487, 48.7474 ], [ -122.46217, 48.75403 ], [ -122.46169, 48.75385 ], [ -122.46055, 48.75377 ], [ -122.46009, 48.7539 ], [ -122.45965, 48.75414 ], [ -122.45909, 48.75475 ], [ -122.4589, 48.75482 ], [ -122.45856, 48.75485 ], [ -122.45788, 48.75472 ] ] ] } },
{ "type": "Feature", "properties": { "name": "Roosevelt" }, "geometry": { "type": "Polygon", "coordinates": [ [ [ -122.45949, 48.77165 ], [ -122.45942, 48.77149 ], [ -122.4589, 48.77186 ], [ -122.45823, 48.77207 ], [ -122.45639, 48.77216 ], [ -122.45639, 48.7711 ], [ -122.45623, 48.7711 ], [ -122.45622, 48.76961 ], [ -122.45319, 48.76965 ], [ -122.45319, 48.7681 ], [ -122.44385, 48.7681 ], [ -122.4434, 48.76853 ], [ -122.44262, 48.76958 ], [ -122.44262, 48.76946 ], [ -122.44154, 48.7709 ], [ -122.4409, 48.77144 ], [ -122.44015, 48.7718 ], [ -122.4393, 48.77203 ], [ -122.43839, 48.77211 ], [ -122.43749, 48.77205 ], [ -122.43674, 48.77188 ], [ -122.43607, 48.77162 ], [ -122.43545, 48.77123 ], [ -122.43501, 48.7708 ], [ -122.43464, 48.77011 ], [ -122.43407, 48.76777 ], [ -122.43577, 48.76777 ], [ -122.43577, 48.76302 ], [ -122.43781, 48.76302 ], [ -122.43781, 48.7617 ], [ -122.43987, 48.76171 ], [ -122.43983, 48.75671 ], [ -122.44074, 48.75702 ], [ -122.4426, 48.75702 ], [ -122.44259, 48.75655 ], [ -122.44304, 48.75647 ], [ -122.44337, 48.75675 ], [ -122.44365, 48.75675 ], [ -122.4437, 48.75662 ], [ -122.44362, 48.75622 ], [ -122.44369, 48.75607 ], [ -122.44511, 48.75586 ], [ -122.44517, 48.755 ], [ -122.44575, 48.75488 ], [ -122.44692, 48.75488 ], [ -122.44859, 48.75459 ], [ -122.45005, 48.75396 ], [ -122.45139, 48.75368 ], [ -122.45209, 48.75395 ], [ -122.45243, 48.75391 ], [ -122.45286, 48.75402 ], [ -122.45341, 48.75444 ], [ -122.45436, 48.75484 ], [ -122.45473, 48.7549 ], [ -122.45673, 48.75485 ], [ -122.45776, 48.75471 ], [ -122.4588, 48.75484 ], [ -122.45909, 48.75475 ], [ -122.45965, 48.75414 ], [ -122.46009, 48.7539 ], [ -122.46074, 48.75375 ], [ -122.46151, 48.75383 ], [ -122.46217, 48.75403 ], [ -122.46183, 48.75498 ], [ -122.46173, 48.75554 ], [ -122.46168, 48.76303 ], [ -122.46178, 48.76504 ], [ -122.46227, 48.76792 ], [ -122.46248, 48.76868 ], [ -122.46348, 48.77104 ], [ -122.45987, 48.77238 ], [ -122.45968, 48.77215 ], [ -122.45949, 48.77165 ] ] ] } },
{ "type": "Feature", "properties": { "name": "Samish" }, "geometry": { "type": "Polygon", "coordinates": [ [ [ -122.46729, 48.73544 ], [ -122.45356, 48.73539 ], [ -122.45358, 48.73179 ], [ -122.45345, 48.73178 ], [ -122.45361, 48.728 ], [ -122.45367, 48.71708 ], [ -122.45409, 48.71003 ], [ -122.45402, 48.70628 ], [ -122.44138, 48.70639 ], [ -122.4389, 48.70607 ], [ -122.43773, 48.7057 ], [ -122.43678, 48.70527 ], [ -122.43537, 48.70441 ], [ -122.43532, 48.70445 ], [ -122.43159, 48.70235 ], [ -122.43172, 48.70227 ], [ -122.4295, 48.70104 ], [ -122.42938, 48.70112 ], [ -122.42729, 48.69999 ], [ -122.42589, 48.69941 ], [ -122.42304, 48.69853 ], [ -122.42311, 48.69577 ], [ -122.42303, 48.68977 ], [ -122.42485, 48.68993 ], [ -122.425, 48.68959 ], [ -122.42622, 48.68987 ], [ -122.42745, 48.69029 ], [ -122.42748, 48.69024 ], [ -122.42984, 48.69099 ], [ -122.42989, 48.69093 ], [ -122.43072, 48.69109 ], [ -122.43069, 48.69115 ], [ -122.43375, 48.69163 ], [ -122.43373, 48.69169 ], [ -122.44033, 48.69276 ], [ -122.4402, 48.6932 ], [ -122.44296, 48.6936 ], [ -122.44426, 48.69367 ], [ -122.44426, 48.69556 ], [ -122.44943, 48.69555 ], [ -122.44944, 48.69392 ], [ -122.45207, 48.69487 ], [ -122.45368, 48.69554 ], [ -122.45527, 48.69554 ], [ -122.45735, 48.69668 ], [ -122.4592, 48.6975 ], [ -122.46036, 48.69786 ], [ -122.46489, 48.69887 ], [ -122.46758, 48.69956 ], [ -122.4693, 48.70023 ], [ -122.47426, 48.70317 ], [ -122.47528, 48.70386 ], [ -122.47597, 48.70455 ], [ -122.47639, 48.7051 ], [ -122.47695, 48.70621 ], [ -122.47707, 48.70739 ], [ -122.47671, 48.70877 ], [ -122.47454, 48.714 ], [ -122.47389, 48.71602 ], [ -122.47375, 48.71724 ], [ -122.47386, 48.72492 ], [ -122.47379, 48.72581 ], [ -122.47363, 48.72647 ], [ -122.47302, 48.72778 ], [ -122.47248, 48.72854 ], [ -122.47194, 48.72917 ], [ -122.46868, 48.73225 ], [ -122.46814, 48.73288 ], [ -122.46776, 48.73353 ], [ -122.46753, 48.73414 ], [ -122.4674, 48.73475 ], [ -122.46741, 48.73544 ], [ -122.46729, 48.73544 ] ] ] } },
{ "type": "Feature", "properties": { "name": "Sehome" }, "geometry": { "type": "Polygon", "coordinates": [ [ [ -122.47181, 48.7438 ], [ -122.47187, 48.74101 ], [ -122.46987, 48.7397 ], [ -122.46987, 48.73802 ], [ -122.46752, 48.73801 ], [ -122.4674, 48.73475 ], [ -122.46753, 48.73414 ], [ -122.46772, 48.73364 ], [ -122.47064, 48.73362 ], [ -122.47135, 48.73349 ], [ -122.4753, 48.73187 ], [ -122.4754, 48.73187 ], [ -122.47539, 48.73682 ], [ -122.47622, 48.73682 ], [ -122.47724, 48.73751 ], [ -122.48192, 48.73955 ], [ -122.4841, 48.74097 ], [ -122.48713, 48.73894 ], [ -122.4901, 48.74087 ], [ -122.48773, 48.74246 ], [ -122.48711, 48.7428 ], [ -122.4848, 48.74341 ], [ -122.48467, 48.74333 ], [ -122.48383, 48.74389 ], [ -122.48332, 48.74356 ], [ -122.47811, 48.74706 ], [ -122.47862, 48.7474 ], [ -122.47711, 48.74841 ], [ -122.47179, 48.74495 ], [ -122.47181, 48.7438 ] ] ] } },
{ "type": "Feature", "properties": { "name": "Silver Beach" }, "geometry": { "type": "Polygon", "coordinates": [ [ [ -122.40869, 48.77153 ], [ -122.40448, 48.77149 ], [ -122.40448, 48.77143 ], [ -122.39907, 48.77144 ], [ -122.39905, 48.7678 ], [ -122.3992, 48.76059 ], [ -122.39914, 48.75796 ], [ -122.39873, 48.75746 ], [ -122.39901, 48.75733 ], [ -122.39885, 48.75717 ], [ -122.39913, 48.75703 ], [ -122.39911, 48.75649 ], [ -122.41158, 48.75346 ], [ -122.41531, 48.75344 ], [ -122.41535, 48.75163 ], [ -122.41961, 48.75161 ], [ -122.41961, 48.75119 ], [ -122.42081, 48.75119 ], [ -122.42081, 48.7507 ], [ -122.42469, 48.7507 ], [ -122.42444, 48.75106 ], [ -122.42625, 48.75106 ], [ -122.42624, 48.75341 ], [ -122.4259, 48.75397 ], [ -122.42478, 48.75525 ], [ -122.42478, 48.75558 ], [ -122.42425, 48.75769 ], [ -122.42472, 48.76001 ], [ -122.42462, 48.76053 ], [ -122.42458, 48.76062 ], [ -122.42447, 48.76062 ], [ -122.42454, 48.76779 ], [ -122.42627, 48.7678 ], [ -122.42631, 48.77138 ], [ -122.42093, 48.77136 ], [ -122.421, 48.77407 ], [ -122.40987, 48.77426 ], [ -122.40996, 48.77155 ], [ -122.40869, 48.77153 ] ] ] } },
{ "type": "Feature", "properties": { "name": "South" }, "geometry": { "type": "Polygon", "coordinates": [ [ [ -122.4945, 48.7158 ], [ -122.49104, 48.71597 ], [ -122.48997, 48.71593 ], [ -122.48898, 48.71569 ], [ -122.48675, 48.71489 ], [ -122.48563, 48.71476 ], [ -122.47547, 48.71455 ], [ -122.47454, 48.714 ], [ -122.47671, 48.70877 ], [ -122.47707, 48.70739 ], [ -122.47695, 48.70621 ], [ -122.47671, 48.70567 ], [ -122.47597, 48.70455 ], [ -122.47528, 48.70386 ], [ -122.47027, 48.70075 ], [ -122.46858, 48.69992 ], [ -122.46758, 48.69956 ], [ -122.46621, 48.6992 ], [ -122.46144, 48.69812 ], [ -122.4592, 48.6975 ], [ -122.45735, 48.69668 ], [ -122.45527, 48.69554 ], [ -122.46496, 48.69552 ], [ -122.48638, 48.69587 ], [ -122.50318, 48.6958 ], [ -122.50561, 48.69765 ], [ -122.49727, 48.70147 ], [ -122.49726, 48.70301 ], [ -122.49178, 48.70296 ], [ -122.49177, 48.70482 ], [ -122.49844, 48.70854 ], [ -122.4998, 48.71001 ], [ -122.4999, 48.71029 ], [ -122.49992, 48.71432 ], [ -122.50006, 48.71451 ], [ -122.50221, 48.716 ], [ -122.50223, 48.7167 ], [ -122.49991, 48.71554 ], [ -122.49991, 48.71763 ], [ -122.49954, 48.71759 ], [ -122.49879, 48.7174 ], [ -122.49841, 48.71722 ], [ -122.49653, 48.71617 ], [ -122.49547, 48.7159 ], [ -122.4945, 48.7158 ] ] ] } },
{ "type": "Feature", "properties": { "name": "South Hill" }, "geometry": { "type": "Polygon", "coordinates": [ [ [ -122.48855, 48.73732 ], [ -122.48823, 48.73678 ], [ -122.49016, 48.73462 ], [ -122.49086, 48.73363 ], [ -122.49042, 48.73332 ], [ -122.49037, 48.73317 ], [ -122.49042, 48.733 ], [ -122.49191, 48.73109 ], [ -122.49016, 48.73104 ], [ -122.49176, 48.72788 ], [ -122.49175, 48.72642 ], [ -122.4924, 48.72642 ], [ -122.4924, 48.72393 ], [ -122.49169, 48.72392 ], [ -122.49169, 48.72244 ], [ -122.49239, 48.72244 ], [ -122.4924, 48.72165 ], [ -122.50055, 48.72167 ], [ -122.50053, 48.72244 ], [ -122.50701, 48.72245 ], [ -122.51392, 48.72487 ], [ -122.49946, 48.7406 ], [ -122.49471, 48.73713 ], [ -122.49237, 48.73886 ], [ -122.49122, 48.74005 ], [ -122.4901, 48.74087 ], [ -122.48704, 48.73888 ], [ -122.4873, 48.73857 ], [ -122.48852, 48.73788 ], [ -122.48864, 48.73758 ], [ -122.48855, 48.73732 ] ] ] } },
{ "type": "Feature", "properties": { "name": "Sunnyland" }, "geometry": { "type": "Polygon", "coordinates": [ [ [ -122.46301, 48.76997 ], [ -122.46248, 48.76868 ], [ -122.46227, 48.76792 ], [ -122.462, 48.76654 ], [ -122.46171, 48.76432 ], [ -122.46173, 48.75554 ], [ -122.46183, 48.75498 ], [ -122.46217, 48.75403 ], [ -122.46325, 48.75491 ], [ -122.46345, 48.75498 ], [ -122.46393, 48.75495 ], [ -122.46426, 48.75479 ], [ -122.46485, 48.75429 ], [ -122.466, 48.75408 ], [ -122.46667, 48.75415 ], [ -122.46701, 48.75407 ], [ -122.46768, 48.75368 ], [ -122.46782, 48.75345 ], [ -122.46782, 48.75303 ], [ -122.46896, 48.75251 ], [ -122.4699, 48.75192 ], [ -122.47029, 48.75192 ], [ -122.47031, 48.75162 ], [ -122.47046, 48.75154 ], [ -122.471, 48.75144 ], [ -122.47173, 48.75154 ], [ -122.47175, 48.75182 ], [ -122.4719, 48.75192 ], [ -122.47236, 48.75161 ], [ -122.47236, 48.75514 ], [ -122.4751, 48.75514 ], [ -122.4751, 48.76434 ], [ -122.47218, 48.76434 ], [ -122.47219, 48.76963 ], [ -122.46908, 48.76963 ], [ -122.46753, 48.76978 ], [ -122.46591, 48.77015 ], [ -122.46348, 48.77104 ], [ -122.46301, 48.76997 ] ] ] } },
{ "type": "Feature", "properties": { "name": "Western Washington University" }, "geometry": { "type": "Polygon", "coordinates": [ [ [ -122.48521, 48.72591 ], [ -122.48619, 48.72585 ], [ -122.48618, 48.72642 ], [ -122.49175, 48.72642 ], [ -122.49176, 48.72788 ], [ -122.49016, 48.73104 ], [ -122.49191, 48.73109 ], [ -122.49042, 48.733 ], [ -122.49037, 48.73317 ], [ -122.49042, 48.73332 ], [ -122.49086, 48.73363 ], [ -122.49016, 48.73462 ], [ -122.48823, 48.73678 ], [ -122.48863, 48.73749 ], [ -122.48852, 48.73788 ], [ -122.4873, 48.73857 ], [ -122.48704, 48.73888 ], [ -122.48713, 48.73894 ], [ -122.4841, 48.74097 ], [ -122.48192, 48.73955 ], [ -122.47724, 48.73751 ], [ -122.47622, 48.73682 ], [ -122.47539, 48.73682 ], [ -122.4754, 48.73187 ], [ -122.4753, 48.73187 ], [ -122.48015, 48.72987 ], [ -122.48096, 48.72947 ], [ -122.48175, 48.7289 ], [ -122.48385, 48.72692 ], [ -122.48466, 48.72652 ], [ -122.48465, 48.72594 ], [ -122.48521, 48.72591 ] ] ] } },
{ "type": "Feature", "properties": { "name": "Whatcom Falls" }, "geometry": { "type": "Polygon", "coordinates": [ [ [ -122.43983, 48.75671 ], [ -122.43982, 48.75571 ], [ -122.43948, 48.75562 ], [ -122.43902, 48.75513 ], [ -122.43884, 48.7551 ], [ -122.43835, 48.75531 ], [ -122.43788, 48.75527 ], [ -122.43759, 48.75515 ], [ -122.43729, 48.75473 ], [ -122.43683, 48.75454 ], [ -122.43655, 48.75448 ], [ -122.43586, 48.75452 ], [ -122.4355, 48.75443 ], [ -122.43551, 48.75369 ], [ -122.4353, 48.75346 ], [ -122.43527, 48.75328 ], [ -122.43459, 48.75303 ], [ -122.43436, 48.75255 ], [ -122.43398, 48.75267 ], [ -122.43361, 48.75266 ], [ -122.43352, 48.75213 ], [ -122.43255, 48.75182 ], [ -122.43159, 48.75167 ], [ -122.43079, 48.75134 ], [ -122.43062, 48.75066 ], [ -122.4302, 48.75068 ], [ -122.42986, 48.75083 ], [ -122.42941, 48.75121 ], [ -122.42956, 48.75159 ], [ -122.42954, 48.75177 ], [ -122.42913, 48.75204 ], [ -122.42905, 48.75234 ], [ -122.42887, 48.75247 ], [ -122.42812, 48.75274 ], [ -122.42803, 48.75293 ], [ -122.42837, 48.7535 ], [ -122.42822, 48.75363 ], [ -122.42737, 48.75394 ], [ -122.4272, 48.75384 ], [ -122.42703, 48.75355 ], [ -122.42678, 48.75338 ], [ -122.42646, 48.75341 ], [ -122.42626, 48.7536 ], [ -122.42601, 48.75371 ], [ -122.42624, 48.75341 ], [ -122.42625, 48.75106 ], [ -122.42444, 48.75106 ], [ -122.42469, 48.7507 ], [ -122.42081, 48.7507 ], [ -122.4208, 48.7353 ], [ -122.44241, 48.73535 ], [ -122.4424, 48.73463 ], [ -122.44652, 48.73462 ], [ -122.44652, 48.73356 ], [ -122.44805, 48.73356 ], [ -122.44802, 48.74077 ], [ -122.44786, 48.74077 ], [ -122.44787, 48.74257 ], [ -122.44799, 48.74257 ], [ -122.448, 48.7453 ], [ -122.44528, 48.74531 ], [ -122.4453, 48.75161 ], [ -122.4454, 48.75345 ], [ -122.44533, 48.75495 ], [ -122.44514, 48.75507 ], [ -122.44511, 48.75586 ], [ -122.44369, 48.75607 ], [ -122.44362, 48.75622 ], [ -122.4437, 48.75662 ], [ -122.44365, 48.75675 ], [ -122.44345, 48.75678 ], [ -122.44325, 48.75669 ], [ -122.44311, 48.75647 ], [ -122.44259, 48.75655 ], [ -122.4426, 48.75702 ], [ -122.44074, 48.75702 ], [ -122.43983, 48.75671 ] ] ] } },
{ "type": "Feature", "properties": { "name": "York" }, "geometry": { "type": "Polygon", "coordinates": [ [ [ -122.46244, 48.75419 ], [ -122.46217, 48.75403 ], [ -122.46437, 48.74853 ], [ -122.46527, 48.74656 ], [ -122.46709, 48.74354 ], [ -122.46724, 48.74318 ], [ -122.46748, 48.74216 ], [ -122.46752, 48.73801 ], [ -122.46987, 48.73802 ], [ -122.46987, 48.7397 ], [ -122.47187, 48.74101 ], [ -122.47179, 48.74495 ], [ -122.47711, 48.74841 ], [ -122.4719, 48.75192 ], [ -122.47175, 48.75182 ], [ -122.47173, 48.75154 ], [ -122.47131, 48.75145 ], [ -122.47074, 48.75144 ], [ -122.47031, 48.75162 ], [ -122.47029, 48.75192 ], [ -122.4699, 48.75192 ], [ -122.46896, 48.75251 ], [ -122.46782, 48.75303 ], [ -122.46782, 48.75345 ], [ -122.46768, 48.75368 ], [ -122.46701, 48.75407 ], [ -122.46667, 48.75415 ], [ -122.466, 48.75408 ], [ -122.46485, 48.75429 ], [ -122.46426, 48.75479 ], [ -122.4637, 48.75498 ], [ -122.46325, 48.75491 ], [ -122.46244, 48.75419 ] ] ] } }
]
}
