{
"type": "FeatureCollection",
"name": "dmv-jurisdiction-overlay",
"crs": { "type": "name", "properties": { "name": "urn:ogc:def:crs:OGC:1.3:CRS84" } },
"xy_coordinate_resolution": 1e-05,
"features": [
{ "type": "Feature", "properties": { "name": "City of Fairfax, VA" }, "geometry": { "type": "Polygon", "coordinates": [ [ [ -77.33485, 38.85374 ], [ -77.33505, 38.85267 ], [ -77.33481, 38.85136 ], [ -77.33156, 38.85175 ], [ -77.33042, 38.84872 ], [ -77.33054, 38.84781 ], [ -77.33125, 38.84733 ], [ -77.32589, 38.84699 ], [ -77.32269, 38.8432 ], [ -77.31876, 38.84201 ], [ -77.31869, 38.83465 ], [ -77.31622, 38.83641 ], [ -77.31411, 38.83582 ], [ -77.31273, 38.83631 ], [ -77.31261, 38.83571 ], [ -77.31192, 38.83571 ], [ -77.31199, 38.83677 ], [ -77.30805, 38.83688 ], [ -77.30786, 38.83574 ], [ -77.30396, 38.83608 ], [ -77.30307, 38.83282 ], [ -77.30133, 38.8331 ], [ -77.30179, 38.83475 ], [ -77.30225, 38.83492 ], [ -77.30228, 38.83534 ], [ -77.29716, 38.83498 ], [ -77.29673, 38.83597 ], [ -77.29674, 38.83731 ], [ -77.29063, 38.83652 ], [ -77.2884, 38.83652 ], [ -77.28841, 38.83625 ], [ -77.28726, 38.83612 ], [ -77.28735, 38.83863 ], [ -77.28647, 38.83862 ], [ -77.28637, 38.84172 ], [ -77.27854, 38.84068 ], [ -77.2786, 38.84198 ], [ -77.27052, 38.8409 ], [ -77.26998, 38.84334 ], [ -77.27174, 38.84849 ], [ -77.27097, 38.8513 ], [ -77.26938, 38.85173 ], [ -77.26901, 38.8523 ], [ -77.26924, 38.85371 ], [ -77.26884, 38.85441 ], [ -77.26981, 38.85559 ], [ -77.26862, 38.85993 ], [ -77.26888, 38.86269 ], [ -77.2706, 38.86608 ], [ -77.29166, 38.8675 ], [ -77.2907, 38.871 ], [ -77.29187, 38.87109 ], [ -77.29249, 38.87169 ], [ -77.30314, 38.86921 ], [ -77.30475, 38.86338 ], [ -77.30801, 38.86329 ], [ -77.30849, 38.86446 ], [ -77.30963, 38.86558 ], [ -77.31115, 38.86649 ], [ -77.31291, 38.86692 ], [ -77.31689, 38.86695 ], [ -77.32879, 38.86485 ], [ -77.32935, 38.8641 ], [ -77.32881, 38.86389 ], [ -77.33485, 38.85374 ] ], [ [ -77.31649, 38.84501 ], [ -77.31648, 38.84615 ], [ -77.31468, 38.84617 ], [ -77.31499, 38.84546 ], [ -77.31207, 38.84552 ], [ -77.31178, 38.8466 ], [ -77.3106, 38.84683 ], [ -77.30845, 38.84616 ], [ -77.30818, 38.84667 ], [ -77.30661, 38.84626 ], [ -77.30703, 38.84507 ], [ -77.30877, 38.84284 ], [ -77.31649, 38.84501 ] ] ] } },
{ "type": "Feature", "properties": { "name": "Fairfax County, VA" }, "geometry": { "type": "MultiPolygon", "coordinates": [ [ [ [ -77.13774, 38.80076 ], [ -77.13986, 38.8002 ], [ -77.14235, 38.80576 ], [ -77.14321, 38.80562 ], [ -77.14436, 38.81036 ], [ -77.14385, 38.81042 ], [ -77.14377, 38.81077 ], [ -77.14374, 38.81419 ], [ -77.14105, 38.81754 ], [ -77.13975, 38.8171 ], [ -77.13841, 38.81874 ], [ -77.13956, 38.81957 ], [ -77.13719, 38.8215 ], [ -77.13851, 38.82388 ], [ -77.14216, 38.82381 ], [ -77.14166, 38.82596 ], [ -77.14074, 38.82705 ], [ -77.13491, 38.83081 ], [ -77.13527, 38.83216 ], [ -77.13139, 38.83333 ], [ -77.12791, 38.83694 ], [ -77.1247, 38.8376 ], [ -77.12591, 38.83935 ], [ -77.12512, 38.83955 ], [ -77.12579, 38.84068 ], [ -77.12464, 38.84138 ], [ -77.12447, 38.84079 ], [ -77.12164, 38.84136 ], [ -77.12129, 38.84023 ], [ -77.1106, 38.84352 ], [ -77.11018, 38.8448 ], [ -77.1497, 38.87567 ], [ -77.14979, 38.87336 ], [ -77.15156, 38.87342 ], [ -77.15555, 38.87247 ], [ -77.15827, 38.87438 ], [ -77.15751, 38.87332 ], [ -77.1584, 38.87318 ], [ -77.17374, 38.87872 ], [ -77.17903, 38.87942 ], [ -77.17932, 38.87919 ], [ -77.18756, 38.87879 ], [ -77.18975, 38.87814 ], [ -77.19426, 38.88609 ], [ -77.19096, 38.89232 ], [ -77.19227, 38.89278 ], [ -77.19147, 38.89359 ], [ -77.19073, 38.89317 ], [ -77.19098, 38.89288 ], [ -77.19069, 38.89282 ], [ -77.18985, 38.8944 ], [ -77.19377, 38.89696 ], [ -77.1936, 38.89718 ], [ -77.19474, 38.89785 ], [ -77.19499, 38.89855 ], [ -77.19436, 38.8993 ], [ -77.19146, 38.89988 ], [ -77.19053, 38.89878 ], [ -77.19143, 38.8978 ], [ -77.18894, 38.89615 ], [ -77.17228, 38.89325 ], [ -77.11979, 38.93437 ], [ -77.1245, 38.93845 ], [ -77.12865, 38.9414 ], [ -77.13168, 38.94756 ], [ -77.13198, 38.9475 ], [ -77.13421, 38.95176 ], [ -77.136, 38.95436 ], [ -77.1409, 38.9584 ], [ -77.14508, 38.96315 ], [ -77.14877, 38.96504 ], [ -77.15088, 38.96566 ], [ -77.15615, 38.96602 ], [ -77.1569, 38.96582 ], [ -77.15669, 38.966 ], [ -77.15716, 38.96606 ], [ -77.15727, 38.96578 ], [ -77.15887, 38.96585 ], [ -77.16069, 38.96619 ], [ -77.1631, 38.96736 ], [ -77.16331, 38.96712 ], [ -77.16469, 38.96775 ], [ -77.16763, 38.9673 ], [ -77.16844, 38.96704 ], [ -77.16914, 38.96628 ], [ -77.1698, 38.96632 ], [ -77.17112, 38.96653 ], [ -77.17232, 38.96747 ], [ -77.17512, 38.96817 ], [ -77.17779, 38.96799 ], [ -77.18145, 38.96879 ], [ -77.18316, 38.96865 ], [ -77.1842, 38.96784 ], [ -77.1879, 38.96782 ], [ -77.18877, 38.96748 ], [ -77.19113, 38.96805 ], [ -77.19409, 38.96823 ], [ -77.19501, 38.96755 ], [ -77.19584, 38.96755 ], [ -77.19618, 38.96706 ], [ -77.19777, 38.96674 ], [ -77.20268, 38.96768 ], [ -77.20287, 38.96806 ], [ -77.2055, 38.96888 ], [ -77.20634, 38.9697 ], [ -77.20814, 38.97025 ], [ -77.2102, 38.97008 ], [ -77.21152, 38.96934 ], [ -77.21876, 38.97154 ], [ -77.22117, 38.97134 ], [ -77.22375, 38.97212 ], [ -77.22638, 38.97411 ], [ -77.22859, 38.9785 ], [ -77.22995, 38.97971 ], [ -77.23048, 38.97973 ], [ -77.23094, 38.97928 ], [ -77.23233, 38.97929 ], [ -77.23454, 38.97623 ], [ -77.2352, 38.97608 ], [ -77.23553, 38.97669 ], [ -77.23621, 38.97692 ], [ -77.23995, 38.98075 ], [ -77.24172, 38.9817 ], [ -77.24392, 38.98235 ], [ -77.24407, 38.98211 ], [ -77.24503, 38.98268 ], [ -77.2454, 38.98423 ], [ -77.24812, 38.99057 ], [ -77.24861, 38.99262 ], [ -77.24995, 38.99405 ], [ -77.24998, 38.99464 ], [ -77.25294, 38.99545 ], [ -77.25363, 38.99783 ], [ -77.25422, 38.9983 ], [ -77.25495, 39.00072 ], [ -77.25575, 39.00175 ], [ -77.25532, 39.00488 ], [ -77.25326, 39.00916 ], [ -77.25118, 39.01189 ], [ -77.24694, 39.01477 ], [ -77.24629, 39.01645 ], [ -77.24538, 39.01753 ], [ -77.24485, 39.02024 ], [ -77.24509, 39.02215 ], [ -77.24632, 39.02468 ], [ -77.24779, 39.02613 ], [ -77.24909, 39.02688 ], [ -77.25037, 39.02712 ], [ -77.25475, 39.02973 ], [ -77.26083, 39.031 ], [ -77.25948, 39.03083 ], [ -77.26024, 39.03118 ], [ -77.26808, 39.03223 ], [ -77.27504, 39.03428 ], [ -77.28214, 39.03915 ], [ -77.28586, 39.0412 ], [ -77.28887, 39.04386 ], [ -77.29191, 39.04585 ], [ -77.29518, 39.04742 ], [ -77.29884, 39.04839 ], [ -77.29866, 39.04863 ], [ -77.30037, 39.04918 ], [ -77.30466, 39.05137 ], [ -77.30851, 39.05223 ], [ -77.31281, 39.05176 ], [ -77.31695, 39.05269 ], [ -77.3183, 39.05358 ], [ -77.31973, 39.05338 ], [ -77.3228, 39.05537 ], [ -77.32425, 39.05573 ], [ -77.32682, 39.05735 ], [ -77.32832, 39.05768 ], [ -77.53599, 38.84737 ], [ -77.53494, 38.84687 ], [ -77.53638, 38.84448 ], [ -77.53703, 38.84257 ], [ -77.53618, 38.84077 ], [ -77.53491, 38.83935 ], [ -77.53246, 38.83863 ], [ -77.52962, 38.83701 ], [ -77.52763, 38.83744 ], [ -77.52356, 38.83694 ], [ -77.51496, 38.84005 ], [ -77.51225, 38.84066 ], [ -77.51091, 38.84146 ], [ -77.50984, 38.84152 ], [ -77.50859, 38.84086 ], [ -77.5083, 38.84034 ], [ -77.50879, 38.83978 ], [ -77.50875, 38.83921 ], [ -77.50757, 38.83726 ], [ -77.50803, 38.8368 ], [ -77.50965, 38.83673 ], [ -77.51083, 38.83621 ], [ -77.51099, 38.83552 ], [ -77.51047, 38.83415 ], [ -77.51066, 38.83298 ], [ -77.51216, 38.83129 ], [ -77.51237, 38.8304 ], [ -77.50916, 38.82806 ], [ -77.50405, 38.82571 ], [ -77.50352, 38.82518 ], [ -77.50365, 38.82436 ], [ -77.50505, 38.82254 ], [ -77.50599, 38.82182 ], [ -77.5064, 38.82077 ], [ -77.50557, 38.81877 ], [ -77.50517, 38.81632 ], [ -77.50131, 38.814 ], [ -77.49737, 38.8133 ], [ -77.49151, 38.81149 ], [ -77.48927, 38.8089 ], [ -77.48973, 38.80586 ], [ -77.49429, 38.80024 ], [ -77.49435, 38.79872 ], [ -77.49385, 38.79808 ], [ -77.48672, 38.79651 ], [ -77.48488, 38.79711 ], [ -77.4833, 38.79716 ], [ -77.48064, 38.79648 ], [ -77.48023, 38.79699 ], [ -77.48037, 38.79802 ], [ -77.47981, 38.79897 ], [ -77.47671, 38.79936 ], [ -77.47595, 38.79898 ], [ -77.47577, 38.79751 ], [ -77.47464, 38.79673 ], [ -77.4719, 38.79636 ], [ -77.47042, 38.79571 ], [ -77.46608, 38.79662 ], [ -77.46209, 38.79551 ], [ -77.46051, 38.79639 ], [ -77.45984, 38.79745 ], [ -77.45915, 38.7977 ], [ -77.45757, 38.79729 ], [ -77.45681, 38.79583 ], [ -77.45601, 38.7961 ], [ -77.4529, 38.79615 ], [ -77.45216, 38.79643 ], [ -77.45158, 38.79713 ], [ -77.45009, 38.80017 ], [ -77.45008, 38.80081 ], [ -77.45073, 38.80189 ], [ -77.45044, 38.80234 ], [ -77.44756, 38.80385 ], [ -77.44303, 38.80362 ], [ -77.44163, 38.80143 ], [ -77.43922, 38.7987 ], [ -77.43782, 38.79495 ], [ -77.43645, 38.79291 ], [ -77.43672, 38.79142 ], [ -77.4365, 38.79068 ], [ -77.43302, 38.78702 ], [ -77.43355, 38.78069 ], [ -77.43332, 38.77996 ], [ -77.43235, 38.77986 ], [ -77.43076, 38.78107 ], [ -77.42979, 38.7811 ], [ -77.42668, 38.77899 ], [ -77.42204, 38.77714 ], [ -77.4214, 38.77604 ], [ -77.42029, 38.77594 ], [ -77.4197, 38.77537 ], [ -77.41764, 38.77471 ], [ -77.41369, 38.77281 ], [ -77.41263, 38.77171 ], [ -77.41272, 38.77125 ], [ -77.41521, 38.76971 ], [ -77.41582, 38.76746 ], [ -77.41548, 38.76673 ], [ -77.41376, 38.76631 ], [ -77.41278, 38.76528 ], [ -77.41278, 38.76274 ], [ -77.41366, 38.7619 ], [ -77.41547, 38.76216 ], [ -77.41702, 38.76138 ], [ -77.41728, 38.7609 ], [ -77.41568, 38.75791 ], [ -77.41431, 38.75766 ], [ -77.40793, 38.75464 ], [ -77.40668, 38.75396 ], [ -77.40637, 38.75342 ], [ -77.40684, 38.75248 ], [ -77.41074, 38.74913 ], [ -77.41182, 38.74695 ], [ -77.41197, 38.74576 ], [ -77.41168, 38.74481 ], [ -77.40865, 38.74497 ], [ -77.40707, 38.74601 ], [ -77.40395, 38.74605 ], [ -77.40378, 38.74667 ], [ -77.40456, 38.74778 ], [ -77.40513, 38.74973 ], [ -77.404, 38.7517 ], [ -77.4022, 38.75239 ], [ -77.40056, 38.75171 ], [ -77.39857, 38.75003 ], [ -77.39808, 38.74922 ], [ -77.39586, 38.74971 ], [ -77.39395, 38.74976 ], [ -77.39171, 38.74917 ], [ -77.389, 38.74915 ], [ -77.3882, 38.74883 ], [ -77.38806, 38.74706 ], [ -77.38966, 38.74451 ], [ -77.38971, 38.74301 ], [ -77.38576, 38.74142 ], [ -77.3806, 38.73754 ], [ -77.37924, 38.73613 ], [ -77.37811, 38.7342 ], [ -77.37746, 38.72944 ], [ -77.38012, 38.72519 ], [ -77.38052, 38.72323 ], [ -77.38037, 38.72137 ], [ -77.37969, 38.71915 ], [ -77.37866, 38.71737 ], [ -77.37584, 38.71386 ], [ -77.37339, 38.71161 ], [ -77.37031, 38.71027 ], [ -77.3688, 38.71054 ], [ -77.36819, 38.71143 ], [ -77.36795, 38.71303 ], [ -77.36747, 38.71378 ], [ -77.36643, 38.71439 ], [ -77.36397, 38.71506 ], [ -77.36316, 38.71572 ], [ -77.36143, 38.72044 ], [ -77.35982, 38.72305 ], [ -77.35782, 38.72484 ], [ -77.35602, 38.72546 ], [ -77.35497, 38.7248 ], [ -77.35257, 38.72239 ], [ -77.35087, 38.72153 ], [ -77.34834, 38.72114 ], [ -77.3447, 38.72113 ], [ -77.34164, 38.72002 ], [ -77.33681, 38.71972 ], [ -77.33379, 38.71901 ], [ -77.33292, 38.71853 ], [ -77.33219, 38.71741 ], [ -77.33296, 38.71279 ], [ -77.3327, 38.71207 ], [ -77.33201, 38.71144 ], [ -77.32965, 38.71121 ], [ -77.32595, 38.71248 ], [ -77.32448, 38.71265 ], [ -77.32232, 38.71243 ], [ -77.32092, 38.7119 ], [ -77.32023, 38.71084 ], [ -77.32027, 38.7096 ], [ -77.32391, 38.70775 ], [ -77.32691, 38.70413 ], [ -77.32696, 38.7031 ], [ -77.32586, 38.70188 ], [ -77.3247, 38.70154 ], [ -77.31901, 38.7012 ], [ -77.31442, 38.70137 ], [ -77.31275, 38.70226 ], [ -77.31068, 38.70508 ], [ -77.30905, 38.70646 ], [ -77.30598, 38.7078 ], [ -77.30423, 38.70808 ], [ -77.30285, 38.70794 ], [ -77.30127, 38.70706 ], [ -77.30007, 38.70537 ], [ -77.29858, 38.70423 ], [ -77.29399, 38.7027 ], [ -77.29007, 38.70052 ], [ -77.28688, 38.69924 ], [ -77.28114, 38.69584 ], [ -77.27498, 38.6941 ], [ -77.27181, 38.69146 ], [ -77.26926, 38.68967 ], [ -77.26777, 38.68918 ], [ -77.26513, 38.6871 ], [ -77.26342, 38.68639 ], [ -77.26187, 38.6863 ], [ -77.25776, 38.68466 ], [ -77.25617, 38.68364 ], [ -77.25414, 38.68152 ], [ -77.25478, 38.68118 ], [ -77.2521, 38.67784 ], [ -77.25036, 38.67415 ], [ -77.24527, 38.67208 ], [ -77.24382, 38.67115 ], [ -77.23846, 38.66549 ], [ -77.22354, 38.65192 ], [ -77.22205, 38.65012 ], [ -77.22095, 38.64807 ], [ -77.22023, 38.64436 ], [ -77.22098, 38.64041 ], [ -77.22971, 38.62629 ], [ -77.23015, 38.62509 ], [ -77.22734, 38.60457 ], [ -77.2037, 38.61817 ], [ -77.20275, 38.61768 ], [ -77.20197, 38.61768 ], [ -77.20018, 38.61893 ], [ -77.19698, 38.61954 ], [ -77.19149, 38.61917 ], [ -77.1904, 38.61959 ], [ -77.18964, 38.62054 ], [ -77.18529, 38.62168 ], [ -77.18261, 38.62179 ], [ -77.18148, 38.62224 ], [ -77.18027, 38.62325 ], [ -77.1763, 38.62408 ], [ -77.16637, 38.62511 ], [ -77.12968, 38.6347 ], [ -77.13102, 38.63672 ], [ -77.13188, 38.63989 ], [ -77.13297, 38.64111 ], [ -77.13351, 38.64252 ], [ -77.13281, 38.64422 ], [ -77.13293, 38.64471 ], [ -77.13548, 38.64637 ], [ -77.13629, 38.64723 ], [ -77.13642, 38.65023 ], [ -77.13244, 38.67414 ], [ -77.12732, 38.6786 ], [ -77.12595, 38.68064 ], [ -77.12497, 38.68151 ], [ -77.12263, 38.68526 ], [ -77.10376, 38.69786 ], [ -77.10238, 38.69819 ], [ -77.10102, 38.69807 ], [ -77.09827, 38.69905 ], [ -77.09633, 38.70052 ], [ -77.09585, 38.70058 ], [ -77.09335, 38.70269 ], [ -77.09143, 38.70339 ], [ -77.08896, 38.70508 ], [ -77.08831, 38.70518 ], [ -77.08799, 38.70471 ], [ -77.08822, 38.70522 ], [ -77.08761, 38.70567 ], [ -77.08485, 38.7068 ], [ -77.08324, 38.70712 ], [ -77.08004, 38.70892 ], [ -77.08022, 38.70999 ], [ -77.08083, 38.71038 ], [ -77.0808, 38.71113 ], [ -77.07987, 38.71208 ], [ -77.0798, 38.71269 ], [ -77.07923, 38.71305 ], [ -77.07747, 38.71346 ], [ -77.07717, 38.71311 ], [ -77.07513, 38.7126 ], [ -77.0743, 38.7129 ], [ -77.07426, 38.71199 ], [ -77.07316, 38.71081 ], [ -77.07143, 38.70998 ], [ -77.06179, 38.70981 ], [ -77.05779, 38.7099 ], [ -77.05651, 38.71022 ], [ -77.05352, 38.7098 ], [ -77.0529, 38.71001 ], [ -77.0519, 38.71109 ], [ -77.04832, 38.71281 ], [ -77.0462, 38.71443 ], [ -77.04334, 38.71844 ], [ -77.04325, 38.71903 ], [ -77.04357, 38.71901 ], [ -77.04372, 38.71919 ], [ -77.04319, 38.71932 ], [ -77.04215, 38.72426 ], [ -77.04147, 38.72585 ], [ -77.04184, 38.73641 ], [ -77.04159, 38.73682 ], [ -77.04348, 38.73924 ], [ -77.04227, 38.74116 ], [ -77.04136, 38.76567 ], [ -77.04136, 38.78541 ], [ -77.05984, 38.79405 ], [ -77.06361, 38.79535 ], [ -77.06303, 38.79642 ], [ -77.07001, 38.79914 ], [ -77.07541, 38.80054 ], [ -77.09792, 38.80328 ], [ -77.10192, 38.80352 ], [ -77.10715, 38.80317 ], [ -77.11229, 38.80206 ], [ -77.11301, 38.80299 ], [ -77.11681, 38.80154 ], [ -77.121, 38.80053 ], [ -77.13756, 38.79817 ], [ -77.13774, 38.80076 ] ], [ [ -77.27052, 38.8409 ], [ -77.2786, 38.84198 ], [ -77.27854, 38.84068 ], [ -77.28637, 38.84172 ], [ -77.28647, 38.83862 ], [ -77.28735, 38.83863 ], [ -77.28726, 38.83612 ], [ -77.28841, 38.83625 ], [ -77.2884, 38.83652 ], [ -77.29063, 38.83652 ], [ -77.29674, 38.83731 ], [ -77.29673, 38.83597 ], [ -77.29716, 38.83498 ], [ -77.30228, 38.83534 ], [ -77.30225, 38.83492 ], [ -77.30179, 38.83475 ], [ -77.30133, 38.8331 ], [ -77.30307, 38.83282 ], [ -77.30396, 38.83608 ], [ -77.30786, 38.83574 ], [ -77.30805, 38.83688 ], [ -77.31199, 38.83677 ], [ -77.31192, 38.83571 ], [ -77.31261, 38.83571 ], [ -77.31273, 38.83631 ], [ -77.31411, 38.83582 ], [ -77.31622, 38.83641 ], [ -77.31869, 38.83465 ], [ -77.31876, 38.84201 ], [ -77.32269, 38.8432 ], [ -77.32589, 38.84699 ], [ -77.33125, 38.84733 ], [ -77.33054, 38.84781 ], [ -77.33042, 38.84872 ], [ -77.33156, 38.85175 ], [ -77.33481, 38.85136 ], [ -77.33505, 38.85267 ], [ -77.33485, 38.85374 ], [ -77.32881, 38.86389 ], [ -77.32935, 38.8641 ], [ -77.32879, 38.86485 ], [ -77.31689, 38.86695 ], [ -77.31291, 38.86692 ], [ -77.31115, 38.86649 ], [ -77.30963, 38.86558 ], [ -77.30849, 38.86446 ], [ -77.30801, 38.86329 ], [ -77.30475, 38.86338 ], [ -77.30314, 38.86921 ], [ -77.29249, 38.87169 ], [ -77.29187, 38.87109 ], [ -77.2907, 38.871 ], [ -77.29166, 38.8675 ], [ -77.2706, 38.86608 ], [ -77.27023, 38.86564 ], [ -77.26888, 38.86269 ], [ -77.26862, 38.85993 ], [ -77.26981, 38.85559 ], [ -77.26884, 38.85441 ], [ -77.26924, 38.85371 ], [ -77.26901, 38.8523 ], [ -77.26938, 38.85173 ], [ -77.27097, 38.8513 ], [ -77.27174, 38.84849 ], [ -77.26998, 38.84334 ], [ -77.27052, 38.8409 ] ] ], [ [ [ -77.31648, 38.84615 ], [ -77.31649, 38.84501 ], [ -77.30877, 38.84284 ], [ -77.30703, 38.84507 ], [ -77.30661, 38.84626 ], [ -77.30818, 38.84667 ], [ -77.30845, 38.84616 ], [ -77.3106, 38.84683 ], [ -77.31178, 38.8466 ], [ -77.31207, 38.84552 ], [ -77.31499, 38.84546 ], [ -77.31468, 38.84617 ], [ -77.31648, 38.84615 ] ] ] ] } },
{ "type": "Feature", "properties": { "name": "Washington, DC" }, "geometry": { "type": "Polygon", "coordinates": [ [ [ -77.11975, 38.93435 ], [ -77.11647, 38.92963 ], [ -77.11596, 38.92816 ], [ -77.1149, 38.92738 ], [ -77.11266, 38.92466 ], [ -77.10851, 38.92164 ], [ -77.1068, 38.92003 ], [ -77.10559, 38.91763 ], [ -77.10413, 38.91592 ], [ -77.10341, 38.91328 ], [ -77.10203, 38.91192 ], [ -77.09354, 38.90593 ], [ -77.08658, 38.90301 ], [ -77.08264, 38.90228 ], [ -77.07825, 38.90237 ], [ -77.07337, 38.90112 ], [ -77.07066, 38.9012 ], [ -77.06864, 38.90029 ], [ -77.06757, 38.89923 ], [ -77.0676, 38.89809 ], [ -77.06722, 38.89716 ], [ -77.0659, 38.89483 ], [ -77.06601, 38.89453 ], [ -77.06513, 38.89356 ], [ -77.06464, 38.89172 ], [ -77.06399, 38.89094 ], [ -77.06377, 38.89019 ], [ -77.06441, 38.8896 ], [ -77.06425, 38.88896 ], [ -77.05914, 38.88091 ], [ -77.05793, 38.88026 ], [ -77.05558, 38.88034 ], [ -77.05414, 38.87971 ], [ -77.05375, 38.87888 ], [ -77.05354, 38.87901 ], [ -77.05153, 38.87656 ], [ -77.05168, 38.87391 ], [ -77.05015, 38.87165 ], [ -77.04915, 38.87131 ], [ -77.04652, 38.87206 ], [ -77.04624, 38.87245 ], [ -77.04654, 38.87305 ], [ -77.04639, 38.87397 ], [ -77.04722, 38.87496 ], [ -77.04587, 38.87561 ], [ -77.04333, 38.87411 ], [ -77.04068, 38.87144 ], [ -77.03946, 38.86973 ], [ -77.038, 38.86666 ], [ -77.03774, 38.86511 ], [ -77.03792, 38.86428 ], [ -77.04079, 38.86366 ], [ -77.0425, 38.86368 ], [ -77.04245, 38.86395 ], [ -77.04276, 38.86337 ], [ -77.04172, 38.86324 ], [ -77.04037, 38.86237 ], [ -77.03986, 38.86269 ], [ -77.03974, 38.86324 ], [ -77.03808, 38.86329 ], [ -77.03758, 38.86127 ], [ -77.0368, 38.86111 ], [ -77.03539, 38.85975 ], [ -77.03417, 38.85768 ], [ -77.03284, 38.85503 ], [ -77.03221, 38.85167 ], [ -77.03227, 38.84802 ], [ -77.03307, 38.84455 ], [ -77.0339, 38.84281 ], [ -77.03459, 38.8401 ], [ -77.0368, 38.83941 ], [ -77.03894, 38.83925 ], [ -77.04178, 38.83952 ], [ -77.04307, 38.8398 ], [ -77.04341, 38.84056 ], [ -77.0439, 38.8402 ], [ -77.04474, 38.84021 ], [ -77.04615, 38.84118 ], [ -77.04802, 38.84126 ], [ -77.04749, 38.84065 ], [ -77.04674, 38.84063 ], [ -77.04587, 38.84015 ], [ -77.04651, 38.83989 ], [ -77.04527, 38.83848 ], [ -77.04522, 38.83593 ], [ -77.04444, 38.83382 ], [ -77.04377, 38.83336 ], [ -77.04321, 38.83143 ], [ -77.04281, 38.83119 ], [ -77.04198, 38.83148 ], [ -77.04258, 38.83333 ], [ -77.04189, 38.83371 ], [ -77.03912, 38.8321 ], [ -77.03776, 38.83014 ], [ -77.03878, 38.82447 ], [ -77.03977, 38.82375 ], [ -77.04062, 38.8236 ], [ -77.04111, 38.82294 ], [ -77.04076, 38.82209 ], [ -77.0395, 38.82166 ], [ -77.03997, 38.82025 ], [ -77.03892, 38.8195 ], [ -77.03912, 38.81888 ], [ -77.03841, 38.81609 ], [ -77.03734, 38.81463 ], [ -77.03729, 38.81053 ], [ -77.03919, 38.8005 ], [ -77.03901, 38.79164 ], [ -76.90939, 38.89285 ], [ -76.93431, 38.91236 ], [ -76.93706, 38.91482 ], [ -77.04088, 38.99585 ], [ -77.09991, 38.9497 ], [ -77.11886, 38.93536 ], [ -77.11975, 38.93435 ] ] ] } },
{ "type": "Feature", "properties": { "name": "Montgomery County, MD" }, "geometry": { "type": "Polygon", "coordinates": [ [ [ -77.14348, 39.29296 ], [ -77.14543, 39.29596 ], [ -77.14826, 39.29812 ], [ -77.14912, 39.29929 ], [ -77.1499, 39.299 ], [ -77.15147, 39.29999 ], [ -77.15341, 39.30203 ], [ -77.15741, 39.30416 ], [ -77.15977, 39.3049 ], [ -77.16094, 39.30672 ], [ -77.16233, 39.30792 ], [ -77.16459, 39.30744 ], [ -77.165, 39.30822 ], [ -77.16488, 39.30889 ], [ -77.16566, 39.30969 ], [ -77.16579, 39.31091 ], [ -77.16678, 39.31214 ], [ -77.16886, 39.31239 ], [ -77.17035, 39.31311 ], [ -77.17173, 39.31498 ], [ -77.17159, 39.31519 ], [ -77.17192, 39.31528 ], [ -77.17171, 39.31556 ], [ -77.17225, 39.31629 ], [ -77.17328, 39.32048 ], [ -77.17477, 39.32225 ], [ -77.17552, 39.32258 ], [ -77.17855, 39.32546 ], [ -77.1802, 39.32824 ], [ -77.18149, 39.32929 ], [ -77.18262, 39.33221 ], [ -77.18463, 39.3353 ], [ -77.18459, 39.33614 ], [ -77.18573, 39.33673 ], [ -77.1868, 39.3382 ], [ -77.18711, 39.3406 ], [ -77.18381, 39.34546 ], [ -77.18022, 39.34655 ], [ -77.1688, 39.3535 ], [ -77.17136, 39.35262 ], [ -77.19161, 39.34306 ], [ -77.22688, 39.32729 ], [ -77.24707, 39.31743 ], [ -77.2735, 39.30544 ], [ -77.29977, 39.29256 ], [ -77.30946, 39.28857 ], [ -77.39643, 39.24799 ], [ -77.45475, 39.22166 ], [ -77.45881, 39.22027 ], [ -77.46131, 39.21766 ], [ -77.46988, 39.21222 ], [ -77.4738, 39.20835 ], [ -77.475, 39.20611 ], [ -77.47516, 39.20549 ], [ -77.4747, 39.20581 ], [ -77.47448, 39.20549 ], [ -77.4756, 39.20335 ], [ -77.47599, 39.20183 ], [ -77.47554, 39.199 ], [ -77.47493, 39.19739 ], [ -77.47509, 39.19543 ], [ -77.47666, 39.19182 ], [ -77.47867, 39.18967 ], [ -77.48048, 39.18842 ], [ -77.48098, 39.18843 ], [ -77.48062, 39.18832 ], [ -77.4812, 39.18791 ], [ -77.48579, 39.18603 ], [ -77.49074, 39.18539 ], [ -77.50082, 39.18298 ], [ -77.50455, 39.18238 ], [ -77.50753, 39.1814 ], [ -77.51031, 39.17927 ], [ -77.51364, 39.17522 ], [ -77.5186, 39.16774 ], [ -77.5213, 39.16187 ], [ -77.52212, 39.15806 ], [ -77.52487, 39.14884 ], [ -77.52743, 39.14671 ], [ -77.52768, 39.14466 ], [ -77.52711, 39.13652 ], [ -77.52466, 39.12772 ], [ -77.52143, 39.12233 ], [ -77.52009, 39.12087 ], [ -77.51845, 39.11978 ], [ -77.51589, 39.11865 ], [ -77.51221, 39.11804 ], [ -77.50693, 39.11599 ], [ -77.50075, 39.11414 ], [ -77.49851, 39.11365 ], [ -77.49757, 39.11376 ], [ -77.4907, 39.11175 ], [ -77.4854, 39.10931 ], [ -77.48357, 39.10788 ], [ -77.48101, 39.10569 ], [ -77.47822, 39.10252 ], [ -77.4762, 39.09956 ], [ -77.47436, 39.0956 ], [ -77.47283, 39.09318 ], [ -77.46866, 39.08939 ], [ -77.4683, 39.08834 ], [ -77.4691, 39.08664 ], [ -77.46896, 39.08562 ], [ -77.46426, 39.07983 ], [ -77.4625, 39.0764 ], [ -77.4606, 39.07484 ], [ -77.45772, 39.07366 ], [ -77.45473, 39.07281 ], [ -77.44962, 39.0723 ], [ -77.44542, 39.07123 ], [ -77.4417, 39.07131 ], [ -77.43484, 39.0702 ], [ -77.43076, 39.06927 ], [ -77.42766, 39.06791 ], [ -77.42073, 39.06633 ], [ -77.41613, 39.06645 ], [ -77.40545, 39.06452 ], [ -77.39835, 39.06466 ], [ -77.39045, 39.06283 ], [ -77.38579, 39.06213 ], [ -77.38001, 39.06263 ], [ -77.3744, 39.06175 ], [ -77.36827, 39.06157 ], [ -77.36755, 39.06193 ], [ -77.36229, 39.06256 ], [ -77.35171, 39.06231 ], [ -77.34315, 39.06303 ], [ -77.34014, 39.06291 ], [ -77.33714, 39.06226 ], [ -77.33406, 39.06121 ], [ -77.33396, 39.05987 ], [ -77.33355, 39.05939 ], [ -77.32916, 39.05815 ], [ -77.32793, 39.05743 ], [ -77.32682, 39.05735 ], [ -77.32425, 39.05573 ], [ -77.3228, 39.05537 ], [ -77.31983, 39.05342 ], [ -77.3183, 39.05358 ], [ -77.31695, 39.05269 ], [ -77.31281, 39.05176 ], [ -77.30886, 39.05224 ], [ -77.3061, 39.05188 ], [ -77.29866, 39.04863 ], [ -77.29884, 39.04839 ], [ -77.29408, 39.04695 ], [ -77.29039, 39.04494 ], [ -77.28586, 39.0412 ], [ -77.28214, 39.03915 ], [ -77.27504, 39.03428 ], [ -77.26808, 39.03223 ], [ -77.26024, 39.03118 ], [ -77.25948, 39.03083 ], [ -77.26083, 39.031 ], [ -77.25463, 39.02969 ], [ -77.25037, 39.02712 ], [ -77.24909, 39.02688 ], [ -77.24779, 39.02613 ], [ -77.24632, 39.02468 ], [ -77.24494, 39.02152 ], [ -77.24492, 39.01957 ], [ -77.24538, 39.01753 ], [ -77.24629, 39.01645 ], [ -77.24694, 39.01477 ], [ -77.25118, 39.01189 ], [ -77.25326, 39.00916 ], [ -77.25532, 39.00488 ], [ -77.25576, 39.00188 ], [ -77.25495, 39.00072 ], [ -77.25453, 38.99886 ], [ -77.25363, 38.99783 ], [ -77.25294, 38.99545 ], [ -77.24998, 38.99464 ], [ -77.24995, 38.99405 ], [ -77.24861, 38.99262 ], [ -77.24812, 38.99057 ], [ -77.2454, 38.98423 ], [ -77.24503, 38.98268 ], [ -77.24407, 38.98211 ], [ -77.24392, 38.98235 ], [ -77.24172, 38.9817 ], [ -77.23995, 38.98075 ], [ -77.23621, 38.97692 ], [ -77.23553, 38.97669 ], [ -77.2352, 38.97608 ], [ -77.23454, 38.97623 ], [ -77.23233, 38.97929 ], [ -77.23094, 38.97928 ], [ -77.23048, 38.97973 ], [ -77.22995, 38.97971 ], [ -77.22859, 38.9785 ], [ -77.22638, 38.97411 ], [ -77.22375, 38.97212 ], [ -77.22117, 38.97134 ], [ -77.21876, 38.97154 ], [ -77.21152, 38.96934 ], [ -77.2102, 38.97008 ], [ -77.20814, 38.97025 ], [ -77.20634, 38.9697 ], [ -77.20457, 38.96842 ], [ -77.20069, 38.96726 ], [ -77.19769, 38.96673 ], [ -77.19618, 38.96706 ], [ -77.19584, 38.96755 ], [ -77.19501, 38.96755 ], [ -77.19409, 38.96823 ], [ -77.19113, 38.96805 ], [ -77.18877, 38.96748 ], [ -77.1879, 38.96782 ], [ -77.1842, 38.96784 ], [ -77.18316, 38.96865 ], [ -77.18125, 38.96878 ], [ -77.18073, 38.96843 ], [ -77.17779, 38.96799 ], [ -77.17512, 38.96817 ], [ -77.17232, 38.96747 ], [ -77.17112, 38.96653 ], [ -77.1698, 38.96632 ], [ -77.16914, 38.96628 ], [ -77.16844, 38.96704 ], [ -77.16763, 38.9673 ], [ -77.16435, 38.96772 ], [ -77.16064, 38.96618 ], [ -77.15816, 38.96579 ], [ -77.15727, 38.96578 ], [ -77.15716, 38.96606 ], [ -77.15669, 38.966 ], [ -77.15688, 38.96589 ], [ -77.1569, 38.96582 ], [ -77.15615, 38.96602 ], [ -77.15088, 38.96566 ], [ -77.1473, 38.96449 ], [ -77.14508, 38.96315 ], [ -77.1409, 38.9584 ], [ -77.13532, 38.9536 ], [ -77.13198, 38.9475 ], [ -77.13168, 38.94756 ], [ -77.12841, 38.9411 ], [ -77.1245, 38.93845 ], [ -77.11976, 38.93434 ], [ -77.11886, 38.93536 ], [ -77.09991, 38.9497 ], [ -77.04088, 38.99585 ], [ -77.00244, 38.96567 ], [ -76.9979, 38.97174 ], [ -76.99418, 38.97529 ], [ -76.99072, 38.97564 ], [ -76.98675, 38.97715 ], [ -76.98703, 38.97766 ], [ -76.98479, 38.98718 ], [ -76.9878, 38.9891 ], [ -76.9911, 38.99241 ], [ -76.98906, 38.99558 ], [ -76.98569, 38.99998 ], [ -76.98415, 39.00144 ], [ -76.98026, 39.0072 ], [ -76.96609, 39.02635 ], [ -76.96007, 39.03384 ], [ -76.949, 39.04921 ], [ -76.93032, 39.07404 ], [ -76.92868, 39.07672 ], [ -76.91758, 39.09127 ], [ -76.90981, 39.10248 ], [ -76.91046, 39.10318 ], [ -76.90908, 39.1042 ], [ -76.90883, 39.10385 ], [ -76.90744, 39.10624 ], [ -76.9039, 39.11462 ], [ -76.90729, 39.11791 ], [ -76.90241, 39.12032 ], [ -76.90293, 39.1211 ], [ -76.90134, 39.12182 ], [ -76.90079, 39.12113 ], [ -76.89427, 39.12386 ], [ -76.8888, 39.12999 ], [ -76.88851, 39.13097 ], [ -76.88943, 39.13103 ], [ -76.89366, 39.12838 ], [ -76.89872, 39.1265 ], [ -76.90283, 39.12556 ], [ -76.90673, 39.1254 ], [ -76.91145, 39.12669 ], [ -76.91545, 39.1268 ], [ -76.91631, 39.12885 ], [ -76.91764, 39.13013 ], [ -76.91847, 39.13172 ], [ -76.9191, 39.13223 ], [ -76.92475, 39.1343 ], [ -76.92644, 39.13531 ], [ -76.92776, 39.13807 ], [ -76.92821, 39.13825 ], [ -76.9291, 39.13839 ], [ -76.93342, 39.1366 ], [ -76.93569, 39.13427 ], [ -76.93828, 39.13278 ], [ -76.9395, 39.13248 ], [ -76.94193, 39.13266 ], [ -76.94369, 39.13211 ], [ -76.94522, 39.13022 ], [ -76.94599, 39.12958 ], [ -76.94675, 39.12941 ], [ -76.94858, 39.1296 ], [ -76.95852, 39.13402 ], [ -76.95873, 39.13432 ], [ -76.95807, 39.13545 ], [ -76.95547, 39.13809 ], [ -76.95307, 39.13897 ], [ -76.95243, 39.14043 ], [ -76.95288, 39.14276 ], [ -76.95015, 39.14351 ], [ -76.94994, 39.14396 ], [ -76.95075, 39.14532 ], [ -76.95212, 39.14629 ], [ -76.9561, 39.1448 ], [ -76.96222, 39.14566 ], [ -76.96319, 39.14606 ], [ -76.96407, 39.14819 ], [ -76.96505, 39.1486 ], [ -76.96884, 39.14854 ], [ -76.9729, 39.14947 ], [ -76.97543, 39.14958 ], [ -76.9767, 39.15199 ], [ -76.97674, 39.15402 ], [ -76.97392, 39.15856 ], [ -76.9736, 39.16044 ], [ -76.97297, 39.16147 ], [ -76.97334, 39.16207 ], [ -76.97557, 39.1632 ], [ -76.97798, 39.16291 ], [ -76.97862, 39.16365 ], [ -76.97986, 39.16363 ], [ -76.98084, 39.16429 ], [ -76.98198, 39.16425 ], [ -76.98335, 39.16531 ], [ -76.98616, 39.16574 ], [ -76.98754, 39.16638 ], [ -76.99303, 39.16646 ], [ -76.99427, 39.16682 ], [ -76.99717, 39.1664 ], [ -77.00098, 39.16954 ], [ -77.00145, 39.17014 ], [ -77.0014, 39.17088 ], [ -76.99763, 39.17386 ], [ -76.99753, 39.17447 ], [ -76.99874, 39.17513 ], [ -77.00253, 39.17424 ], [ -77.00434, 39.17428 ], [ -77.00553, 39.17614 ], [ -77.00262, 39.17617 ], [ -76.99958, 39.17709 ], [ -76.99888, 39.1778 ], [ -76.99991, 39.17863 ], [ -77.00491, 39.17922 ], [ -77.00742, 39.1804 ], [ -77.00846, 39.18174 ], [ -77.00834, 39.18225 ], [ -77.00771, 39.18268 ], [ -77.00759, 39.18486 ], [ -77.00646, 39.18552 ], [ -77.00433, 39.18926 ], [ -77.00445, 39.1903 ], [ -77.00402, 39.19102 ], [ -77.00417, 39.19233 ], [ -77.00497, 39.19332 ], [ -77.01217, 39.19518 ], [ -77.00942, 39.20673 ], [ -77.01757, 39.20975 ], [ -77.01929, 39.21292 ], [ -77.02229, 39.21399 ], [ -77.03232, 39.22032 ], [ -77.03207, 39.22441 ], [ -77.03452, 39.22614 ], [ -77.03588, 39.22967 ], [ -77.03849, 39.23145 ], [ -77.04119, 39.2344 ], [ -77.0432, 39.23557 ], [ -77.04481, 39.23767 ], [ -77.05025, 39.23758 ], [ -77.05353, 39.23882 ], [ -77.0558, 39.2383 ], [ -77.05725, 39.23916 ], [ -77.05773, 39.24024 ], [ -77.05911, 39.24067 ], [ -77.06004, 39.24019 ], [ -77.06173, 39.24154 ], [ -77.0607, 39.24297 ], [ -77.06113, 39.24389 ], [ -77.0611, 39.24497 ], [ -77.06201, 39.24648 ], [ -77.06248, 39.24671 ], [ -77.06214, 39.24723 ], [ -77.06438, 39.24881 ], [ -77.06557, 39.25096 ], [ -77.06642, 39.25158 ], [ -77.0673, 39.25157 ], [ -77.0684, 39.25228 ], [ -77.06829, 39.2526 ], [ -77.06867, 39.25293 ], [ -77.06926, 39.25249 ], [ -77.06969, 39.25262 ], [ -77.07008, 39.25319 ], [ -77.06974, 39.25364 ], [ -77.0699, 39.25401 ], [ -77.07055, 39.25412 ], [ -77.07146, 39.25501 ], [ -77.07263, 39.25495 ], [ -77.07433, 39.25601 ], [ -77.07741, 39.25627 ], [ -77.07844, 39.2572 ], [ -77.07881, 39.2583 ], [ -77.0821, 39.26003 ], [ -77.08592, 39.26049 ], [ -77.08908, 39.26228 ], [ -77.0932, 39.26247 ], [ -77.09369, 39.2629 ], [ -77.09596, 39.2635 ], [ -77.09635, 39.26419 ], [ -77.09726, 39.26476 ], [ -77.1016, 39.26524 ], [ -77.10362, 39.266 ], [ -77.10491, 39.26536 ], [ -77.10507, 39.26466 ], [ -77.10575, 39.26431 ], [ -77.1078, 39.26446 ], [ -77.11081, 39.26414 ], [ -77.11242, 39.26485 ], [ -77.11379, 39.26454 ], [ -77.11502, 39.26517 ], [ -77.11539, 39.2663 ], [ -77.11637, 39.26731 ], [ -77.11699, 39.26754 ], [ -77.12061, 39.26703 ], [ -77.12308, 39.26768 ], [ -77.1235, 39.26809 ], [ -77.12618, 39.26863 ], [ -77.12939, 39.2686 ], [ -77.13042, 39.26832 ], [ -77.13152, 39.27013 ], [ -77.13324, 39.27036 ], [ -77.13421, 39.27105 ], [ -77.13464, 39.27244 ], [ -77.13413, 39.27385 ], [ -77.13406, 39.27657 ], [ -77.13503, 39.2771 ], [ -77.13556, 39.27787 ], [ -77.13641, 39.2782 ], [ -77.1365, 39.27929 ], [ -77.13721, 39.27966 ], [ -77.13753, 39.28042 ], [ -77.13835, 39.28097 ], [ -77.13997, 39.2831 ], [ -77.13954, 39.28431 ], [ -77.13983, 39.28478 ], [ -77.13976, 39.28562 ], [ -77.1381, 39.28722 ], [ -77.13789, 39.28815 ], [ -77.1402, 39.28928 ], [ -77.14006, 39.2921 ], [ -77.14348, 39.29296 ] ] ] } },
{ "type": "Feature", "properties": { "name": "Prince George's County, MD" }, "geometry": { "type": "Polygon", "coordinates": [ [ [ -76.93706, 38.91482 ], [ -76.90939, 38.89285 ], [ -77.03937, 38.79159 ], [ -77.03955, 38.79049 ], [ -77.04047, 38.7904 ], [ -77.0401, 38.78991 ], [ -77.04025, 38.78522 ], [ -77.04136, 38.78541 ], [ -77.04136, 38.76567 ], [ -77.04227, 38.74116 ], [ -77.04348, 38.73924 ], [ -77.04159, 38.73682 ], [ -77.04184, 38.73641 ], [ -77.04147, 38.72585 ], [ -77.04215, 38.72426 ], [ -77.04319, 38.71932 ], [ -77.04372, 38.71919 ], [ -77.04325, 38.71903 ], [ -77.04334, 38.71844 ], [ -77.0462, 38.71443 ], [ -77.04832, 38.71281 ], [ -77.0519, 38.71109 ], [ -77.05314, 38.70989 ], [ -77.05651, 38.71022 ], [ -77.05779, 38.7099 ], [ -77.06179, 38.70981 ], [ -77.07143, 38.70998 ], [ -77.07316, 38.71081 ], [ -77.07426, 38.71199 ], [ -77.0743, 38.7129 ], [ -77.07513, 38.7126 ], [ -77.07792, 38.71346 ], [ -77.0798, 38.71269 ], [ -77.07987, 38.71208 ], [ -77.0808, 38.71114 ], [ -77.08083, 38.71038 ], [ -77.08022, 38.70999 ], [ -77.08, 38.70895 ], [ -77.08324, 38.70712 ], [ -77.08639, 38.70623 ], [ -77.0786, 38.69411 ], [ -77.076, 38.68722 ], [ -77.07483, 38.68538 ], [ -77.07339, 38.68168 ], [ -77.0721, 38.67701 ], [ -77.0586, 38.64142 ], [ -77.05573, 38.63548 ], [ -77.0502, 38.62072 ], [ -77.04781, 38.61617 ], [ -77.04733, 38.61708 ], [ -77.04649, 38.61759 ], [ -77.04632, 38.61851 ], [ -77.04595, 38.61887 ], [ -77.04627, 38.62009 ], [ -77.04582, 38.62025 ], [ -77.04581, 38.62074 ], [ -77.0431, 38.6225 ], [ -77.04276, 38.62347 ], [ -77.04157, 38.62377 ], [ -77.04159, 38.62423 ], [ -77.04064, 38.62565 ], [ -77.04, 38.62596 ], [ -77.03949, 38.62855 ], [ -77.03827, 38.62922 ], [ -77.03844, 38.62993 ], [ -77.03618, 38.63058 ], [ -77.03476, 38.63157 ], [ -77.0326, 38.63205 ], [ -77.031, 38.63338 ], [ -77.02865, 38.6337 ], [ -77.02714, 38.63484 ], [ -77.0265, 38.63596 ], [ -77.02686, 38.63696 ], [ -77.02635, 38.6386 ], [ -77.02502, 38.63954 ], [ -77.02491, 38.64042 ], [ -77.02383, 38.64076 ], [ -77.02395, 38.64136 ], [ -77.02237, 38.64206 ], [ -77.02164, 38.64377 ], [ -77.02177, 38.64456 ], [ -77.02113, 38.64513 ], [ -77.02125, 38.64616 ], [ -77.02009, 38.6476 ], [ -77.01792, 38.64898 ], [ -77.01479, 38.64993 ], [ -77.01451, 38.65031 ], [ -77.01213, 38.65065 ], [ -77.0113, 38.65132 ], [ -77.01103, 38.65198 ], [ -77.00915, 38.65247 ], [ -77.00696, 38.65225 ], [ -77.00613, 38.65282 ], [ -77.00525, 38.65274 ], [ -77.00523, 38.65363 ], [ -77.00366, 38.65332 ], [ -77.00193, 38.65477 ], [ -76.99906, 38.65418 ], [ -76.99721, 38.65523 ], [ -76.99572, 38.65541 ], [ -76.99498, 38.65607 ], [ -76.99396, 38.6564 ], [ -76.99241, 38.65648 ], [ -76.99143, 38.65716 ], [ -76.98945, 38.65645 ], [ -76.98724, 38.65707 ], [ -76.98671, 38.65685 ], [ -76.98439, 38.65769 ], [ -76.98237, 38.65751 ], [ -76.98154, 38.65793 ], [ -76.9802, 38.65783 ], [ -76.97959, 38.65813 ], [ -76.9787, 38.65765 ], [ -76.97682, 38.65869 ], [ -76.97446, 38.65826 ], [ -76.97251, 38.65842 ], [ -76.9719, 38.65957 ], [ -76.97106, 38.65947 ], [ -76.97057, 38.65987 ], [ -76.9705, 38.66045 ], [ -76.96705, 38.66106 ], [ -76.96656, 38.66082 ], [ -76.96575, 38.66127 ], [ -76.95787, 38.65882 ], [ -76.9566, 38.65896 ], [ -76.9545, 38.65846 ], [ -76.95129, 38.65842 ], [ -76.94676, 38.65899 ], [ -76.94425, 38.65747 ], [ -76.9435, 38.65641 ], [ -76.94207, 38.65628 ], [ -76.93972, 38.65454 ], [ -76.93771, 38.65479 ], [ -76.93738, 38.65517 ], [ -76.9366, 38.65491 ], [ -76.93503, 38.65525 ], [ -76.93232, 38.65477 ], [ -76.93063, 38.65409 ], [ -76.92709, 38.65482 ], [ -76.92178, 38.65423 ], [ -76.92058, 38.65353 ], [ -76.92017, 38.65391 ], [ -76.91684, 38.6525 ], [ -76.91501, 38.65298 ], [ -76.91186, 38.65265 ], [ -76.91119, 38.65292 ], [ -76.91012, 38.65218 ], [ -76.90899, 38.65227 ], [ -76.9047, 38.65156 ], [ -76.90348, 38.6525 ], [ -76.90127, 38.65234 ], [ -76.89985, 38.65308 ], [ -76.89834, 38.65461 ], [ -76.89532, 38.65456 ], [ -76.89434, 38.65528 ], [ -76.89044, 38.65497 ], [ -76.88935, 38.65677 ], [ -76.88878, 38.65679 ], [ -76.88847, 38.65715 ], [ -76.88587, 38.65762 ], [ -76.88227, 38.65696 ], [ -76.88117, 38.65753 ], [ -76.87999, 38.65866 ], [ -76.87911, 38.65898 ], [ -76.87599, 38.65833 ], [ -76.87404, 38.65826 ], [ -76.87281, 38.65879 ], [ -76.87157, 38.65888 ], [ -76.86869, 38.65793 ], [ -76.86687, 38.65881 ], [ -76.86612, 38.65885 ], [ -76.86417, 38.65805 ], [ -76.86296, 38.65865 ], [ -76.79725, 38.63449 ], [ -76.77784, 38.62705 ], [ -76.77068, 38.62469 ], [ -76.7691, 38.62381 ], [ -76.76387, 38.62254 ], [ -76.76243, 38.62128 ], [ -76.76085, 38.62061 ], [ -76.75754, 38.61964 ], [ -76.75463, 38.6201 ], [ -76.7485, 38.6182 ], [ -76.74757, 38.61733 ], [ -76.74733, 38.61668 ], [ -76.74583, 38.60525 ], [ -76.74643, 38.60334 ], [ -76.74583, 38.60072 ], [ -76.74644, 38.59947 ], [ -76.74534, 38.59731 ], [ -76.74554, 38.5967 ], [ -76.74429, 38.59542 ], [ -76.74321, 38.5951 ], [ -76.74261, 38.59394 ], [ -76.74229, 38.58417 ], [ -76.74267, 38.58244 ], [ -76.74113, 38.57881 ], [ -76.74234, 38.57658 ], [ -76.73966, 38.57291 ], [ -76.74086, 38.57164 ], [ -76.74101, 38.57046 ], [ -76.73984, 38.56941 ], [ -76.73991, 38.56876 ], [ -76.73935, 38.56761 ], [ -76.74004, 38.5663 ], [ -76.74171, 38.56592 ], [ -76.74037, 38.56526 ], [ -76.73988, 38.56469 ], [ -76.74, 38.564 ], [ -76.74059, 38.56354 ], [ -76.73977, 38.56265 ], [ -76.74029, 38.56184 ], [ -76.74, 38.5612 ], [ -76.74064, 38.55878 ], [ -76.73871, 38.55804 ], [ -76.73751, 38.5571 ], [ -76.73481, 38.55767 ], [ -76.73328, 38.55743 ], [ -76.73118, 38.55516 ], [ -76.72848, 38.55426 ], [ -76.72328, 38.55139 ], [ -76.72038, 38.55121 ], [ -76.71959, 38.551 ], [ -76.71883, 38.55032 ], [ -76.71786, 38.55047 ], [ -76.71661, 38.54974 ], [ -76.71513, 38.54977 ], [ -76.7152, 38.54929 ], [ -76.71664, 38.54858 ], [ -76.7163, 38.54798 ], [ -76.71549, 38.54819 ], [ -76.7129, 38.54769 ], [ -76.71252, 38.54805 ], [ -76.71246, 38.5489 ], [ -76.71184, 38.54889 ], [ -76.71013, 38.54709 ], [ -76.70782, 38.54654 ], [ -76.70694, 38.54343 ], [ -76.70652, 38.54321 ], [ -76.70455, 38.54309 ], [ -76.70439, 38.54419 ], [ -76.70548, 38.54406 ], [ -76.70614, 38.54542 ], [ -76.70565, 38.54644 ], [ -76.70388, 38.54708 ], [ -76.70229, 38.54641 ], [ -76.70202, 38.54554 ], [ -76.70115, 38.54468 ], [ -76.70116, 38.54247 ], [ -76.7004, 38.5423 ], [ -76.69776, 38.54328 ], [ -76.69706, 38.54316 ], [ -76.69254, 38.54117 ], [ -76.69204, 38.5405 ], [ -76.69148, 38.53845 ], [ -76.69078, 38.53794 ], [ -76.68634, 38.53741 ], [ -76.68488, 38.53681 ], [ -76.6783, 38.53537 ], [ -76.67546, 38.53588 ], [ -76.6756, 38.53732 ], [ -76.67444, 38.53992 ], [ -76.67264, 38.54682 ], [ -76.67227, 38.55285 ], [ -76.6729, 38.55465 ], [ -76.67547, 38.55882 ], [ -76.67654, 38.56258 ], [ -76.67867, 38.56555 ], [ -76.67914, 38.56673 ], [ -76.67889, 38.56795 ], [ -76.67769, 38.5699 ], [ -76.67759, 38.57104 ], [ -76.6778, 38.57237 ], [ -76.67944, 38.57604 ], [ -76.6807, 38.5805 ], [ -76.67948, 38.58521 ], [ -76.67728, 38.58957 ], [ -76.67517, 38.59211 ], [ -76.67469, 38.5933 ], [ -76.67441, 38.59573 ], [ -76.67256, 38.59927 ], [ -76.67241, 38.60063 ], [ -76.67317, 38.60331 ], [ -76.67348, 38.60725 ], [ -76.67222, 38.6144 ], [ -76.67233, 38.61753 ], [ -76.67847, 38.62732 ], [ -76.68122, 38.62873 ], [ -76.68346, 38.62913 ], [ -76.68614, 38.63018 ], [ -76.69018, 38.63304 ], [ -76.69202, 38.63493 ], [ -76.69285, 38.63644 ], [ -76.69208, 38.64405 ], [ -76.69212, 38.6466 ], [ -76.69163, 38.64851 ], [ -76.68913, 38.65125 ], [ -76.68513, 38.65477 ], [ -76.68319, 38.65881 ], [ -76.68333, 38.66118 ], [ -76.68387, 38.66217 ], [ -76.68492, 38.66303 ], [ -76.68737, 38.66379 ], [ -76.69095, 38.66403 ], [ -76.69424, 38.66384 ], [ -76.69717, 38.66466 ], [ -76.69926, 38.66577 ], [ -76.70038, 38.66702 ], [ -76.701, 38.66836 ], [ -76.70067, 38.67013 ], [ -76.69926, 38.67111 ], [ -76.69296, 38.67235 ], [ -76.69046, 38.67368 ], [ -76.68742, 38.67875 ], [ -76.68698, 38.68063 ], [ -76.68715, 38.68137 ], [ -76.69549, 38.68578 ], [ -76.69743, 38.6878 ], [ -76.69843, 38.69044 ], [ -76.69853, 38.69224 ], [ -76.69793, 38.69478 ], [ -76.69601, 38.69778 ], [ -76.69498, 38.70031 ], [ -76.69495, 38.70247 ], [ -76.69599, 38.70499 ], [ -76.69774, 38.70703 ], [ -76.70093, 38.70917 ], [ -76.70179, 38.71009 ], [ -76.70196, 38.71086 ], [ -76.70121, 38.71276 ], [ -76.69359, 38.72476 ], [ -76.6937, 38.72707 ], [ -76.69555, 38.73154 ], [ -76.69571, 38.73317 ], [ -76.695, 38.73507 ], [ -76.69384, 38.73591 ], [ -76.68701, 38.7359 ], [ -76.68484, 38.73675 ], [ -76.68402, 38.73835 ], [ -76.68484, 38.74376 ], [ -76.68459, 38.74586 ], [ -76.68487, 38.74693 ], [ -76.68648, 38.74857 ], [ -76.69438, 38.74888 ], [ -76.69637, 38.74943 ], [ -76.69727, 38.75012 ], [ -76.6995, 38.75412 ], [ -76.69955, 38.75934 ], [ -76.70008, 38.76619 ], [ -76.70095, 38.76875 ], [ -76.70819, 38.77316 ], [ -76.71255, 38.77491 ], [ -76.71402, 38.7769 ], [ -76.7144, 38.77909 ], [ -76.71415, 38.78166 ], [ -76.71321, 38.78338 ], [ -76.71225, 38.78436 ], [ -76.70614, 38.78566 ], [ -76.70309, 38.7873 ], [ -76.70202, 38.78875 ], [ -76.70206, 38.78973 ], [ -76.70254, 38.7904 ], [ -76.70659, 38.79271 ], [ -76.71012, 38.796 ], [ -76.71071, 38.79764 ], [ -76.71068, 38.79843 ], [ -76.7084, 38.80311 ], [ -76.70806, 38.80487 ], [ -76.70891, 38.80647 ], [ -76.71087, 38.80829 ], [ -76.71197, 38.81015 ], [ -76.71235, 38.81168 ], [ -76.71207, 38.814 ], [ -76.71064, 38.81569 ], [ -76.70886, 38.81639 ], [ -76.70812, 38.81642 ], [ -76.70502, 38.81523 ], [ -76.70384, 38.81513 ], [ -76.70177, 38.81554 ], [ -76.69783, 38.81795 ], [ -76.69697, 38.81878 ], [ -76.69637, 38.82272 ], [ -76.69752, 38.82569 ], [ -76.69781, 38.82878 ], [ -76.69917, 38.83171 ], [ -76.69936, 38.83278 ], [ -76.69896, 38.83456 ], [ -76.69972, 38.83678 ], [ -76.69827, 38.84303 ], [ -76.69655, 38.84716 ], [ -76.69365, 38.84972 ], [ -76.69235, 38.8515 ], [ -76.69117, 38.8544 ], [ -76.69103, 38.85551 ], [ -76.69221, 38.85764 ], [ -76.69153, 38.8598 ], [ -76.68841, 38.86435 ], [ -76.68316, 38.86672 ], [ -76.68252, 38.86734 ], [ -76.68185, 38.86909 ], [ -76.68065, 38.87057 ], [ -76.68066, 38.87228 ], [ -76.67826, 38.87351 ], [ -76.67678, 38.87549 ], [ -76.67634, 38.87695 ], [ -76.67615, 38.88001 ], [ -76.67541, 38.88173 ], [ -76.67538, 38.88228 ], [ -76.67594, 38.88296 ], [ -76.6759, 38.88367 ], [ -76.67536, 38.88457 ], [ -76.6755, 38.88543 ], [ -76.67257, 38.88632 ], [ -76.67179, 38.88757 ], [ -76.67322, 38.8885 ], [ -76.6763, 38.89191 ], [ -76.67626, 38.89595 ], [ -76.67302, 38.8988 ], [ -76.67151, 38.89942 ], [ -76.67158, 38.90044 ], [ -76.67108, 38.90068 ], [ -76.67137, 38.90153 ], [ -76.67021, 38.90248 ], [ -76.66957, 38.90368 ], [ -76.66964, 38.90524 ], [ -76.67033, 38.90727 ], [ -76.67161, 38.90695 ], [ -76.67258, 38.90712 ], [ -76.67472, 38.90895 ], [ -76.67682, 38.90931 ], [ -76.67852, 38.91054 ], [ -76.67861, 38.91175 ], [ -76.67805, 38.91228 ], [ -76.67794, 38.91371 ], [ -76.67937, 38.91651 ], [ -76.68059, 38.91669 ], [ -76.68235, 38.91863 ], [ -76.6832, 38.91908 ], [ -76.68438, 38.91895 ], [ -76.68535, 38.91782 ], [ -76.6862, 38.91796 ], [ -76.69059, 38.92346 ], [ -76.69072, 38.92447 ], [ -76.69033, 38.92488 ], [ -76.68563, 38.92556 ], [ -76.68283, 38.92652 ], [ -76.68138, 38.92935 ], [ -76.68142, 38.93127 ], [ -76.6818, 38.93192 ], [ -76.68369, 38.93196 ], [ -76.68603, 38.93306 ], [ -76.68994, 38.93395 ], [ -76.69116, 38.93486 ], [ -76.69216, 38.93628 ], [ -76.69241, 38.93759 ], [ -76.69109, 38.93987 ], [ -76.69117, 38.94158 ], [ -76.69348, 38.94422 ], [ -76.69543, 38.94822 ], [ -76.694, 38.95005 ], [ -76.69333, 38.95193 ], [ -76.69398, 38.95637 ], [ -76.69528, 38.95804 ], [ -76.69518, 38.95945 ], [ -76.69595, 38.95963 ], [ -76.6963, 38.96059 ], [ -76.69847, 38.96202 ], [ -76.69898, 38.96268 ], [ -76.69876, 38.96624 ], [ -76.69915, 38.96698 ], [ -76.69926, 38.96891 ], [ -76.70073, 38.96928 ], [ -76.7014, 38.96988 ], [ -76.70229, 38.97013 ], [ -76.70374, 38.97152 ], [ -76.70396, 38.97298 ], [ -76.70176, 38.97368 ], [ -76.70103, 38.97572 ], [ -76.70113, 38.97635 ], [ -76.70245, 38.97696 ], [ -76.70246, 38.97947 ], [ -76.69864, 38.98144 ], [ -76.69802, 38.98262 ], [ -76.69827, 38.98365 ], [ -76.70114, 38.98535 ], [ -76.7026, 38.98718 ], [ -76.70426, 38.98772 ], [ -76.70573, 38.98892 ], [ -76.7061, 38.98952 ], [ -76.70612, 38.99039 ], [ -76.70669, 38.99041 ], [ -76.70757, 38.99123 ], [ -76.70839, 38.99146 ], [ -76.7089, 38.99341 ], [ -76.7116, 38.99543 ], [ -76.71243, 38.99487 ], [ -76.71313, 38.99484 ], [ -76.71484, 38.996 ], [ -76.71607, 38.9973 ], [ -76.7178, 38.99766 ], [ -76.71913, 38.99878 ], [ -76.72103, 38.99966 ], [ -76.72561, 38.99895 ], [ -76.72591, 38.99922 ], [ -76.72596, 39.00011 ], [ -76.724, 39.00417 ], [ -76.72507, 39.00501 ], [ -76.72546, 39.00592 ], [ -76.7283, 39.00736 ], [ -76.7304, 39.00647 ], [ -76.73199, 39.00705 ], [ -76.73328, 39.00682 ], [ -76.73379, 39.00754 ], [ -76.73458, 39.00785 ], [ -76.73601, 39.01062 ], [ -76.73753, 39.01229 ], [ -76.74038, 39.01287 ], [ -76.74079, 39.01349 ], [ -76.74085, 39.0146 ], [ -76.74279, 39.0157 ], [ -76.74306, 39.0166 ], [ -76.74463, 39.01739 ], [ -76.74278, 39.02047 ], [ -76.74303, 39.02326 ], [ -76.74375, 39.02514 ], [ -76.74477, 39.02617 ], [ -76.7463, 39.02858 ], [ -76.74806, 39.02892 ], [ -76.74969, 39.02978 ], [ -76.75026, 39.0308 ], [ -76.75001, 39.03136 ], [ -76.74888, 39.03203 ], [ -76.74787, 39.03316 ], [ -76.74773, 39.03365 ], [ -76.74954, 39.03442 ], [ -76.75188, 39.03492 ], [ -76.75253, 39.03614 ], [ -76.75349, 39.0363 ], [ -76.75369, 39.03693 ], [ -76.75531, 39.03718 ], [ -76.75583, 39.03772 ], [ -76.75783, 39.03757 ], [ -76.76089, 39.03557 ], [ -76.76222, 39.03517 ], [ -76.76297, 39.03639 ], [ -76.76382, 39.03682 ], [ -76.76445, 39.03762 ], [ -76.764, 39.03814 ], [ -76.76404, 39.03878 ], [ -76.76539, 39.04043 ], [ -76.76601, 39.04037 ], [ -76.76711, 39.03907 ], [ -76.769, 39.03895 ], [ -76.76945, 39.03964 ], [ -76.77009, 39.03997 ], [ -76.77029, 39.04087 ], [ -76.77158, 39.04105 ], [ -76.77319, 39.04071 ], [ -76.77405, 39.041 ], [ -76.77504, 39.04234 ], [ -76.77374, 39.04382 ], [ -76.77487, 39.04487 ], [ -76.77662, 39.04454 ], [ -76.77692, 39.04478 ], [ -76.77653, 39.04531 ], [ -76.77879, 39.04522 ], [ -76.78006, 39.04585 ], [ -76.78393, 39.04625 ], [ -76.78493, 39.04497 ], [ -76.78759, 39.04463 ], [ -76.78827, 39.04506 ], [ -76.78949, 39.045 ], [ -76.79078, 39.04574 ], [ -76.79235, 39.046 ], [ -76.79312, 39.04702 ], [ -76.7936, 39.04904 ], [ -76.79326, 39.05015 ], [ -76.79451, 39.05325 ], [ -76.79505, 39.05336 ], [ -76.79571, 39.05457 ], [ -76.80046, 39.05527 ], [ -76.80139, 39.05588 ], [ -76.80192, 39.05732 ], [ -76.80228, 39.06004 ], [ -76.80423, 39.06263 ], [ -76.80807, 39.06123 ], [ -76.81005, 39.06093 ], [ -76.81136, 39.06105 ], [ -76.81353, 39.06235 ], [ -76.81539, 39.06176 ], [ -76.81599, 39.06264 ], [ -76.81726, 39.06177 ], [ -76.81787, 39.06176 ], [ -76.8212, 39.06354 ], [ -76.82262, 39.06335 ], [ -76.82297, 39.06395 ], [ -76.82397, 39.06414 ], [ -76.82505, 39.06496 ], [ -76.82594, 39.06508 ], [ -76.82666, 39.0658 ], [ -76.82739, 39.06582 ], [ -76.82833, 39.06456 ], [ -76.82918, 39.06453 ], [ -76.82918, 39.06598 ], [ -76.83005, 39.06658 ], [ -76.83032, 39.06784 ], [ -76.83111, 39.06828 ], [ -76.83155, 39.06917 ], [ -76.83362, 39.06927 ], [ -76.83342, 39.06834 ], [ -76.83459, 39.06797 ], [ -76.83584, 39.06797 ], [ -76.83646, 39.06844 ], [ -76.83739, 39.07015 ], [ -76.83735, 39.07133 ], [ -76.83775, 39.07183 ], [ -76.83808, 39.07359 ], [ -76.83729, 39.0741 ], [ -76.83654, 39.07358 ], [ -76.83594, 39.0744 ], [ -76.83466, 39.07463 ], [ -76.83407, 39.07562 ], [ -76.8324, 39.07615 ], [ -76.83259, 39.07694 ], [ -76.83341, 39.07779 ], [ -76.83491, 39.08287 ], [ -76.83178, 39.08637 ], [ -76.82982, 39.08718 ], [ -76.82986, 39.08798 ], [ -76.82871, 39.08842 ], [ -76.82712, 39.08983 ], [ -76.82747, 39.09174 ], [ -76.82784, 39.09225 ], [ -76.82739, 39.09327 ], [ -76.82784, 39.09463 ], [ -76.82933, 39.09564 ], [ -76.83025, 39.09484 ], [ -76.83098, 39.09544 ], [ -76.83219, 39.0951 ], [ -76.83252, 39.09532 ], [ -76.83265, 39.09615 ], [ -76.83421, 39.09583 ], [ -76.83561, 39.09664 ], [ -76.83769, 39.09693 ], [ -76.83811, 39.09866 ], [ -76.83743, 39.09957 ], [ -76.83765, 39.10072 ], [ -76.83894, 39.10129 ], [ -76.83977, 39.10259 ], [ -76.84083, 39.10352 ], [ -76.84114, 39.10547 ], [ -76.84414, 39.10729 ], [ -76.846, 39.10793 ], [ -76.84759, 39.10804 ], [ -76.84908, 39.1091 ], [ -76.85106, 39.10892 ], [ -76.85258, 39.10964 ], [ -76.85527, 39.11009 ], [ -76.85655, 39.11073 ], [ -76.86107, 39.11073 ], [ -76.86171, 39.11038 ], [ -76.86288, 39.11033 ], [ -76.86385, 39.11092 ], [ -76.87011, 39.11271 ], [ -76.8708, 39.11405 ], [ -76.87267, 39.1145 ], [ -76.87425, 39.11626 ], [ -76.87522, 39.11669 ], [ -76.8798, 39.12281 ], [ -76.88432, 39.12688 ], [ -76.88548, 39.12938 ], [ -76.88566, 39.13129 ], [ -76.88826, 39.13131 ], [ -76.8888, 39.12999 ], [ -76.89427, 39.12386 ], [ -76.90079, 39.12113 ], [ -76.90134, 39.12182 ], [ -76.90293, 39.1211 ], [ -76.90241, 39.12032 ], [ -76.90729, 39.11791 ], [ -76.9039, 39.11462 ], [ -76.90744, 39.10624 ], [ -76.90883, 39.10385 ], [ -76.90908, 39.1042 ], [ -76.91046, 39.10318 ], [ -76.90981, 39.10248 ], [ -76.91758, 39.09127 ], [ -76.92868, 39.07672 ], [ -76.93032, 39.07404 ], [ -76.949, 39.04921 ], [ -76.96007, 39.03384 ], [ -76.96609, 39.02635 ], [ -76.98026, 39.0072 ], [ -76.98415, 39.00144 ], [ -76.98569, 38.99998 ], [ -76.98906, 38.99558 ], [ -76.9911, 38.99241 ], [ -76.9878, 38.9891 ], [ -76.98479, 38.98718 ], [ -76.98703, 38.97766 ], [ -76.98675, 38.97715 ], [ -76.99072, 38.97564 ], [ -76.99418, 38.97529 ], [ -76.9979, 38.97174 ], [ -77.00244, 38.96567 ], [ -76.93706, 38.91482 ] ] ] } },
{ "type": "Feature", "properties": { "name": "Arlington County, VA" }, "geometry": { "type": "Polygon", "coordinates": [ [ [ -77.17228, 38.89325 ], [ -77.11337, 38.84738 ], [ -77.11018, 38.8448 ], [ -77.1108, 38.84345 ], [ -77.10797, 38.84209 ], [ -77.10693, 38.84244 ], [ -77.10661, 38.84167 ], [ -77.10703, 38.84138 ], [ -77.10596, 38.84008 ], [ -77.10502, 38.84081 ], [ -77.1028, 38.83951 ], [ -77.10229, 38.83846 ], [ -77.10004, 38.83716 ], [ -77.10072, 38.83634 ], [ -77.09571, 38.83349 ], [ -77.08781, 38.82736 ], [ -77.08653, 38.82834 ], [ -77.08535, 38.83068 ], [ -77.08543, 38.83461 ], [ -77.08488, 38.83621 ], [ -77.08462, 38.83853 ], [ -77.0857, 38.84285 ], [ -77.0857, 38.84398 ], [ -77.0793, 38.84293 ], [ -77.07883, 38.84352 ], [ -77.07808, 38.8438 ], [ -77.07568, 38.84353 ], [ -77.07115, 38.84397 ], [ -77.06744, 38.84382 ], [ -77.06351, 38.84492 ], [ -77.06017, 38.84312 ], [ -77.05326, 38.84037 ], [ -77.05233, 38.84047 ], [ -77.05026, 38.84157 ], [ -77.04615, 38.84118 ], [ -77.04474, 38.84021 ], [ -77.0439, 38.8402 ], [ -77.04338, 38.84055 ], [ -77.04278, 38.83969 ], [ -77.0389, 38.83925 ], [ -77.0368, 38.83941 ], [ -77.03467, 38.84003 ], [ -77.03454, 38.8408 ], [ -77.03421, 38.84087 ], [ -77.03391, 38.84278 ], [ -77.03307, 38.84455 ], [ -77.03227, 38.84802 ], [ -77.03221, 38.85167 ], [ -77.03284, 38.85503 ], [ -77.03508, 38.85938 ], [ -77.03679, 38.8611 ], [ -77.03762, 38.86132 ], [ -77.03806, 38.86327 ], [ -77.03974, 38.86324 ], [ -77.03986, 38.86269 ], [ -77.04037, 38.86237 ], [ -77.04172, 38.86324 ], [ -77.04276, 38.86337 ], [ -77.04245, 38.86395 ], [ -77.0425, 38.86368 ], [ -77.04093, 38.86365 ], [ -77.03827, 38.86402 ], [ -77.03774, 38.86478 ], [ -77.038, 38.86666 ], [ -77.03876, 38.86846 ], [ -77.04021, 38.87088 ], [ -77.04167, 38.87253 ], [ -77.0435, 38.87424 ], [ -77.04604, 38.87562 ], [ -77.04722, 38.87496 ], [ -77.04639, 38.87397 ], [ -77.04654, 38.87305 ], [ -77.04624, 38.87245 ], [ -77.04655, 38.87203 ], [ -77.04925, 38.87131 ], [ -77.05055, 38.87198 ], [ -77.05168, 38.87391 ], [ -77.05153, 38.87656 ], [ -77.05354, 38.87901 ], [ -77.05375, 38.87888 ], [ -77.05414, 38.87971 ], [ -77.05558, 38.88034 ], [ -77.058, 38.88028 ], [ -77.0592, 38.88098 ], [ -77.06425, 38.88896 ], [ -77.06441, 38.8896 ], [ -77.06377, 38.89019 ], [ -77.06399, 38.89094 ], [ -77.06464, 38.89172 ], [ -77.06513, 38.89356 ], [ -77.06601, 38.89453 ], [ -77.0659, 38.89483 ], [ -77.06722, 38.89716 ], [ -77.0676, 38.89809 ], [ -77.06757, 38.89923 ], [ -77.06869, 38.90032 ], [ -77.07066, 38.9012 ], [ -77.07337, 38.90112 ], [ -77.07825, 38.90237 ], [ -77.08264, 38.90228 ], [ -77.08658, 38.90301 ], [ -77.09354, 38.90593 ], [ -77.10203, 38.91192 ], [ -77.10341, 38.91328 ], [ -77.10413, 38.91592 ], [ -77.10559, 38.91763 ], [ -77.1068, 38.92003 ], [ -77.10851, 38.92164 ], [ -77.11266, 38.92466 ], [ -77.1149, 38.92738 ], [ -77.11596, 38.92816 ], [ -77.11647, 38.92963 ], [ -77.11979, 38.93437 ], [ -77.17228, 38.89325 ] ] ] } }
]
}
