{
"type": "FeatureCollection",
"name": "hartfordmetro-jurisdiction-overlay",
"crs": { "type": "name", "properties": { "name": "urn:ogc:def:crs:OGC:1.3:CRS84" } },
"features": [
{ "type": "Feature", "properties": { "name": "Bloomfield" }, "geometry": { "type": "Polygon", "coordinates": [ [ [ -72.7378026866879, 41.89227521368219 ], [ -72.743342898171818, 41.877421363113392 ], [ -72.689421885223794, 41.865744719768401 ], [ -72.685910246360095, 41.800430500760498 ], [ -72.690369674830507, 41.801198705517109 ], [ -72.691227718581104, 41.807427737790597 ], [ -72.797453626042298, 41.80453991518209 ], [ -72.798765102097207, 41.811674313597699 ], [ -72.797994592419002, 41.814797070082811 ], [ -72.798102316122595, 41.821531048182891 ], [ -72.798563947687498, 41.824972470344292 ], [ -72.783198122985496, 41.82665429275071 ], [ -72.783533832122302, 41.829744375054887 ], [ -72.784508131175102, 41.833004747105903 ], [ -72.783588886034195, 41.83639088285549 ], [ -72.785400598847303, 41.839102323271199 ], [ -72.785891221092797, 41.841220882540391 ], [ -72.785912671477305, 41.84225819282009 ], [ -72.785479756763905, 41.842916769362908 ], [ -72.786138662079694, 41.845244177901499 ], [ -72.785836946818193, 41.847576515346795 ], [ -72.78501427475102, 41.8490967219469 ], [ -72.784805084694113, 41.855506758490492 ], [ -72.779307859337706, 41.865604055721086 ], [ -72.776124365016599, 41.8727207081091 ], [ -72.775389517928403, 41.873127013462991 ], [ -72.774573815374595, 41.874564633875103 ], [ -72.774460337500201, 41.876076025417206 ], [ -72.773071396373894, 41.877771368378895 ], [ -72.771734565608497, 41.878352880752502 ], [ -72.771410644307593, 41.879417175329891 ], [ -72.770337428260206, 41.880624471765401 ], [ -72.770336904387804, 41.881875824128301 ], [ -72.771502172008994, 41.885492970535104 ], [ -72.770413845067196, 41.887133506344092 ], [ -72.769817890382697, 41.889043052270594 ], [ -72.769396911491597, 41.892807803015195 ], [ -72.768691357132198, 41.893054723327793 ], [ -72.76774887472962, 41.895710726926417 ], [ -72.766594556026604, 41.897076814581396 ], [ -72.764195536723506, 41.902887932096199 ], [ -72.758990547038806, 41.906919130598084 ], [ -72.760542602433603, 41.905394268382786 ], [ -72.7606174035881, 41.903726145948696 ], [ -72.758333699834793, 41.901809526155908 ], [ -72.748089605729902, 41.896408753032105 ], [ -72.742947131759294, 41.895357016710292 ], [ -72.7378026866879, 41.89227521368219 ] ] ] } },
{ "type": "Feature", "properties": { "name": "East Hartford" }, "geometry": { "type": "Polygon", "coordinates": [ [ [ -72.571307158296406, 41.733779910488011 ], [ -72.6363349221904, 41.724746763658999 ], [ -72.647921863121496, 41.727813724621299 ], [ -72.644644636983699, 41.730968614650209 ], [ -72.643603326866497, 41.732466560137908 ], [ -72.642458181924496, 41.735237240714497 ], [ -72.642579835105593, 41.739616909642102 ], [ -72.644809343277402, 41.746280566483094 ], [ -72.646354172365093, 41.748685446736495 ], [ -72.647996617315599, 41.750118915895392 ], [ -72.650183150016204, 41.751381828590382 ], [ -72.653788860806699, 41.752557214484099 ], [ -72.655297817597202, 41.753353449754094 ], [ -72.661892239409596, 41.759227667610908 ], [ -72.664448577415996, 41.762779145468301 ], [ -72.665202753904097, 41.765204788878009 ], [ -72.665385484145602, 41.767899630298196 ], [ -72.664694920920596, 41.770539114153394 ], [ -72.662795284743297, 41.773134806882403 ], [ -72.658783863837499, 41.776026228162792 ], [ -72.651046119124203, 41.779887216703401 ], [ -72.648764674242202, 41.782273780532897 ], [ -72.646046514369203, 41.790214468570198 ], [ -72.645838080096397, 41.794692397379698 ], [ -72.646223984866396, 41.798018614257202 ], [ -72.583619944626506, 41.800802329645201 ], [ -72.571307158296406, 41.733779910488011 ] ] ] } },
{ "type": "Feature", "properties": { "name": "Farmington" }, "geometry": { "type": "Polygon", "coordinates": [ [ [ -72.797142293072696, 41.758996893107586 ], [ -72.795092776837905, 41.747427805789599 ], [ -72.781572408046401, 41.74797993977289 ], [ -72.779191332772299, 41.730285268341191 ], [ -72.777534418459993, 41.731357975354399 ], [ -72.774556174506898, 41.73506988654291 ], [ -72.774289590383205, 41.734963174028294 ], [ -72.772766010652106, 41.736688741519195 ], [ -72.768925797354697, 41.739371807230604 ], [ -72.768683637350605, 41.737681979643092 ], [ -72.7631716200966, 41.737920164109994 ], [ -72.762414711626803, 41.718570753943204 ], [ -72.761909274638995, 41.715824495933909 ], [ -72.7829777393558, 41.712929264246092 ], [ -72.792261333351505, 41.705867176341698 ], [ -72.796092301409402, 41.703491361090698 ], [ -72.798803120503194, 41.700780574635601 ], [ -72.815405367834302, 41.687948816599203 ], [ -72.847179259317599, 41.692889523857289 ], [ -72.877954672828594, 41.698042130570791 ], [ -72.892896309046606, 41.696512284835492 ], [ -72.898224567234919, 41.723173628072807 ], [ -72.903938924624697, 41.749214182066389 ], [ -72.908665541499005, 41.776383558056793 ], [ -72.905036517889698, 41.776190900832304 ], [ -72.9028661478754, 41.7755039539854 ], [ -72.902170066147207, 41.774828579793017 ], [ -72.901357532976206, 41.772655152844692 ], [ -72.901073761527002, 41.768582503929096 ], [ -72.896677036848502, 41.765370164333696 ], [ -72.8961200740153, 41.764442444986997 ], [ -72.882520309617504, 41.765457609234602 ], [ -72.820834709669299, 41.758145789288314 ], [ -72.797142293072696, 41.758996893107586 ] ] ] } },
{ "type": "Feature", "properties": { "name": "Glastonbury" }, "geometry": { "type": "Polygon", "coordinates": [ [ [ -72.464174687759296, 41.7454642294881 ], [ -72.452273094395196, 41.688628850378379 ], [ -72.476650989364998, 41.685945577606205 ], [ -72.481875542725604, 41.68212383007689 ], [ -72.476899940461195, 41.673679975617695 ], [ -72.475931449631304, 41.668999072580888 ], [ -72.496990312319596, 41.662629736989402 ], [ -72.505770893593393, 41.647306895996103 ], [ -72.630306394565906, 41.633211260964295 ], [ -72.629508253618397, 41.636599827207903 ], [ -72.627683757323297, 41.640667021709298 ], [ -72.6239077288636, 41.645975852518802 ], [ -72.623448062989993, 41.647985070998104 ], [ -72.623948852897897, 41.650816761817005 ], [ -72.6278111865429, 41.660765411778101 ], [ -72.628136035256119, 41.665842278102701 ], [ -72.627138768514399, 41.667384224984993 ], [ -72.624611701342502, 41.669555877496599 ], [ -72.613039774771806, 41.672193225681397 ], [ -72.610859461282502, 41.673237063184189 ], [ -72.609901340820898, 41.67441717032959 ], [ -72.609163295530493, 41.676321869944402 ], [ -72.609598817576511, 41.681634748434902 ], [ -72.610141599943901, 41.683296929394899 ], [ -72.611489898540398, 41.685031089981692 ], [ -72.614771561849395, 41.687301973624386 ], [ -72.616990520745105, 41.688365238248501 ], [ -72.619217542079994, 41.688984403641093 ], [ -72.621743658283407, 41.689268705887891 ], [ -72.625711178782012, 41.689550058915309 ], [ -72.629167633578803, 41.689288732635497 ], [ -72.632052103015695, 41.689597542521 ], [ -72.635126448757902, 41.690724275608197 ], [ -72.636486836128796, 41.691904997763899 ], [ -72.6369984825496, 41.692838228083005 ], [ -72.637384854976901, 41.695022232635203 ], [ -72.637113570504695, 41.69626291424661 ], [ -72.636299160228106, 41.69778813101339 ], [ -72.635170346364603, 41.698748211094397 ], [ -72.629640373763706, 41.700254862272708 ], [ -72.621351407730003, 41.701848082675191 ], [ -72.618921247117498, 41.702650460952682 ], [ -72.617193599298005, 41.703710705790193 ], [ -72.616534658801001, 41.70438041837199 ], [ -72.615759948344504, 41.706235534767693 ], [ -72.616054083045398, 41.707997215638493 ], [ -72.617520354443599, 41.709791118327203 ], [ -72.621000827217301, 41.711820541157486 ], [ -72.623696804080396, 41.712559687904395 ], [ -72.629606788067207, 41.712658113494598 ], [ -72.637201366086302, 41.713259765016311 ], [ -72.639435627306497, 41.713738752915702 ], [ -72.642568927543607, 41.715836310453909 ], [ -72.648006857429294, 41.721386980118496 ], [ -72.648862873986502, 41.722990409447704 ], [ -72.571307158296406, 41.733779910488011 ], [ -72.464174687759296, 41.7454642294881 ] ] ] } },
{ "type": "Feature", "properties": { "name": "Hartford" }, "geometry": { "type": "Polygon", "coordinates": [ [ [ -72.685961125974003, 41.802982683114791 ], [ -72.658842553780104, 41.807220795703799 ], [ -72.658637503347293, 41.805513880227693 ], [ -72.659458903163099, 41.805645394605996 ], [ -72.662320362506605, 41.805218470155893 ], [ -72.66210092846022, 41.803742066678403 ], [ -72.662622376014397, 41.801404359461401 ], [ -72.660165164118297, 41.801535057027202 ], [ -72.655674280707402, 41.805902553964799 ], [ -72.653583923480994, 41.806165478207703 ], [ -72.646020679157701, 41.805997691476705 ], [ -72.646288416247202, 41.800575975349091 ], [ -72.645838080096397, 41.794692397379698 ], [ -72.645950557741898, 41.79102634065439 ], [ -72.646406598348904, 41.788617116183396 ], [ -72.648485442644201, 41.7827899741891 ], [ -72.651046119124203, 41.779887216703401 ], [ -72.658783863837499, 41.776026228162792 ], [ -72.662795284743297, 41.773134806882403 ], [ -72.664181544729402, 41.771527188951701 ], [ -72.664958945283203, 41.76995237749319 ], [ -72.665400462661793, 41.767131073423201 ], [ -72.664448577415996, 41.762779145468301 ], [ -72.6637672011462, 41.761461726875282 ], [ -72.661423068191795, 41.75874980340479 ], [ -72.655297817597202, 41.753353449754094 ], [ -72.649194710095699, 41.750865729424092 ], [ -72.647349920234007, 41.749613220514483 ], [ -72.645519280453897, 41.747586977256205 ], [ -72.6433101944355, 41.742493094773906 ], [ -72.642579835105593, 41.739616909642102 ], [ -72.642288649809103, 41.737076105223998 ], [ -72.642583780153601, 41.734617146524094 ], [ -72.644644636983699, 41.730968614650209 ], [ -72.647921863121496, 41.727813724621299 ], [ -72.655767255768296, 41.729841922444905 ], [ -72.693132755334204, 41.725297646713607 ], [ -72.714558078853699, 41.723680880793395 ], [ -72.715446144922794, 41.744044996270496 ], [ -72.714823566726594, 41.744894982868509 ], [ -72.7151567731933, 41.747391320126084 ], [ -72.714683417992504, 41.756348393962298 ], [ -72.714976193528102, 41.756589304322098 ], [ -72.716269898808704, 41.765699939005991 ], [ -72.716635391584717, 41.770799804460701 ], [ -72.714054090944202, 41.777295836866791 ], [ -72.718201499522806, 41.806600115739499 ], [ -72.691227718581104, 41.807427737790597 ], [ -72.690369674830507, 41.801198705517109 ], [ -72.685910246360095, 41.800430500760498 ], [ -72.685961125974003, 41.802982683114791 ] ] ] } },
{ "type": "Feature", "properties": { "name": "Manchester" }, "geometry": { "type": "Polygon", "coordinates": [ [ [ -72.476274135925493, 41.813134258120201 ], [ -72.46510653669101, 41.750106808471202 ], [ -72.464622642433994, 41.749415593254099 ], [ -72.464285045234803, 41.747028070691101 ], [ -72.464555962321398, 41.746462728738891 ], [ -72.464174687759296, 41.7454642294881 ], [ -72.571307158296406, 41.733779910488011 ], [ -72.583619944626506, 41.800802329645201 ], [ -72.505550116004798, 41.820341328472004 ], [ -72.507687328464115, 41.8095151197817 ], [ -72.499530014376901, 41.810245871594084 ], [ -72.476274135925493, 41.813134258120201 ] ] ] } },
{ "type": "Feature", "properties": { "name": "Newington" }, "geometry": { "type": "Polygon", "coordinates": [ [ [ -72.706159402676093, 41.6689361824305 ], [ -72.703155154142607, 41.654106462290905 ], [ -72.717936771357202, 41.652297853292488 ], [ -72.727325863357805, 41.652196483588703 ], [ -72.727068413966805, 41.649441620267702 ], [ -72.749354895767993, 41.646868671561499 ], [ -72.757443373629599, 41.688648580770888 ], [ -72.762414711626803, 41.718570753943204 ], [ -72.706319415682501, 41.724419041970791 ], [ -72.708345591128307, 41.710582130321704 ], [ -72.700341160287607, 41.674776514448894 ], [ -72.707537558712204, 41.673952316225197 ], [ -72.706159402676093, 41.6689361824305 ] ] ] } },
{ "type": "Feature", "properties": { "name": "Rocky Hill" }, "geometry": { "type": "Polygon", "coordinates": [ [ [ -72.627939957516418, 41.639941426000696 ], [ -72.713965412479794, 41.627570805979396 ], [ -72.712286583974702, 41.629988830824992 ], [ -72.712543126367208, 41.631119248244602 ], [ -72.712053439327903, 41.631871214724285 ], [ -72.712982253760202, 41.632409238297491 ], [ -72.712749041270797, 41.632831794427297 ], [ -72.713766216029001, 41.633622151296201 ], [ -72.715427166663204, 41.652551665341207 ], [ -72.703155154142607, 41.654106462290905 ], [ -72.706159402676093, 41.6689361824305 ], [ -72.682721406429394, 41.671725652718798 ], [ -72.683029629911303, 41.670984345005088 ], [ -72.677861912068195, 41.669968738823897 ], [ -72.6727451150295, 41.669359094237386 ], [ -72.6693563216093, 41.669923651328801 ], [ -72.666676159709993, 41.672272269750202 ], [ -72.665041062164704, 41.680032397264192 ], [ -72.648727173026899, 41.685043916295697 ], [ -72.616148286707499, 41.688003899843885 ], [ -72.612654913030596, 41.68593622512541 ], [ -72.610596193911405, 41.684060060783203 ], [ -72.609803958628319, 41.68252330320319 ], [ -72.609334103746704, 41.680262428874308 ], [ -72.609163295530493, 41.676321869944402 ], [ -72.610259652093802, 41.673862906180602 ], [ -72.611685789591306, 41.672693649793992 ], [ -72.624611701342502, 41.669555877496599 ], [ -72.627138768514399, 41.667384224984993 ], [ -72.627857091857805, 41.666385189455497 ], [ -72.628289473506698, 41.665381560941292 ], [ -72.6278111865429, 41.660765411778101 ], [ -72.623948852897897, 41.650816761817005 ], [ -72.623448062989993, 41.647985070998104 ], [ -72.6239077288636, 41.645975852518802 ], [ -72.627939957516418, 41.639941426000696 ] ] ] } },
{ "type": "Feature", "properties": { "name": "South Windsor" }, "geometry": { "type": "Polygon", "coordinates": [ [ [ -72.497014986785203, 41.860304232716196 ], [ -72.505550116004798, 41.820341328472004 ], [ -72.583619944626506, 41.800802329645201 ], [ -72.646223984866396, 41.798018614257202 ], [ -72.646079947644495, 41.8057783753693 ], [ -72.644055396546094, 41.815524788159209 ], [ -72.640834565921509, 41.825308437248907 ], [ -72.638277964036703, 41.829719410159392 ], [ -72.633936951699297, 41.834151525960401 ], [ -72.629882950551902, 41.837722257897802 ], [ -72.627545665054498, 41.841458297998201 ], [ -72.624539051042206, 41.849901277713698 ], [ -72.622605181932798, 41.854126973051798 ], [ -72.619093421477601, 41.868600649079397 ], [ -72.605803917668197, 41.868007524966693 ], [ -72.517427012962102, 41.8700112017112 ], [ -72.518575148229303, 41.856978650463383 ], [ -72.497014986785203, 41.860304232716196 ] ] ] } },
{ "type": "Feature", "properties": { "name": "West Hartford" }, "geometry": { "type": "Polygon", "coordinates": [ [ [ -72.714558078853699, 41.723680880793395 ], [ -72.762414711626803, 41.718570753943204 ], [ -72.7631716200966, 41.737920164109994 ], [ -72.768683637350605, 41.737681979643092 ], [ -72.768925797354697, 41.739371807230604 ], [ -72.772766010652106, 41.736688741519195 ], [ -72.774289590383205, 41.734963174028294 ], [ -72.774556174506898, 41.73506988654291 ], [ -72.777534418459993, 41.731357975354399 ], [ -72.779191332772299, 41.730285268341191 ], [ -72.781572408046401, 41.74797993977289 ], [ -72.795092776837905, 41.747427805789599 ], [ -72.797506993058605, 41.762446075341899 ], [ -72.798513821516906, 41.765676669976102 ], [ -72.800611516133102, 41.778508064645898 ], [ -72.800217849344506, 41.783084484698996 ], [ -72.800404675685499, 41.792128026593204 ], [ -72.799554192448497, 41.792136708532297 ], [ -72.797960796694497, 41.796393362992191 ], [ -72.797643799745899, 41.798150019301893 ], [ -72.798346917536406, 41.801051184160201 ], [ -72.797386867243119, 41.802750825270202 ], [ -72.797453626042298, 41.80453991518209 ], [ -72.718201499522806, 41.806600115739499 ], [ -72.714054090944202, 41.777295836866791 ], [ -72.716635391584717, 41.770799804460701 ], [ -72.716269898808704, 41.765699939005991 ], [ -72.714976193528102, 41.756589304322098 ], [ -72.714683417992504, 41.756348393962298 ], [ -72.7151567731933, 41.747391320126084 ], [ -72.714823566726594, 41.744894982868509 ], [ -72.715446144922794, 41.744044996270496 ], [ -72.714558078853699, 41.723680880793395 ] ] ] } },
{ "type": "Feature", "properties": { "name": "Wethersfield" }, "geometry": { "type": "Polygon", "coordinates": [ [ [ -72.655767255768296, 41.729841922444905 ], [ -72.6363349221904, 41.724746763658999 ], [ -72.648862873986502, 41.722990409447704 ], [ -72.648006857429294, 41.721386980118496 ], [ -72.642568927543607, 41.715836310453909 ], [ -72.640745694342002, 41.714414243741189 ], [ -72.638563964556099, 41.713452849060509 ], [ -72.637201366086302, 41.713259765016311 ], [ -72.622708526084807, 41.712368041145403 ], [ -72.621000827217301, 41.711820541157486 ], [ -72.618099707427902, 41.710235505352607 ], [ -72.616054083045398, 41.707997215638493 ], [ -72.615971735725395, 41.705428781122201 ], [ -72.617193599298005, 41.703710705790193 ], [ -72.618921247117498, 41.702650460952682 ], [ -72.621351407730003, 41.701848082675191 ], [ -72.6333541896268, 41.699345163149502 ], [ -72.635683181834196, 41.698380465454406 ], [ -72.636907621275299, 41.696778302932302 ], [ -72.637348601182794, 41.69534070834959 ], [ -72.637108541363006, 41.693239007518891 ], [ -72.636486836128796, 41.691904997763899 ], [ -72.634767585029707, 41.690499055975593 ], [ -72.632052103015695, 41.689597542521 ], [ -72.629167633578803, 41.689288732635497 ], [ -72.625711178782012, 41.689550058915309 ], [ -72.620776816315299, 41.689181695930095 ], [ -72.618463190083418, 41.688831405626395 ], [ -72.616148286707499, 41.688003899843885 ], [ -72.648727173026899, 41.685043916295697 ], [ -72.665041062164704, 41.680032397264192 ], [ -72.666676159709993, 41.672272269750202 ], [ -72.6693563216093, 41.669923651328801 ], [ -72.6727451150295, 41.669359094237386 ], [ -72.677861912068195, 41.669968738823897 ], [ -72.683029629911303, 41.670984345005088 ], [ -72.682721406429394, 41.671725652718798 ], [ -72.706159402676093, 41.6689361824305 ], [ -72.707537558712204, 41.673952316225197 ], [ -72.700341160287607, 41.674776514448894 ], [ -72.708345591128307, 41.710582130321704 ], [ -72.706319415682501, 41.724419041970791 ], [ -72.693132755334204, 41.725297646713607 ], [ -72.684678232542794, 41.726197587021794 ], [ -72.655767255768296, 41.729841922444905 ] ] ] } },
{ "type": "Feature", "properties": { "name": "Windsor" }, "geometry": { "type": "Polygon", "coordinates": [ [ [ -72.711606931178494, 41.926831121611791 ], [ -72.695666177471495, 41.922179215233584 ], [ -72.694351029161993, 41.920774435577108 ], [ -72.692925620302901, 41.919989769333398 ], [ -72.688442862762003, 41.918672500846398 ], [ -72.6856505555903, 41.918113060158497 ], [ -72.679499799982693, 41.917635421325997 ], [ -72.675135664721907, 41.916383568173892 ], [ -72.672777248250298, 41.915131707648193 ], [ -72.665042684699898, 41.909603643699107 ], [ -72.662060164965894, 41.907868986324601 ], [ -72.6461797891983, 41.902348774587701 ], [ -72.639630841004802, 41.898279781868496 ], [ -72.635321929662396, 41.903551789759597 ], [ -72.621672422731606, 41.904703385410102 ], [ -72.621058402537997, 41.90026931018329 ], [ -72.621354118530604, 41.894495877057288 ], [ -72.6200304149788, 41.884398692375491 ], [ -72.618608299660494, 41.878659315073094 ], [ -72.618370829573905, 41.873901973781898 ], [ -72.619056464166903, 41.868720839754687 ], [ -72.623015500227694, 41.853007441443992 ], [ -72.624539051042206, 41.849901277713698 ], [ -72.626684782581805, 41.843301674623596 ], [ -72.629294928318501, 41.838440802565884 ], [ -72.637638976658096, 41.830432291643405 ], [ -72.6405336417737, 41.826027315771199 ], [ -72.644055396546094, 41.815524788159209 ], [ -72.646020679157701, 41.805997691476705 ], [ -72.653583923480994, 41.806165478207703 ], [ -72.655674280707402, 41.805902553964799 ], [ -72.660165164118297, 41.801535057027202 ], [ -72.662622376014397, 41.801404359461401 ], [ -72.66210092846022, 41.803742066678403 ], [ -72.662320362506605, 41.805218470155893 ], [ -72.659458903163099, 41.805645394605996 ], [ -72.658637503347293, 41.805513880227693 ], [ -72.658842553780104, 41.807220795703799 ], [ -72.685961125974003, 41.802982683114791 ], [ -72.689421885223794, 41.865744719768401 ], [ -72.743342898171818, 41.877421363113392 ], [ -72.7243884111802, 41.928523854067592 ], [ -72.711606931178494, 41.926831121611791 ] ] ] } }
]
}
