{
"type": "FeatureCollection",
"name": "olympia-neighborhood-overlay",
"crs": { "type": "name", "properties": { "name": "urn:ogc:def:crs:OGC:1.3:CRS84" } },
"xy_coordinate_resolution": 1e-05,
"features": [
{ "type": "Feature", "properties": { "name": "Amherst" }, "geometry": { "type": "Polygon", "coordinates": [ [ [ -122.8495, 47.06422 ], [ -122.84448, 47.06415 ], [ -122.84449, 47.06325 ], [ -122.8495, 47.06331 ], [ -122.8495, 47.06422 ] ] ] } },
{ "type": "Feature", "properties": { "name": "Bethel Park" }, "geometry": { "type": "Polygon", "coordinates": [ [ [ -122.88194, 47.06879 ], [ -122.88195, 47.06791 ], [ -122.88459, 47.06787 ], [ -122.88459, 47.0688 ], [ -122.88194, 47.06879 ] ] ] } },
{ "type": "Feature", "properties": { "name": "Bigelow" }, "geometry": { "type": "Polygon", "coordinates": [ [ [ -122.88763, 47.05017 ], [ -122.88763, 47.04942 ], [ -122.88724, 47.04676 ], [ -122.89299, 47.04637 ], [ -122.89327, 47.04818 ], [ -122.89323, 47.04862 ], [ -122.89279, 47.04961 ], [ -122.89209, 47.04961 ], [ -122.89188, 47.05019 ], [ -122.89182, 47.05062 ], [ -122.88875, 47.05071 ], [ -122.88875, 47.05017 ], [ -122.88763, 47.05017 ] ] ] } },
{ "type": "Feature", "properties": { "name": "Bigelow Highlands" }, "geometry": { "type": "Polygon", "coordinates": [ [ [ -122.87735, 47.05162 ], [ -122.87734, 47.05012 ], [ -122.87763, 47.05012 ], [ -122.87764, 47.04603 ], [ -122.88381, 47.04605 ], [ -122.88713, 47.04587 ], [ -122.88763, 47.04942 ], [ -122.88759, 47.05165 ], [ -122.87735, 47.05162 ] ] ] } },
{ "type": "Feature", "properties": { "name": "Briarwood" }, "geometry": { "type": "Polygon", "coordinates": [ [ [ -122.85571, 47.02341 ], [ -122.85577, 47.02068 ], [ -122.86045, 47.0207 ], [ -122.86044, 47.02346 ], [ -122.85571, 47.02341 ] ] ] } },
{ "type": "Feature", "properties": { "name": "Burbank-Elliot" }, "geometry": { "type": "Polygon", "coordinates": [ [ [ -122.92311, 47.06533 ], [ -122.92311, 47.06503 ], [ -122.9228, 47.06511 ], [ -122.92247, 47.06452 ], [ -122.92268, 47.06452 ], [ -122.92269, 47.06325 ], [ -122.92305, 47.06324 ], [ -122.92313, 47.06307 ], [ -122.92313, 47.06138 ], [ -122.92434, 47.06136 ], [ -122.92434, 47.0616 ], [ -122.92536, 47.06159 ], [ -122.92536, 47.06206 ], [ -122.92756, 47.06202 ], [ -122.92822, 47.06299 ], [ -122.92903, 47.06519 ], [ -122.92746, 47.0652 ], [ -122.92745, 47.06723 ], [ -122.92624, 47.06724 ], [ -122.92625, 47.06627 ], [ -122.92318, 47.06628 ], [ -122.92319, 47.06533 ], [ -122.92311, 47.06533 ] ] ] } },
{ "type": "Feature", "properties": { "name": "Cain Road" }, "geometry": { "type": "MultiPolygon", "coordinates": [ [ [ [ -122.86523, 47.01679 ], [ -122.86522, 47.01679 ], [ -122.86523, 47.01678 ], [ -122.86523, 47.01679 ] ] ], [ [ [ -122.8732, 47.01665 ], [ -122.8732, 47.01657 ], [ -122.87781, 47.01659 ], [ -122.87796, 47.01883 ], [ -122.87793, 47.01939 ], [ -122.87773, 47.02021 ], [ -122.87842, 47.02155 ], [ -122.87864, 47.02244 ], [ -122.87859, 47.02326 ], [ -122.87865, 47.02382 ], [ -122.87893, 47.02426 ], [ -122.87727, 47.02427 ], [ -122.87735, 47.02802 ], [ -122.87908, 47.02807 ], [ -122.88259, 47.02903 ], [ -122.8826, 47.0281 ], [ -122.88277, 47.0281 ], [ -122.88362, 47.02867 ], [ -122.88362, 47.0296 ], [ -122.87314, 47.02945 ], [ -122.87064, 47.0291 ], [ -122.86513, 47.02903 ], [ -122.86523, 47.01679 ], [ -122.8732, 47.01665 ] ] ] ] } },
{ "type": "Feature", "properties": { "name": "Carlyon North" }, "geometry": { "type": "Polygon", "coordinates": [ [ [ -122.887, 47.01958 ], [ -122.88676, 47.01958 ], [ -122.88676, 47.01659 ], [ -122.89874, 47.0166 ], [ -122.8987, 47.01938 ], [ -122.89693, 47.02097 ], [ -122.89015, 47.02094 ], [ -122.88956, 47.02075 ], [ -122.887, 47.01958 ] ] ] } },
{ "type": "Feature", "properties": { "name": "Castlewood" }, "geometry": { "type": "Polygon", "coordinates": [ [ [ -122.85434, 47.02527 ], [ -122.85436, 47.02339 ], [ -122.86044, 47.02346 ], [ -122.86041, 47.02533 ], [ -122.85434, 47.02527 ] ] ] } },
{ "type": "Feature", "properties": { "name": "Chambers Lake Basin" }, "geometry": { "type": "Polygon", "coordinates": [ [ [ -122.85026, 46.98823 ], [ -122.85023, 46.98852 ], [ -122.85503, 46.98873 ], [ -122.85537, 46.98926 ], [ -122.8559, 46.98915 ], [ -122.85641, 46.98964 ], [ -122.86031, 46.99006 ], [ -122.86031, 46.98915 ], [ -122.8625, 46.98925 ], [ -122.8652, 46.99048 ], [ -122.86896, 46.99569 ], [ -122.87341, 46.9963 ], [ -122.87707, 46.99632 ], [ -122.87713, 46.99882 ], [ -122.881, 46.99882 ], [ -122.88094, 47.00705 ], [ -122.88085, 47.00847 ], [ -122.87961, 47.00991 ], [ -122.87943, 47.01099 ], [ -122.87652, 47.01098 ], [ -122.87618, 47.01152 ], [ -122.8746, 47.012 ], [ -122.87413, 47.01201 ], [ -122.87388, 47.01172 ], [ -122.8737, 47.0113 ], [ -122.87339, 47.01097 ], [ -122.87069, 47.01097 ], [ -122.87064, 47.01438 ], [ -122.86506, 47.01444 ], [ -122.86504, 47.02121 ], [ -122.86497, 47.02321 ], [ -122.86498, 47.02356 ], [ -122.86241, 47.02354 ], [ -122.86242, 47.02397 ], [ -122.86134, 47.02444 ], [ -122.86079, 47.02462 ], [ -122.86042, 47.02461 ], [ -122.86045, 47.0207 ], [ -122.85577, 47.02068 ], [ -122.85571, 47.02341 ], [ -122.85436, 47.02339 ], [ -122.85434, 47.02528 ], [ -122.865, 47.02543 ], [ -122.86504, 47.02919 ], [ -122.85985, 47.02926 ], [ -122.85723, 47.02921 ], [ -122.85729, 47.03255 ], [ -122.84124, 47.03247 ], [ -122.84118, 47.03423 ], [ -122.83932, 47.0342 ], [ -122.83933, 47.02146 ], [ -122.8343, 47.02151 ], [ -122.83406, 47.02065 ], [ -122.83363, 47.00837 ], [ -122.83312, 47.00694 ], [ -122.83227, 47.00546 ], [ -122.83212, 47.00476 ], [ -122.83226, 47.00396 ], [ -122.83319, 47.00239 ], [ -122.83351, 47.00153 ], [ -122.83364, 47.00086 ], [ -122.83367, 46.99534 ], [ -122.83352, 46.99443 ], [ -122.8332, 46.99354 ], [ -122.83256, 46.99248 ], [ -122.82519, 46.98319 ], [ -122.85026, 46.98823 ] ], [ [ -122.85964, 47.00432 ], [ -122.86144, 47.00433 ], [ -122.86205, 47.00206 ], [ -122.86137, 47.00185 ], [ -122.86039, 47.00168 ], [ -122.85964, 47.00432 ] ], [ [ -122.86028, 47.02019 ], [ -122.86128, 47.02021 ], [ -122.86122, 47.01911 ], [ -122.86028, 47.01909 ], [ -122.86028, 47.02019 ] ], [ [ -122.84422, 47.02635 ], [ -122.84436, 47.02681 ], [ -122.84465, 47.02711 ], [ -122.84496, 47.0277 ], [ -122.84585, 47.0284 ], [ -122.84621, 47.02879 ], [ -122.8464, 47.02933 ], [ -122.84662, 47.0295 ], [ -122.84955, 47.02946 ], [ -122.84947, 47.02578 ], [ -122.8442, 47.02583 ], [ -122.84422, 47.02635 ] ], [ [ -122.85108, 47.02938 ], [ -122.85048, 47.02958 ], [ -122.84955, 47.02958 ], [ -122.84956, 47.03158 ], [ -122.8518, 47.0316 ], [ -122.85177, 47.02936 ], [ -122.85108, 47.02938 ] ] ] } },
{ "type": "Feature", "properties": { "name": "Cooper Crest" }, "geometry": { "type": "Polygon", "coordinates": [ [ [ -122.94634, 47.06579 ], [ -122.94641, 47.06513 ], [ -122.94714, 47.06398 ], [ -122.94827, 47.06399 ], [ -122.94827, 47.06409 ], [ -122.94849, 47.06409 ], [ -122.94849, 47.06562 ], [ -122.94957, 47.06564 ], [ -122.94958, 47.06529 ], [ -122.95224, 47.06529 ], [ -122.95219, 47.06891 ], [ -122.94953, 47.06894 ], [ -122.94954, 47.0685 ], [ -122.94512, 47.06846 ], [ -122.94511, 47.06742 ], [ -122.94527, 47.06707 ], [ -122.9453, 47.0668 ], [ -122.94556, 47.06633 ], [ -122.94602, 47.06586 ], [ -122.94634, 47.06579 ] ] ] } },
{ "type": "Feature", "properties": { "name": "Cooper Point" }, "geometry": { "type": "Polygon", "coordinates": [ [ [ -122.90874, 47.0213 ], [ -122.90934, 47.02181 ], [ -122.91022, 47.0232 ], [ -122.91091, 47.02399 ], [ -122.91181, 47.02466 ], [ -122.9131, 47.02526 ], [ -122.91434, 47.0256 ], [ -122.91543, 47.02575 ], [ -122.92571, 47.02581 ], [ -122.92708, 47.02601 ], [ -122.92813, 47.02629 ], [ -122.92887, 47.02656 ], [ -122.94839, 47.03624 ], [ -122.94982, 47.03688 ], [ -122.95319, 47.03798 ], [ -122.96673, 47.04209 ], [ -122.96881, 47.04253 ], [ -122.97096, 47.04267 ], [ -122.982, 47.04204 ], [ -122.98395, 47.04211 ], [ -122.9853, 47.04235 ], [ -122.98681, 47.04284 ], [ -122.99011, 47.04465 ], [ -122.99008, 47.04481 ], [ -122.98965, 47.04506 ], [ -122.98941, 47.04508 ], [ -122.98866, 47.04462 ], [ -122.98752, 47.04423 ], [ -122.98678, 47.04377 ], [ -122.98595, 47.04343 ], [ -122.98574, 47.04338 ], [ -122.98561, 47.04343 ], [ -122.98567, 47.04365 ], [ -122.98587, 47.04381 ], [ -122.98711, 47.04458 ], [ -122.98715, 47.04468 ], [ -122.98759, 47.04462 ], [ -122.98799, 47.04488 ], [ -122.98861, 47.04543 ], [ -122.98872, 47.04572 ], [ -122.9886, 47.04581 ], [ -122.98735, 47.04512 ], [ -122.98709, 47.04505 ], [ -122.98684, 47.04509 ], [ -122.9862, 47.04483 ], [ -122.98642, 47.04513 ], [ -122.98581, 47.04537 ], [ -122.98633, 47.04525 ], [ -122.98718, 47.04529 ], [ -122.98755, 47.04564 ], [ -122.98763, 47.04585 ], [ -122.98784, 47.04596 ], [ -122.98767, 47.04613 ], [ -122.98771, 47.04618 ], [ -122.98837, 47.04617 ], [ -122.98849, 47.04638 ], [ -122.98828, 47.04698 ], [ -122.98807, 47.04715 ], [ -122.98703, 47.04701 ], [ -122.9867, 47.04705 ], [ -122.98645, 47.04718 ], [ -122.9864, 47.04739 ], [ -122.98684, 47.04759 ], [ -122.98638, 47.04788 ], [ -122.98655, 47.04796 ], [ -122.98683, 47.0479 ], [ -122.98726, 47.0476 ], [ -122.98764, 47.04762 ], [ -122.98804, 47.04843 ], [ -122.98832, 47.04809 ], [ -122.98864, 47.04803 ], [ -122.98874, 47.04821 ], [ -122.98874, 47.04847 ], [ -122.98839, 47.04844 ], [ -122.98828, 47.04863 ], [ -122.98846, 47.04919 ], [ -122.98831, 47.0494 ], [ -122.98846, 47.04953 ], [ -122.989, 47.04961 ], [ -122.98908, 47.04978 ], [ -122.98891, 47.0499 ], [ -122.98895, 47.05002 ], [ -122.98938, 47.05038 ], [ -122.99061, 47.05061 ], [ -122.99122, 47.05111 ], [ -122.99149, 47.05108 ], [ -122.99163, 47.0512 ], [ -122.99162, 47.0523 ], [ -122.99025, 47.05264 ], [ -122.98991, 47.05267 ], [ -122.9895, 47.05257 ], [ -122.98895, 47.0526 ], [ -122.98861, 47.05229 ], [ -122.988, 47.05219 ], [ -122.98757, 47.0518 ], [ -122.98736, 47.05167 ], [ -122.98726, 47.0517 ], [ -122.98748, 47.05192 ], [ -122.98748, 47.05202 ], [ -122.98732, 47.05206 ], [ -122.98761, 47.0523 ], [ -122.98746, 47.05241 ], [ -122.98751, 47.05247 ], [ -122.98769, 47.05254 ], [ -122.9878, 47.05245 ], [ -122.98799, 47.05252 ], [ -122.98839, 47.05246 ], [ -122.98858, 47.05263 ], [ -122.98866, 47.05295 ], [ -122.98903, 47.05289 ], [ -122.98924, 47.05299 ], [ -122.98978, 47.05292 ], [ -122.99008, 47.05308 ], [ -122.99026, 47.05309 ], [ -122.99061, 47.05305 ], [ -122.99109, 47.05283 ], [ -122.99162, 47.05277 ], [ -122.99156, 47.05549 ], [ -122.9905, 47.05537 ], [ -122.98959, 47.05509 ], [ -122.98854, 47.05526 ], [ -122.98852, 47.05539 ], [ -122.9897, 47.05539 ], [ -122.98991, 47.05557 ], [ -122.99012, 47.05552 ], [ -122.99035, 47.05567 ], [ -122.991, 47.0558 ], [ -122.99108, 47.05597 ], [ -122.99151, 47.05603 ], [ -122.9916, 47.05618 ], [ -122.99149, 47.07885 ], [ -122.99136, 47.07907 ], [ -122.99112, 47.07932 ], [ -122.99076, 47.07948 ], [ -122.98971, 47.07958 ], [ -122.98818, 47.08006 ], [ -122.98713, 47.08027 ], [ -122.98494, 47.08028 ], [ -122.9827, 47.08083 ], [ -122.98215, 47.08079 ], [ -122.9822, 47.081 ], [ -122.98199, 47.08172 ], [ -122.98128, 47.08285 ], [ -122.93532, 47.08281 ], [ -122.93784, 47.07943 ], [ -122.93718, 47.07977 ], [ -122.93663, 47.08028 ], [ -122.93579, 47.08085 ], [ -122.93387, 47.0808 ], [ -122.93255, 47.08054 ], [ -122.93123, 47.08008 ], [ -122.92968, 47.07939 ], [ -122.92776, 47.07877 ], [ -122.92683, 47.07824 ], [ -122.92596, 47.07709 ], [ -122.92513, 47.07618 ], [ -122.92468, 47.07545 ], [ -122.92401, 47.07513 ], [ -122.92377, 47.0749 ], [ -122.92339, 47.0742 ], [ -122.92244, 47.07329 ], [ -122.92185, 47.07234 ], [ -122.92032, 47.07086 ], [ -122.91975, 47.06989 ], [ -122.91919, 47.06867 ], [ -122.9193, 47.06889 ], [ -122.92292, 47.06889 ], [ -122.92309, 47.06727 ], [ -122.92735, 47.06723 ], [ -122.92736, 47.06597 ], [ -122.92741, 47.06728 ], [ -122.92971, 47.06738 ], [ -122.92936, 47.06638 ], [ -122.92913, 47.0652 ], [ -122.9274, 47.0652 ], [ -122.92894, 47.06519 ], [ -122.92812, 47.06299 ], [ -122.92747, 47.06202 ], [ -122.92563, 47.05965 ], [ -122.92551, 47.05708 ], [ -122.925, 47.05708 ], [ -122.92551, 47.05706 ], [ -122.9255, 47.05355 ], [ -122.92587, 47.04474 ], [ -122.9262, 47.04424 ], [ -122.93799, 47.03467 ], [ -122.93688, 47.03404 ], [ -122.93605, 47.03343 ], [ -122.93501, 47.03204 ], [ -122.9345, 47.03156 ], [ -122.93267, 47.03007 ], [ -122.9321, 47.0297 ], [ -122.93143, 47.02943 ], [ -122.93081, 47.02929 ], [ -122.92748, 47.02923 ], [ -122.92667, 47.02904 ], [ -122.92531, 47.02833 ], [ -122.92257, 47.02924 ], [ -122.92235, 47.02945 ], [ -122.92177, 47.03036 ], [ -122.92126, 47.03081 ], [ -122.92085, 47.03091 ], [ -122.92071, 47.03111 ], [ -122.92068, 47.03156 ], [ -122.92058, 47.03176 ], [ -122.91985, 47.03194 ], [ -122.91945, 47.0323 ], [ -122.91924, 47.03265 ], [ -122.91786, 47.03335 ], [ -122.91758, 47.03365 ], [ -122.91656, 47.03408 ], [ -122.91608, 47.03456 ], [ -122.9158, 47.03455 ], [ -122.91548, 47.03466 ], [ -122.91401, 47.03536 ], [ -122.91379, 47.03541 ], [ -122.91285, 47.03514 ], [ -122.91263, 47.03472 ], [ -122.9126, 47.03421 ], [ -122.91274, 47.03403 ], [ -122.91388, 47.03367 ], [ -122.91433, 47.03331 ], [ -122.91446, 47.03237 ], [ -122.91375, 47.03202 ], [ -122.91355, 47.03205 ], [ -122.91242, 47.03184 ], [ -122.91055, 47.03176 ], [ -122.91049, 47.03195 ], [ -122.91077, 47.03248 ], [ -122.9107, 47.03269 ], [ -122.91077, 47.03285 ], [ -122.91134, 47.03385 ], [ -122.91136, 47.03403 ], [ -122.91216, 47.03559 ], [ -122.9118, 47.03569 ], [ -122.91166, 47.03561 ], [ -122.91088, 47.03412 ], [ -122.91057, 47.03395 ], [ -122.91041, 47.0333 ], [ -122.91016, 47.03278 ], [ -122.9099, 47.03255 ], [ -122.90992, 47.03235 ], [ -122.90976, 47.0321 ], [ -122.90927, 47.03015 ], [ -122.90943, 47.02913 ], [ -122.90916, 47.02874 ], [ -122.90944, 47.02846 ], [ -122.90955, 47.02795 ], [ -122.9094, 47.02775 ], [ -122.90937, 47.02755 ], [ -122.90943, 47.02737 ], [ -122.91011, 47.02669 ], [ -122.91023, 47.02646 ], [ -122.91014, 47.02633 ], [ -122.9105, 47.02605 ], [ -122.91051, 47.02567 ], [ -122.91073, 47.02533 ], [ -122.91069, 47.02507 ], [ -122.91051, 47.0248 ], [ -122.90971, 47.02411 ], [ -122.90929, 47.02356 ], [ -122.90864, 47.02218 ], [ -122.90812, 47.02172 ], [ -122.90874, 47.0213 ] ], [ [ -122.94447, 47.03483 ], [ -122.94453, 47.03618 ], [ -122.9394, 47.03624 ], [ -122.93939, 47.0399 ], [ -122.94508, 47.03992 ], [ -122.94624, 47.03981 ], [ -122.94538, 47.03693 ], [ -122.94511, 47.03676 ], [ -122.94553, 47.03639 ], [ -122.94608, 47.03561 ], [ -122.94447, 47.03483 ] ], [ [ -122.92574, 47.05361 ], [ -122.92561, 47.0537 ], [ -122.92561, 47.05439 ], [ -122.92775, 47.05439 ], [ -122.92774, 47.05362 ], [ -122.92574, 47.05361 ] ], [ [ -122.93579, 47.05539 ], [ -122.93178, 47.05548 ], [ -122.93186, 47.05709 ], [ -122.93587, 47.0571 ], [ -122.93579, 47.05539 ] ], [ [ -122.94089, 47.05727 ], [ -122.94102, 47.06146 ], [ -122.94135, 47.06296 ], [ -122.94376, 47.06298 ], [ -122.94419, 47.06311 ], [ -122.9517, 47.06305 ], [ -122.95195, 47.06292 ], [ -122.95206, 47.0573 ], [ -122.94089, 47.05727 ] ], [ [ -122.93302, 47.0589 ], [ -122.93311, 47.06168 ], [ -122.93689, 47.06166 ], [ -122.93678, 47.05883 ], [ -122.93302, 47.0589 ] ], [ [ -122.94705, 47.06399 ], [ -122.94632, 47.06513 ], [ -122.94624, 47.06579 ], [ -122.94592, 47.06586 ], [ -122.94546, 47.06633 ], [ -122.9452, 47.0668 ], [ -122.94517, 47.06707 ], [ -122.94501, 47.06742 ], [ -122.94502, 47.06846 ], [ -122.94944, 47.0685 ], [ -122.94943, 47.06894 ], [ -122.9521, 47.06891 ], [ -122.95214, 47.06529 ], [ -122.94948, 47.06529 ], [ -122.94947, 47.06564 ], [ -122.94839, 47.06562 ], [ -122.94839, 47.0641 ], [ -122.94817, 47.06409 ], [ -122.94817, 47.06399 ], [ -122.94705, 47.06399 ] ] ] } },
{ "type": "Feature", "properties": { "name": "Devon Place" }, "geometry": { "type": "Polygon", "coordinates": [ [ [ -122.88463, 47.06702 ], [ -122.88466, 47.06396 ], [ -122.88709, 47.06402 ], [ -122.88732, 47.06433 ], [ -122.88758, 47.06446 ], [ -122.88917, 47.06448 ], [ -122.88913, 47.06707 ], [ -122.88463, 47.06702 ] ] ] } },
{ "type": "Feature", "properties": { "name": "Downtown Neighborhood Assoc." }, "geometry": { "type": "Polygon", "coordinates": [ [ [ -122.90302, 47.05882 ], [ -122.89815, 47.05882 ], [ -122.89738, 47.05816 ], [ -122.89336, 47.0473 ], [ -122.89345, 47.04718 ], [ -122.88882, 47.04747 ], [ -122.88704, 47.03542 ], [ -122.88844, 47.03506 ], [ -122.88998, 47.03448 ], [ -122.89046, 47.03439 ], [ -122.89105, 47.03443 ], [ -122.89198, 47.03472 ], [ -122.89592, 47.03474 ], [ -122.89592, 47.03676 ], [ -122.90085, 47.03667 ], [ -122.90082, 47.03805 ], [ -122.90924, 47.03807 ], [ -122.90915, 47.04351 ], [ -122.90923, 47.04434 ], [ -122.90785, 47.04802 ], [ -122.90775, 47.0559 ], [ -122.9072, 47.05728 ], [ -122.90654, 47.05803 ], [ -122.90599, 47.05839 ], [ -122.90524, 47.0587 ], [ -122.90302, 47.05882 ] ] ] } },
{ "type": "Feature", "properties": { "name": "East Bay Drive" }, "geometry": { "type": "Polygon", "coordinates": [ [ [ -122.89457, 47.06672 ], [ -122.89478, 47.0642 ], [ -122.89464, 47.06308 ], [ -122.89377, 47.06306 ], [ -122.89374, 47.06113 ], [ -122.89399, 47.0611 ], [ -122.89301, 47.05814 ], [ -122.89292, 47.05718 ], [ -122.89115, 47.05719 ], [ -122.89113, 47.05607 ], [ -122.89289, 47.05606 ], [ -122.89288, 47.05453 ], [ -122.89201, 47.05245 ], [ -122.89185, 47.0516 ], [ -122.89182, 47.05059 ], [ -122.89209, 47.04961 ], [ -122.89279, 47.04961 ], [ -122.89319, 47.04873 ], [ -122.89328, 47.04823 ], [ -122.89313, 47.04719 ], [ -122.89336, 47.0473 ], [ -122.89335, 47.0475 ], [ -122.89348, 47.04759 ], [ -122.89374, 47.0485 ], [ -122.89347, 47.0488 ], [ -122.89311, 47.04957 ], [ -122.89309, 47.0499 ], [ -122.89285, 47.05035 ], [ -122.89282, 47.05125 ], [ -122.89294, 47.05228 ], [ -122.89309, 47.05277 ], [ -122.89356, 47.05369 ], [ -122.89386, 47.05507 ], [ -122.89428, 47.05517 ], [ -122.89437, 47.05526 ], [ -122.89436, 47.05571 ], [ -122.89449, 47.0558 ], [ -122.89418, 47.05649 ], [ -122.8942, 47.05768 ], [ -122.89437, 47.0583 ], [ -122.89473, 47.05895 ], [ -122.89521, 47.06023 ], [ -122.89542, 47.0611 ], [ -122.89581, 47.06172 ], [ -122.89599, 47.06243 ], [ -122.89641, 47.06303 ], [ -122.89646, 47.06358 ], [ -122.89658, 47.06385 ], [ -122.89657, 47.06498 ], [ -122.89726, 47.06694 ], [ -122.89701, 47.06701 ], [ -122.89457, 47.06672 ] ] ] } },
{ "type": "Feature", "properties": { "name": "Eastside" }, "geometry": { "type": "Polygon", "coordinates": [ [ [ -122.88381, 47.04605 ], [ -122.87065, 47.04601 ], [ -122.86907, 47.04563 ], [ -122.86906, 47.04348 ], [ -122.86768, 47.04345 ], [ -122.86775, 47.04045 ], [ -122.8692, 47.04013 ], [ -122.8706, 47.03959 ], [ -122.87471, 47.03692 ], [ -122.87535, 47.03656 ], [ -122.87635, 47.03621 ], [ -122.87787, 47.03592 ], [ -122.88599, 47.03533 ], [ -122.88699, 47.03519 ], [ -122.88852, 47.04577 ], [ -122.88381, 47.04605 ] ] ] } },
{ "type": "Feature", "properties": { "name": "Fain Park" }, "geometry": { "type": "Polygon", "coordinates": [ [ [ -122.88699, 47.03519 ], [ -122.88435, 47.03496 ], [ -122.88176, 47.03498 ], [ -122.8821, 47.02993 ], [ -122.88202, 47.02955 ], [ -122.88457, 47.02961 ], [ -122.88507, 47.0297 ], [ -122.88601, 47.03007 ], [ -122.8867, 47.03063 ], [ -122.88691, 47.03095 ], [ -122.88697, 47.03123 ], [ -122.88687, 47.03348 ], [ -122.88699, 47.03519 ] ] ] } },
{ "type": "Feature", "properties": { "name": "Friendly Village" }, "geometry": { "type": "Polygon", "coordinates": [ [ [ -122.93939, 47.0399 ], [ -122.9394, 47.03624 ], [ -122.94453, 47.03618 ], [ -122.94447, 47.03483 ], [ -122.94608, 47.03561 ], [ -122.94553, 47.03639 ], [ -122.94511, 47.03676 ], [ -122.94538, 47.03693 ], [ -122.94624, 47.03981 ], [ -122.94508, 47.03992 ], [ -122.93939, 47.0399 ] ] ] } },
{ "type": "Feature", "properties": { "name": "Goldcrest" }, "geometry": { "type": "Polygon", "coordinates": [ [ [ -122.95195, 47.06301 ], [ -122.94429, 47.06311 ], [ -122.94386, 47.06298 ], [ -122.94145, 47.06296 ], [ -122.94111, 47.06146 ], [ -122.94099, 47.05727 ], [ -122.95216, 47.0573 ], [ -122.95206, 47.06287 ], [ -122.95195, 47.06301 ] ] ] } },
{ "type": "Feature", "properties": { "name": "Governor Stevens" }, "geometry": { "type": "Polygon", "coordinates": [ [ [ -122.89395, 47.02388 ], [ -122.89375, 47.02322 ], [ -122.89326, 47.0232 ], [ -122.89326, 47.02267 ], [ -122.892, 47.02264 ], [ -122.89208, 47.02325 ], [ -122.88876, 47.02323 ], [ -122.88876, 47.0204 ], [ -122.89014, 47.02094 ], [ -122.89694, 47.02097 ], [ -122.89596, 47.02194 ], [ -122.89582, 47.02245 ], [ -122.89589, 47.02287 ], [ -122.89603, 47.02311 ], [ -122.89634, 47.02342 ], [ -122.89694, 47.02378 ], [ -122.89635, 47.0238 ], [ -122.89622, 47.0236 ], [ -122.89395, 47.02388 ] ] ] } },
{ "type": "Feature", "properties": { "name": "Greenfield" }, "geometry": { "type": "Polygon", "coordinates": [ [ [ -122.8518, 47.0316 ], [ -122.84956, 47.03158 ], [ -122.84955, 47.02958 ], [ -122.85048, 47.02958 ], [ -122.85108, 47.02938 ], [ -122.85177, 47.02936 ], [ -122.8518, 47.0316 ] ] ] } },
{ "type": "Feature", "properties": { "name": "Holiday Hills" }, "geometry": { "type": "Polygon", "coordinates": [ [ [ -122.8732, 47.01657 ], [ -122.87324, 47.01116 ], [ -122.87356, 47.01139 ], [ -122.87364, 47.01177 ], [ -122.87404, 47.01216 ], [ -122.87462, 47.01215 ], [ -122.87617, 47.01168 ], [ -122.87646, 47.0115 ], [ -122.87662, 47.01112 ], [ -122.87695, 47.01111 ], [ -122.87712, 47.01658 ], [ -122.8732, 47.01657 ] ] ] } },
{ "type": "Feature", "properties": { "name": "Indian Creek" }, "geometry": { "type": "Polygon", "coordinates": [ [ [ -122.86615, 47.0328 ], [ -122.8655, 47.03224 ], [ -122.86515, 47.03157 ], [ -122.86515, 47.02907 ], [ -122.87064, 47.0291 ], [ -122.87319, 47.02945 ], [ -122.87315, 47.03264 ], [ -122.87472, 47.0326 ], [ -122.87538, 47.03231 ], [ -122.8775, 47.0324 ], [ -122.87749, 47.0348 ], [ -122.8756, 47.0358 ], [ -122.87414, 47.03622 ], [ -122.86851, 47.03626 ], [ -122.86822, 47.03545 ], [ -122.86819, 47.0344 ], [ -122.86796, 47.03386 ], [ -122.86736, 47.03333 ], [ -122.86615, 47.0328 ] ] ] } },
{ "type": "Feature", "properties": { "name": "Kiwi Court" }, "geometry": { "type": "Polygon", "coordinates": [ [ [ -122.92561, 47.05439 ], [ -122.92561, 47.0537 ], [ -122.92569, 47.05362 ], [ -122.92774, 47.05362 ], [ -122.92775, 47.05439 ], [ -122.92561, 47.05439 ] ] ] } },
{ "type": "Feature", "properties": { "name": "Lakemoor" }, "geometry": { "type": "Polygon", "coordinates": [ [ [ -122.9498, 47.03633 ], [ -122.9445, 47.03376 ], [ -122.9445, 47.03139 ], [ -122.94318, 47.03063 ], [ -122.94449, 47.02958 ], [ -122.94497, 47.02934 ], [ -122.94567, 47.02914 ], [ -122.94703, 47.02906 ], [ -122.94754, 47.02894 ], [ -122.95518, 47.02894 ], [ -122.95511, 47.03619 ], [ -122.9498, 47.0362 ], [ -122.9498, 47.03633 ] ] ] } },
{ "type": "Feature", "properties": { "name": "Lenox Knoll" }, "geometry": { "type": "Polygon", "coordinates": [ [ [ -122.92311, 47.06704 ], [ -122.92312, 47.06627 ], [ -122.92614, 47.06627 ], [ -122.92623, 47.06676 ], [ -122.92624, 47.06671 ], [ -122.92624, 47.06724 ], [ -122.92319, 47.06727 ], [ -122.92311, 47.06704 ] ] ] } },
{ "type": "Feature", "properties": { "name": "Mapleview" }, "geometry": { "type": "Polygon", "coordinates": [ [ [ -122.83926, 47.06141 ], [ -122.83926, 47.05959 ], [ -122.84274, 47.05959 ], [ -122.84273, 47.06142 ], [ -122.83926, 47.06141 ] ] ] } },
{ "type": "Feature", "properties": { "name": "Newport" }, "geometry": { "type": "Polygon", "coordinates": [ [ [ -122.84771, 47.0642 ], [ -122.84969, 47.06421 ], [ -122.84967, 47.06569 ], [ -122.84772, 47.06567 ], [ -122.84771, 47.0642 ] ] ] } },
{ "type": "Feature", "properties": { "name": "North East" }, "geometry": { "type": "Polygon", "coordinates": [ [ [ -122.8877, 47.05017 ], [ -122.88875, 47.05021 ], [ -122.88875, 47.05071 ], [ -122.89177, 47.05062 ], [ -122.89187, 47.05182 ], [ -122.89201, 47.05245 ], [ -122.89286, 47.05443 ], [ -122.89289, 47.05606 ], [ -122.89113, 47.05607 ], [ -122.89114, 47.05719 ], [ -122.89292, 47.05718 ], [ -122.893, 47.05812 ], [ -122.89399, 47.0611 ], [ -122.89374, 47.06113 ], [ -122.89377, 47.06306 ], [ -122.89464, 47.06308 ], [ -122.89477, 47.0641 ], [ -122.89469, 47.06579 ], [ -122.88915, 47.06581 ], [ -122.88917, 47.06446 ], [ -122.88759, 47.06446 ], [ -122.88727, 47.06429 ], [ -122.88709, 47.06402 ], [ -122.88466, 47.06396 ], [ -122.88463, 47.06702 ], [ -122.88928, 47.06711 ], [ -122.88924, 47.0685 ], [ -122.89074, 47.0685 ], [ -122.89073, 47.06954 ], [ -122.88939, 47.06954 ], [ -122.88939, 47.06935 ], [ -122.88814, 47.06935 ], [ -122.88809, 47.06882 ], [ -122.86502, 47.06886 ], [ -122.8571, 47.06872 ], [ -122.85855, 47.06734 ], [ -122.86098, 47.06377 ], [ -122.86144, 47.0633 ], [ -122.86329, 47.06187 ], [ -122.86377, 47.06134 ], [ -122.86407, 47.06071 ], [ -122.86428, 47.05805 ], [ -122.86407, 47.05672 ], [ -122.8637, 47.05517 ], [ -122.86303, 47.05321 ], [ -122.86291, 47.05276 ], [ -122.86287, 47.05218 ], [ -122.8688, 47.05218 ], [ -122.87319, 47.05202 ], [ -122.87517, 47.05202 ], [ -122.87519, 47.05152 ], [ -122.87568, 47.05152 ], [ -122.87568, 47.05161 ], [ -122.88759, 47.05166 ], [ -122.8877, 47.05017 ] ], [ [ -122.88195, 47.06791 ], [ -122.88194, 47.06879 ], [ -122.88459, 47.0688 ], [ -122.88459, 47.06787 ], [ -122.88195, 47.06791 ] ] ] } },
{ "type": "Feature", "properties": { "name": "Northwest" }, "geometry": { "type": "MultiPolygon", "coordinates": [ [ [ [ -122.91893, 47.06781 ], [ -122.92012, 47.06781 ], [ -122.9202, 47.06756 ], [ -122.92047, 47.06756 ], [ -122.92042, 47.0673 ], [ -122.92031, 47.06704 ], [ -122.91964, 47.06719 ], [ -122.91975, 47.06693 ], [ -122.91964, 47.06673 ], [ -122.91972, 47.0666 ], [ -122.91961, 47.06628 ], [ -122.91998, 47.06583 ], [ -122.91987, 47.06583 ], [ -122.91928, 47.06517 ], [ -122.9183, 47.06554 ], [ -122.91658, 47.06313 ], [ -122.91621, 47.06213 ], [ -122.91627, 47.06155 ], [ -122.91591, 47.06102 ], [ -122.91755, 47.06088 ], [ -122.91731, 47.06059 ], [ -122.91782, 47.06037 ], [ -122.91795, 47.06015 ], [ -122.91701, 47.06017 ], [ -122.91699, 47.05987 ], [ -122.91609, 47.05975 ], [ -122.91594, 47.05827 ], [ -122.91536, 47.05816 ], [ -122.91553, 47.05788 ], [ -122.91643, 47.05787 ], [ -122.91643, 47.05716 ], [ -122.91632, 47.057 ], [ -122.91632, 47.05608 ], [ -122.91686, 47.05608 ], [ -122.91686, 47.05526 ], [ -122.91572, 47.05525 ], [ -122.91572, 47.0547 ], [ -122.91583, 47.0547 ], [ -122.91583, 47.05438 ], [ -122.91613, 47.05433 ], [ -122.91614, 47.05364 ], [ -122.91498, 47.05355 ], [ -122.91498, 47.05325 ], [ -122.91462, 47.05322 ], [ -122.91479, 47.05269 ], [ -122.91481, 47.0516 ], [ -122.91492, 47.05085 ], [ -122.91441, 47.05042 ], [ -122.91384, 47.05056 ], [ -122.91364, 47.05053 ], [ -122.91366, 47.05024 ], [ -122.91385, 47.04985 ], [ -122.91376, 47.0488 ], [ -122.91385, 47.04582 ], [ -122.92587, 47.04602 ], [ -122.9256, 47.05354 ], [ -122.92561, 47.05706 ], [ -122.9251, 47.05708 ], [ -122.92561, 47.05708 ], [ -122.92573, 47.05965 ], [ -122.92756, 47.06202 ], [ -122.92536, 47.06206 ], [ -122.92536, 47.06159 ], [ -122.92434, 47.06157 ], [ -122.92434, 47.06136 ], [ -122.92306, 47.06127 ], [ -122.92279, 47.06162 ], [ -122.92313, 47.06151 ], [ -122.92313, 47.06307 ], [ -122.92305, 47.06324 ], [ -122.92269, 47.06325 ], [ -122.92268, 47.06452 ], [ -122.92247, 47.06452 ], [ -122.9228, 47.06511 ], [ -122.92311, 47.06503 ], [ -122.92311, 47.06704 ], [ -122.92319, 47.06725 ], [ -122.92302, 47.06888 ], [ -122.91939, 47.06889 ], [ -122.91893, 47.06781 ] ] ], [ [ [ -122.92746, 47.0652 ], [ -122.92923, 47.0652 ], [ -122.92946, 47.06638 ], [ -122.92981, 47.06738 ], [ -122.92751, 47.06727 ], [ -122.92746, 47.0652 ] ] ] ] } },
{ "type": "Feature", "properties": { "name": "Nottingham" }, "geometry": { "type": "Polygon", "coordinates": [ [ [ -122.87318, 47.01664 ], [ -122.86526, 47.01678 ], [ -122.86527, 47.01451 ], [ -122.87136, 47.01454 ], [ -122.87252, 47.01463 ], [ -122.87295, 47.01488 ], [ -122.87319, 47.0152 ], [ -122.87318, 47.01664 ] ] ] } },
{ "type": "Feature", "properties": { "name": "Olympia Downtown" }, "geometry": { "type": "Polygon", "coordinates": [ [ [ -122.89323, 47.04718 ], [ -122.88874, 47.04745 ], [ -122.88688, 47.03406 ], [ -122.90689, 47.03382 ], [ -122.90695, 47.03414 ], [ -122.90714, 47.0345 ], [ -122.9073, 47.03458 ], [ -122.9075, 47.03484 ], [ -122.90765, 47.03536 ], [ -122.90814, 47.03556 ], [ -122.90837, 47.03643 ], [ -122.90861, 47.03677 ], [ -122.90873, 47.03763 ], [ -122.90857, 47.03778 ], [ -122.90697, 47.0383 ], [ -122.90599, 47.03858 ], [ -122.90545, 47.03865 ], [ -122.90487, 47.03897 ], [ -122.90453, 47.0396 ], [ -122.90404, 47.04021 ], [ -122.90385, 47.04086 ], [ -122.90436, 47.04147 ], [ -122.90442, 47.04222 ], [ -122.90474, 47.04241 ], [ -122.9046, 47.043 ], [ -122.90486, 47.04325 ], [ -122.90509, 47.04332 ], [ -122.90569, 47.04333 ], [ -122.906, 47.04318 ], [ -122.90643, 47.04329 ], [ -122.90714, 47.04333 ], [ -122.90762, 47.04315 ], [ -122.9085, 47.04323 ], [ -122.90888, 47.04336 ], [ -122.90889, 47.04375 ], [ -122.90876, 47.04398 ], [ -122.90891, 47.04421 ], [ -122.90883, 47.0445 ], [ -122.90804, 47.04555 ], [ -122.90506, 47.04571 ], [ -122.90486, 47.04838 ], [ -122.90498, 47.05095 ], [ -122.90548, 47.05137 ], [ -122.90618, 47.05575 ], [ -122.90482, 47.05648 ], [ -122.90518, 47.05744 ], [ -122.90554, 47.05792 ], [ -122.90522, 47.05831 ], [ -122.90524, 47.0587 ], [ -122.90302, 47.05882 ], [ -122.90251, 47.05829 ], [ -122.90155, 47.05829 ], [ -122.89913, 47.05775 ], [ -122.89783, 47.05517 ], [ -122.89794, 47.05204 ], [ -122.89598, 47.0514 ], [ -122.89533, 47.04756 ], [ -122.89515, 47.04741 ], [ -122.89463, 47.04719 ], [ -122.89323, 47.04718 ] ] ] } },
{ "type": "Feature", "properties": { "name": "Redwood Estates" }, "geometry": { "type": "Polygon", "coordinates": [ [ [ -122.85096, 47.03615 ], [ -122.85092, 47.03252 ], [ -122.85224, 47.03255 ], [ -122.85227, 47.03616 ], [ -122.85096, 47.03615 ] ] ] } },
{ "type": "Feature", "properties": { "name": "Rossmoor 1" }, "geometry": { "type": "Polygon", "coordinates": [ [ [ -122.865, 47.02543 ], [ -122.86019, 47.02534 ], [ -122.86041, 47.02533 ], [ -122.86042, 47.02461 ], [ -122.86079, 47.02462 ], [ -122.86134, 47.02444 ], [ -122.86242, 47.02397 ], [ -122.86241, 47.02354 ], [ -122.86498, 47.02356 ], [ -122.865, 47.02543 ] ] ] } },
{ "type": "Feature", "properties": { "name": "Sequoia Park" }, "geometry": { "type": "Polygon", "coordinates": [ [ [ -122.85964, 47.00431 ], [ -122.86039, 47.00168 ], [ -122.86137, 47.00185 ], [ -122.86205, 47.00206 ], [ -122.86143, 47.00432 ], [ -122.85964, 47.00431 ] ] ] } },
{ "type": "Feature", "properties": { "name": "South Capitol" }, "geometry": { "type": "Polygon", "coordinates": [ [ [ -122.89592, 47.03395 ], [ -122.89612, 47.02822 ], [ -122.89887, 47.02579 ], [ -122.89989, 47.02507 ], [ -122.90097, 47.02453 ], [ -122.90291, 47.02393 ], [ -122.90351, 47.0248 ], [ -122.90355, 47.0251 ], [ -122.90345, 47.02556 ], [ -122.90351, 47.02626 ], [ -122.90434, 47.02745 ], [ -122.90466, 47.02879 ], [ -122.90519, 47.02913 ], [ -122.9052, 47.0292 ], [ -122.90491, 47.02944 ], [ -122.90484, 47.02958 ], [ -122.90499, 47.03009 ], [ -122.90525, 47.03041 ], [ -122.90587, 47.03056 ], [ -122.90602, 47.03071 ], [ -122.90588, 47.03089 ], [ -122.90518, 47.03102 ], [ -122.90508, 47.03126 ], [ -122.90543, 47.0317 ], [ -122.90618, 47.03208 ], [ -122.90681, 47.03267 ], [ -122.90687, 47.03293 ], [ -122.90677, 47.03332 ], [ -122.90689, 47.03382 ], [ -122.89592, 47.03395 ] ] ] } },
{ "type": "Feature", "properties": { "name": "South Westside" }, "geometry": { "type": "Polygon", "coordinates": [ [ [ -122.92541, 47.02833 ], [ -122.92677, 47.02904 ], [ -122.92758, 47.02923 ], [ -122.93091, 47.02929 ], [ -122.93153, 47.02943 ], [ -122.9322, 47.0297 ], [ -122.93277, 47.03006 ], [ -122.9346, 47.03155 ], [ -122.93511, 47.03204 ], [ -122.93615, 47.03342 ], [ -122.93698, 47.03404 ], [ -122.93808, 47.03466 ], [ -122.92624, 47.0443 ], [ -122.92596, 47.04478 ], [ -122.92589, 47.04602 ], [ -122.91354, 47.04581 ], [ -122.91318, 47.04565 ], [ -122.91162, 47.04409 ], [ -122.91099, 47.04366 ], [ -122.90924, 47.04347 ], [ -122.90919, 47.0434 ], [ -122.90933, 47.04333 ], [ -122.9102, 47.04327 ], [ -122.91068, 47.04311 ], [ -122.91142, 47.04271 ], [ -122.91371, 47.04115 ], [ -122.91419, 47.04063 ], [ -122.91437, 47.04022 ], [ -122.91451, 47.03957 ], [ -122.9144, 47.03909 ], [ -122.91419, 47.03869 ], [ -122.91303, 47.03757 ], [ -122.91265, 47.03753 ], [ -122.91205, 47.03766 ], [ -122.91126, 47.03724 ], [ -122.91087, 47.03715 ], [ -122.90953, 47.03736 ], [ -122.91215, 47.03644 ], [ -122.91189, 47.03583 ], [ -122.91411, 47.03536 ], [ -122.91558, 47.03465 ], [ -122.9159, 47.03454 ], [ -122.91618, 47.03456 ], [ -122.91666, 47.03408 ], [ -122.91768, 47.03365 ], [ -122.91796, 47.03335 ], [ -122.91934, 47.03265 ], [ -122.91955, 47.0323 ], [ -122.91995, 47.03193 ], [ -122.92067, 47.03176 ], [ -122.92078, 47.03156 ], [ -122.92081, 47.03111 ], [ -122.92095, 47.03091 ], [ -122.92135, 47.0308 ], [ -122.92187, 47.03036 ], [ -122.92244, 47.02945 ], [ -122.92266, 47.02923 ], [ -122.92541, 47.02833 ] ], [ [ -122.92356, 47.03261 ], [ -122.92348, 47.0362 ], [ -122.92858, 47.03622 ], [ -122.92863, 47.03261 ], [ -122.92356, 47.03261 ] ] ] } },
{ "type": "Feature", "properties": { "name": "Springfield" }, "geometry": { "type": "Polygon", "coordinates": [ [ [ -122.84269, 47.06052 ], [ -122.84269, 47.05961 ], [ -122.84439, 47.05962 ], [ -122.84437, 47.06052 ], [ -122.84269, 47.06052 ] ] ] } },
{ "type": "Feature", "properties": { "name": "Springwood" }, "geometry": { "type": "Polygon", "coordinates": [ [ [ -122.84448, 47.06563 ], [ -122.84449, 47.06416 ], [ -122.84772, 47.0642 ], [ -122.84772, 47.06567 ], [ -122.84448, 47.06563 ] ] ] } },
{ "type": "Feature", "properties": { "name": "The Birches" }, "geometry": { "type": "Polygon", "coordinates": [ [ [ -122.86028, 47.02018 ], [ -122.86028, 47.01909 ], [ -122.86122, 47.01911 ], [ -122.86128, 47.0202 ], [ -122.86028, 47.02018 ] ] ] } },
{ "type": "Feature", "properties": { "name": "The Woods" }, "geometry": { "type": "Polygon", "coordinates": [ [ [ -122.93321, 47.06168 ], [ -122.93312, 47.0589 ], [ -122.93688, 47.05883 ], [ -122.93699, 47.06166 ], [ -122.93321, 47.06168 ] ] ] } },
{ "type": "Feature", "properties": { "name": "Upper Eastside" }, "geometry": { "type": "Polygon", "coordinates": [ [ [ -122.86629, 47.05218 ], [ -122.86629, 47.05164 ], [ -122.86567, 47.05163 ], [ -122.86567, 47.05182 ], [ -122.86416, 47.05176 ], [ -122.86397, 47.05105 ], [ -122.86398, 47.05023 ], [ -122.86466, 47.05023 ], [ -122.86466, 47.05006 ], [ -122.86514, 47.05006 ], [ -122.86514, 47.04604 ], [ -122.87764, 47.04603 ], [ -122.87763, 47.05012 ], [ -122.87734, 47.05012 ], [ -122.87735, 47.05162 ], [ -122.87568, 47.05161 ], [ -122.87568, 47.05152 ], [ -122.87503, 47.05152 ], [ -122.87504, 47.0516 ], [ -122.87518, 47.0516 ], [ -122.87517, 47.05202 ], [ -122.87319, 47.05202 ], [ -122.8732, 47.05067 ], [ -122.87337, 47.05067 ], [ -122.87337, 47.05038 ], [ -122.87081, 47.05036 ], [ -122.87084, 47.04918 ], [ -122.87029, 47.04916 ], [ -122.87029, 47.04882 ], [ -122.86792, 47.04881 ], [ -122.86792, 47.05082 ], [ -122.8688, 47.05083 ], [ -122.8688, 47.05218 ], [ -122.86629, 47.05218 ] ] ] } },
{ "type": "Feature", "properties": { "name": "Walnut Park" }, "geometry": { "type": "Polygon", "coordinates": [ [ [ -122.93188, 47.05548 ], [ -122.93589, 47.05539 ], [ -122.93597, 47.05709 ], [ -122.93196, 47.05709 ], [ -122.93188, 47.05548 ] ] ] } },
{ "type": "Feature", "properties": { "name": "Wellington West" }, "geometry": { "type": "Polygon", "coordinates": [ [ [ -122.92348, 47.0362 ], [ -122.92356, 47.03261 ], [ -122.92863, 47.03261 ], [ -122.92858, 47.03622 ], [ -122.92348, 47.0362 ] ] ] } },
{ "type": "Feature", "properties": { "name": "West Bay Drive" }, "geometry": { "type": "Polygon", "coordinates": [ [ [ -122.9188, 47.0679 ], [ -122.91787, 47.06722 ], [ -122.91771, 47.06685 ], [ -122.91741, 47.06689 ], [ -122.91716, 47.06643 ], [ -122.91671, 47.06619 ], [ -122.91659, 47.06589 ], [ -122.91674, 47.06572 ], [ -122.91642, 47.06531 ], [ -122.91607, 47.06517 ], [ -122.9161, 47.06494 ], [ -122.916, 47.06452 ], [ -122.9158, 47.06423 ], [ -122.91526, 47.06287 ], [ -122.91513, 47.06192 ], [ -122.9149, 47.06163 ], [ -122.91457, 47.06146 ], [ -122.91414, 47.06074 ], [ -122.91415, 47.06028 ], [ -122.91452, 47.06018 ], [ -122.9145, 47.05934 ], [ -122.91467, 47.0593 ], [ -122.91468, 47.05922 ], [ -122.91452, 47.05908 ], [ -122.914, 47.05907 ], [ -122.91327, 47.05886 ], [ -122.91297, 47.05846 ], [ -122.91262, 47.05671 ], [ -122.9127, 47.05661 ], [ -122.91251, 47.05642 ], [ -122.91248, 47.05615 ], [ -122.91228, 47.05565 ], [ -122.91257, 47.05543 ], [ -122.91259, 47.05513 ], [ -122.91306, 47.05493 ], [ -122.91333, 47.05491 ], [ -122.91275, 47.05343 ], [ -122.91238, 47.05333 ], [ -122.91206, 47.05281 ], [ -122.91142, 47.05283 ], [ -122.91131, 47.05275 ], [ -122.91135, 47.05265 ], [ -122.91162, 47.0525 ], [ -122.91179, 47.05216 ], [ -122.91172, 47.0518 ], [ -122.91189, 47.0512 ], [ -122.91193, 47.05048 ], [ -122.91174, 47.05013 ], [ -122.91136, 47.04875 ], [ -122.91116, 47.04833 ], [ -122.91053, 47.04594 ], [ -122.9123, 47.04566 ], [ -122.9131, 47.04567 ], [ -122.91358, 47.04589 ], [ -122.91385, 47.0459 ], [ -122.91376, 47.0488 ], [ -122.91385, 47.04985 ], [ -122.91366, 47.05024 ], [ -122.91364, 47.05053 ], [ -122.91384, 47.05056 ], [ -122.91441, 47.05042 ], [ -122.91492, 47.05085 ], [ -122.91481, 47.0516 ], [ -122.91479, 47.05269 ], [ -122.91462, 47.05322 ], [ -122.91498, 47.05325 ], [ -122.91498, 47.05355 ], [ -122.91614, 47.05364 ], [ -122.91613, 47.05433 ], [ -122.91583, 47.05438 ], [ -122.91583, 47.0547 ], [ -122.91572, 47.0547 ], [ -122.91572, 47.05525 ], [ -122.91686, 47.05526 ], [ -122.91686, 47.05608 ], [ -122.91632, 47.05608 ], [ -122.91632, 47.057 ], [ -122.91643, 47.05716 ], [ -122.91643, 47.05787 ], [ -122.91553, 47.05788 ], [ -122.91536, 47.05816 ], [ -122.91594, 47.05827 ], [ -122.91609, 47.05975 ], [ -122.91699, 47.05987 ], [ -122.91701, 47.0602 ], [ -122.91795, 47.06015 ], [ -122.91782, 47.06037 ], [ -122.91731, 47.06059 ], [ -122.91755, 47.06088 ], [ -122.91591, 47.06102 ], [ -122.91627, 47.06155 ], [ -122.91618, 47.06205 ], [ -122.91658, 47.06313 ], [ -122.9183, 47.06554 ], [ -122.91928, 47.06517 ], [ -122.91987, 47.06583 ], [ -122.91998, 47.06583 ], [ -122.91961, 47.06628 ], [ -122.91972, 47.0666 ], [ -122.91964, 47.06673 ], [ -122.91975, 47.06693 ], [ -122.91964, 47.06719 ], [ -122.92031, 47.06704 ], [ -122.92042, 47.0673 ], [ -122.92047, 47.06756 ], [ -122.92009, 47.06756 ], [ -122.92012, 47.06781 ], [ -122.91893, 47.06781 ], [ -122.9193, 47.06867 ], [ -122.9188, 47.0679 ] ] ] } },
{ "type": "Feature", "properties": { "name": "Westbrook Park" }, "geometry": { "type": "Polygon", "coordinates": [ [ [ -122.94816, 47.02865 ], [ -122.95094, 47.02721 ], [ -122.95194, 47.02783 ], [ -122.95227, 47.02759 ], [ -122.95264, 47.02834 ], [ -122.95257, 47.02838 ], [ -122.95269, 47.02892 ], [ -122.94847, 47.02893 ], [ -122.94816, 47.02865 ] ] ] } },
{ "type": "Feature", "properties": { "name": "Wildwood" }, "geometry": { "type": "Polygon", "coordinates": [ [ [ -122.88943, 47.02766 ], [ -122.88945, 47.02631 ], [ -122.8901, 47.02629 ], [ -122.89007, 47.02548 ], [ -122.88953, 47.02548 ], [ -122.88947, 47.02326 ], [ -122.89208, 47.02325 ], [ -122.892, 47.02264 ], [ -122.89326, 47.02267 ], [ -122.89326, 47.0232 ], [ -122.89375, 47.02322 ], [ -122.89395, 47.02388 ], [ -122.89622, 47.0236 ], [ -122.89635, 47.0238 ], [ -122.89694, 47.02378 ], [ -122.89946, 47.02537 ], [ -122.89909, 47.02563 ], [ -122.89607, 47.02569 ], [ -122.89533, 47.02738 ], [ -122.89363, 47.02739 ], [ -122.89354, 47.02852 ], [ -122.89153, 47.02852 ], [ -122.89151, 47.02768 ], [ -122.88943, 47.02766 ] ] ] } },
{ "type": "Feature", "properties": { "name": "Woodard Glen" }, "geometry": { "type": "Polygon", "coordinates": [ [ [ -122.84963, 47.06241 ], [ -122.84436, 47.06234 ], [ -122.84436, 47.06151 ], [ -122.84966, 47.06159 ], [ -122.84963, 47.06241 ] ] ] } },
{ "type": "Feature", "properties": { "name": "Woodfield Estates" }, "geometry": { "type": "Polygon", "coordinates": [ [ [ -122.84955, 47.02944 ], [ -122.84662, 47.02949 ], [ -122.8464, 47.02932 ], [ -122.84621, 47.02877 ], [ -122.84585, 47.02838 ], [ -122.84496, 47.02769 ], [ -122.84465, 47.02709 ], [ -122.84436, 47.0268 ], [ -122.84422, 47.02633 ], [ -122.8442, 47.02583 ], [ -122.84947, 47.02578 ], [ -122.84955, 47.02944 ] ] ] } }
]
}
