{
"type": "FeatureCollection",
"name": "spokane-neighborhood-overlay",
"crs": { "type": "name", "properties": { "name": "urn:ogc:def:crs:OGC:1.3:CRS84" } },
"xy_coordinate_resolution": 1e-05,
"features": [
{ "type": "Feature", "properties": { "name": "Audubon/Downriver" }, "geometry": { "type": "Polygon", "coordinates": [ [ [ -117.43643, 47.70023 ], [ -117.4364, 47.68912 ], [ -117.43615, 47.68864 ], [ -117.43524, 47.688 ], [ -117.43497, 47.68768 ], [ -117.43486, 47.68723 ], [ -117.43504, 47.68676 ], [ -117.43644, 47.68533 ], [ -117.44792, 47.68528 ], [ -117.44789, 47.68466 ], [ -117.44762, 47.68361 ], [ -117.44768, 47.68325 ], [ -117.44788, 47.68296 ], [ -117.44837, 47.68263 ], [ -117.45151, 47.68154 ], [ -117.45201, 47.68099 ], [ -117.45249, 47.68016 ], [ -117.45313, 47.68037 ], [ -117.45529, 47.6806 ], [ -117.45688, 47.68099 ], [ -117.45712, 47.68123 ], [ -117.45797, 47.68136 ], [ -117.45924, 47.68126 ], [ -117.46108, 47.68094 ], [ -117.4618, 47.68072 ], [ -117.46448, 47.68067 ], [ -117.46604, 47.68075 ], [ -117.46848, 47.68055 ], [ -117.47132, 47.68043 ], [ -117.47357, 47.68083 ], [ -117.47459, 47.68144 ], [ -117.47515, 47.68215 ], [ -117.47516, 47.68261 ], [ -117.47584, 47.68316 ], [ -117.47624, 47.68387 ], [ -117.47631, 47.68417 ], [ -117.47652, 47.68436 ], [ -117.47655, 47.68468 ], [ -117.47671, 47.68488 ], [ -117.47678, 47.68518 ], [ -117.47699, 47.68537 ], [ -117.47702, 47.68569 ], [ -117.47718, 47.6859 ], [ -117.47726, 47.68619 ], [ -117.47687, 47.68619 ], [ -117.47677, 47.68685 ], [ -117.47638, 47.68709 ], [ -117.47514, 47.68714 ], [ -117.47514, 47.68721 ], [ -117.47481, 47.68729 ], [ -117.47215, 47.68758 ], [ -117.46944, 47.68805 ], [ -117.46843, 47.68841 ], [ -117.46801, 47.68865 ], [ -117.46736, 47.6892 ], [ -117.46701, 47.68975 ], [ -117.46684, 47.68984 ], [ -117.46692, 47.69005 ], [ -117.46685, 47.69069 ], [ -117.46696, 47.69092 ], [ -117.46719, 47.69113 ], [ -117.46924, 47.69277 ], [ -117.4696, 47.69293 ], [ -117.47131, 47.69334 ], [ -117.47274, 47.69416 ], [ -117.47473, 47.69505 ], [ -117.47573, 47.69536 ], [ -117.47657, 47.69587 ], [ -117.47851, 47.69678 ], [ -117.48033, 47.69706 ], [ -117.48034, 47.69676 ], [ -117.48251, 47.69668 ], [ -117.48457, 47.69619 ], [ -117.48884, 47.69492 ], [ -117.49243, 47.69346 ], [ -117.49451, 47.69336 ], [ -117.49688, 47.69431 ], [ -117.49745, 47.69579 ], [ -117.49756, 47.69718 ], [ -117.49678, 47.69827 ], [ -117.49468, 47.69904 ], [ -117.49236, 47.70058 ], [ -117.49225, 47.701 ], [ -117.47835, 47.70083 ], [ -117.43643, 47.70072 ], [ -117.43643, 47.70023 ] ] ] } },
{ "type": "Feature", "properties": { "name": "Balboa/South Indian Trail" }, "geometry": { "type": "Polygon", "coordinates": [ [ [ -117.46763, 47.73001 ], [ -117.4673, 47.72998 ], [ -117.46732, 47.72864 ], [ -117.46417, 47.72667 ], [ -117.46417, 47.72629 ], [ -117.46468, 47.7263 ], [ -117.46286, 47.72568 ], [ -117.46193, 47.72512 ], [ -117.46076, 47.72496 ], [ -117.45396, 47.72264 ], [ -117.44316, 47.72255 ], [ -117.43781, 47.72259 ], [ -117.43773, 47.719 ], [ -117.43646, 47.719 ], [ -117.43586, 47.71978 ], [ -117.43563, 47.72058 ], [ -117.43538, 47.72096 ], [ -117.43479, 47.72066 ], [ -117.4344, 47.72096 ], [ -117.4344, 47.72077 ], [ -117.4343, 47.72063 ], [ -117.43352, 47.72018 ], [ -117.43268, 47.72077 ], [ -117.43225, 47.72116 ], [ -117.43218, 47.71552 ], [ -117.43225, 47.71545 ], [ -117.43261, 47.71544 ], [ -117.47489, 47.71541 ], [ -117.47714, 47.71526 ], [ -117.47775, 47.71558 ], [ -117.47898, 47.71673 ], [ -117.48056, 47.71753 ], [ -117.48156, 47.71779 ], [ -117.48284, 47.71794 ], [ -117.48419, 47.71823 ], [ -117.48528, 47.7186 ], [ -117.48686, 47.71966 ], [ -117.49583, 47.72616 ], [ -117.50104, 47.73002 ], [ -117.46998, 47.72999 ], [ -117.46794, 47.72991 ], [ -117.46785, 47.73006 ], [ -117.46763, 47.73001 ] ] ] } },
{ "type": "Feature", "properties": { "name": "Bemiss" }, "geometry": { "type": "Polygon", "coordinates": [ [ [ -117.36655, 47.69428 ], [ -117.36656, 47.69344 ], [ -117.36506, 47.69344 ], [ -117.3652, 47.68517 ], [ -117.36513, 47.68431 ], [ -117.36524, 47.6841 ], [ -117.36529, 47.68366 ], [ -117.36552, 47.68312 ], [ -117.36559, 47.68311 ], [ -117.36582, 47.6827 ], [ -117.36613, 47.68247 ], [ -117.36644, 47.68236 ], [ -117.37206, 47.68149 ], [ -117.37137, 47.67933 ], [ -117.37228, 47.67907 ], [ -117.37535, 47.67853 ], [ -117.37802, 47.67743 ], [ -117.37881, 47.67723 ], [ -117.37901, 47.67785 ], [ -117.37898, 47.6805 ], [ -117.38193, 47.68009 ], [ -117.38187, 47.68619 ], [ -117.38475, 47.68618 ], [ -117.38523, 47.68627 ], [ -117.38922, 47.68622 ], [ -117.38971, 47.68675 ], [ -117.38966, 47.70064 ], [ -117.36627, 47.70051 ], [ -117.36651, 47.69973 ], [ -117.36655, 47.69428 ] ] ] } },
{ "type": "Feature", "properties": { "name": "Browne's Addition" }, "geometry": { "type": "Polygon", "coordinates": [ [ [ -117.44443, 47.65828 ], [ -117.44443, 47.65817 ], [ -117.44402, 47.65817 ], [ -117.44403, 47.65803 ], [ -117.44321, 47.65795 ], [ -117.44321, 47.65784 ], [ -117.43784, 47.65781 ], [ -117.43784, 47.65775 ], [ -117.43764, 47.65775 ], [ -117.43764, 47.65747 ], [ -117.43744, 47.65747 ], [ -117.43745, 47.65717 ], [ -117.4344, 47.65715 ], [ -117.43404, 47.65526 ], [ -117.43478, 47.65498 ], [ -117.44442, 47.65034 ], [ -117.44429, 47.65054 ], [ -117.44283, 47.65136 ], [ -117.44263, 47.6516 ], [ -117.44297, 47.65155 ], [ -117.44494, 47.65053 ], [ -117.44535, 47.65001 ], [ -117.44658, 47.65002 ], [ -117.44623, 47.65019 ], [ -117.4462, 47.65118 ], [ -117.44663, 47.65104 ], [ -117.44662, 47.65135 ], [ -117.44673, 47.65131 ], [ -117.4469, 47.6518 ], [ -117.44697, 47.65177 ], [ -117.44711, 47.65195 ], [ -117.44801, 47.65243 ], [ -117.44962, 47.65395 ], [ -117.45129, 47.65464 ], [ -117.45314, 47.65508 ], [ -117.45385, 47.65488 ], [ -117.45279, 47.6557 ], [ -117.45148, 47.65627 ], [ -117.44915, 47.65683 ], [ -117.44699, 47.65748 ], [ -117.44647, 47.65752 ], [ -117.44647, 47.65785 ], [ -117.44626, 47.65784 ], [ -117.44626, 47.65801 ], [ -117.44585, 47.65801 ], [ -117.44585, 47.65829 ], [ -117.44443, 47.65828 ] ] ] } },
{ "type": "Feature", "properties": { "name": "Chief Garry Park" }, "geometry": { "type": "Polygon", "coordinates": [ [ [ -117.30397, 47.69305 ], [ -117.30401, 47.68874 ], [ -117.30941, 47.68875 ], [ -117.30943, 47.68599 ], [ -117.31211, 47.68594 ], [ -117.31212, 47.68215 ], [ -117.31995, 47.68019 ], [ -117.31995, 47.68008 ], [ -117.32513, 47.67876 ], [ -117.32517, 47.67504 ], [ -117.32539, 47.67503 ], [ -117.32544, 47.67143 ], [ -117.34682, 47.66706 ], [ -117.34681, 47.67092 ], [ -117.35274, 47.67092 ], [ -117.35848, 47.66914 ], [ -117.3637, 47.66603 ], [ -117.36712, 47.6643 ], [ -117.3685, 47.66375 ], [ -117.37767, 47.66195 ], [ -117.39355, 47.66188 ], [ -117.39322, 47.66214 ], [ -117.39244, 47.66343 ], [ -117.39157, 47.6655 ], [ -117.39055, 47.66714 ], [ -117.38897, 47.66938 ], [ -117.387, 47.67298 ], [ -117.38583, 47.67411 ], [ -117.38471, 47.67503 ], [ -117.38238, 47.67629 ], [ -117.37802, 47.67743 ], [ -117.37535, 47.67853 ], [ -117.37228, 47.67907 ], [ -117.37047, 47.67954 ], [ -117.36942, 47.67957 ], [ -117.36869, 47.67953 ], [ -117.36661, 47.67921 ], [ -117.36531, 47.67889 ], [ -117.36292, 47.67803 ], [ -117.35929, 47.67704 ], [ -117.358, 47.67679 ], [ -117.3563, 47.6766 ], [ -117.35517, 47.67635 ], [ -117.35424, 47.67629 ], [ -117.35314, 47.67636 ], [ -117.34982, 47.67612 ], [ -117.34763, 47.67622 ], [ -117.34673, 47.67637 ], [ -117.34331, 47.67609 ], [ -117.34128, 47.67638 ], [ -117.34044, 47.67669 ], [ -117.33445, 47.68043 ], [ -117.33288, 47.68151 ], [ -117.33319, 47.6817 ], [ -117.33298, 47.68191 ], [ -117.33441, 47.6825 ], [ -117.3346, 47.68266 ], [ -117.33413, 47.68364 ], [ -117.33257, 47.68544 ], [ -117.33254, 47.6857 ], [ -117.33212, 47.68583 ], [ -117.33119, 47.68637 ], [ -117.33053, 47.6866 ], [ -117.32696, 47.68704 ], [ -117.32702, 47.68977 ], [ -117.32, 47.68968 ], [ -117.32001, 47.69149 ], [ -117.3184, 47.69147 ], [ -117.31818, 47.6918 ], [ -117.31771, 47.69215 ], [ -117.31512, 47.69323 ], [ -117.30791, 47.69312 ], [ -117.30778, 47.69296 ], [ -117.30737, 47.69311 ], [ -117.30516, 47.69308 ], [ -117.30515, 47.69408 ], [ -117.30396, 47.69384 ], [ -117.30397, 47.69305 ] ] ] } },
{ "type": "Feature", "properties": { "name": "Cliff-Cannon" }, "geometry": { "type": "Polygon", "coordinates": [ [ [ -117.41054, 47.64812 ], [ -117.40815, 47.64812 ], [ -117.40815, 47.64634 ], [ -117.4077, 47.64597 ], [ -117.40699, 47.64572 ], [ -117.41031, 47.64538 ], [ -117.41065, 47.64518 ], [ -117.41083, 47.64481 ], [ -117.40837, 47.64269 ], [ -117.40768, 47.64038 ], [ -117.41003, 47.64037 ], [ -117.41003, 47.64065 ], [ -117.41071, 47.64065 ], [ -117.41071, 47.64021 ], [ -117.41136, 47.64022 ], [ -117.41136, 47.64043 ], [ -117.424, 47.64037 ], [ -117.42412, 47.64037 ], [ -117.42412, 47.63981 ], [ -117.4248, 47.63981 ], [ -117.42479, 47.64009 ], [ -117.4302, 47.6401 ], [ -117.4302, 47.63997 ], [ -117.43096, 47.63996 ], [ -117.43097, 47.63988 ], [ -117.43152, 47.63988 ], [ -117.43152, 47.64008 ], [ -117.43172, 47.64008 ], [ -117.43172, 47.63988 ], [ -117.43233, 47.63988 ], [ -117.43233, 47.63657 ], [ -117.43207, 47.63582 ], [ -117.43341, 47.63583 ], [ -117.43412, 47.63712 ], [ -117.43473, 47.63779 ], [ -117.43661, 47.63897 ], [ -117.43663, 47.64059 ], [ -117.43837, 47.64061 ], [ -117.44332, 47.6472 ], [ -117.44356, 47.64793 ], [ -117.44364, 47.64867 ], [ -117.44352, 47.64951 ], [ -117.44332, 47.64985 ], [ -117.43711, 47.65124 ], [ -117.42949, 47.65256 ], [ -117.42832, 47.65264 ], [ -117.41342, 47.65271 ], [ -117.41125, 47.65261 ], [ -117.4112, 47.64943 ], [ -117.41108, 47.64904 ], [ -117.41062, 47.64852 ], [ -117.41054, 47.64812 ] ] ] } },
{ "type": "Feature", "properties": { "name": "Comstock" }, "geometry": { "type": "Polygon", "coordinates": [ [ [ -117.39, 47.61801 ], [ -117.38993, 47.61375 ], [ -117.38968, 47.61323 ], [ -117.38972, 47.60964 ], [ -117.38957, 47.60923 ], [ -117.3892, 47.60879 ], [ -117.38906, 47.60842 ], [ -117.38909, 47.60586 ], [ -117.39509, 47.60595 ], [ -117.39512, 47.60348 ], [ -117.39459, 47.60281 ], [ -117.39405, 47.60259 ], [ -117.39311, 47.60247 ], [ -117.39321, 47.60237 ], [ -117.40106, 47.60247 ], [ -117.40078, 47.61364 ], [ -117.41147, 47.61378 ], [ -117.4114, 47.61778 ], [ -117.41226, 47.61783 ], [ -117.41415, 47.61812 ], [ -117.41617, 47.61852 ], [ -117.41775, 47.61842 ], [ -117.41924, 47.61856 ], [ -117.42084, 47.61889 ], [ -117.42203, 47.61888 ], [ -117.42249, 47.61904 ], [ -117.42372, 47.61972 ], [ -117.42495, 47.62024 ], [ -117.4253, 47.62049 ], [ -117.42603, 47.62126 ], [ -117.42699, 47.62191 ], [ -117.42743, 47.62239 ], [ -117.42837, 47.62317 ], [ -117.42871, 47.62362 ], [ -117.42908, 47.62503 ], [ -117.42907, 47.62594 ], [ -117.42922, 47.62704 ], [ -117.42905, 47.62773 ], [ -117.42905, 47.62802 ], [ -117.42737, 47.62821 ], [ -117.39928, 47.62814 ], [ -117.39008, 47.62818 ], [ -117.39, 47.61801 ] ] ] } },
{ "type": "Feature", "properties": { "name": "East Central" }, "geometry": { "type": "Polygon", "coordinates": [ [ [ -117.34692, 47.66099 ], [ -117.34699, 47.64361 ], [ -117.35692, 47.64367 ], [ -117.3577, 47.64402 ], [ -117.3577, 47.64548 ], [ -117.35857, 47.64553 ], [ -117.35951, 47.64583 ], [ -117.3605, 47.64597 ], [ -117.36303, 47.6456 ], [ -117.36644, 47.64561 ], [ -117.36831, 47.64573 ], [ -117.37083, 47.64632 ], [ -117.37372, 47.64729 ], [ -117.37917, 47.64851 ], [ -117.37923, 47.64753 ], [ -117.37904, 47.6474 ], [ -117.37926, 47.64732 ], [ -117.37928, 47.6468 ], [ -117.37918, 47.64624 ], [ -117.37924, 47.64465 ], [ -117.3792, 47.64277 ], [ -117.396, 47.64267 ], [ -117.39732, 47.64383 ], [ -117.39853, 47.64439 ], [ -117.39851, 47.64424 ], [ -117.39944, 47.64388 ], [ -117.39976, 47.64418 ], [ -117.40008, 47.64429 ], [ -117.40092, 47.64421 ], [ -117.40498, 47.64423 ], [ -117.40513, 47.64416 ], [ -117.40645, 47.64501 ], [ -117.40689, 47.64565 ], [ -117.4077, 47.64597 ], [ -117.40813, 47.64631 ], [ -117.40815, 47.64812 ], [ -117.41054, 47.64812 ], [ -117.41062, 47.64852 ], [ -117.41108, 47.64904 ], [ -117.4112, 47.64943 ], [ -117.41126, 47.65709 ], [ -117.41116, 47.65726 ], [ -117.4111, 47.6577 ], [ -117.41106, 47.66018 ], [ -117.4051, 47.66026 ], [ -117.40402, 47.66064 ], [ -117.40296, 47.66149 ], [ -117.40263, 47.66165 ], [ -117.40221, 47.66174 ], [ -117.39976, 47.66187 ], [ -117.39653, 47.66182 ], [ -117.37739, 47.66199 ], [ -117.36831, 47.66379 ], [ -117.36712, 47.6643 ], [ -117.3637, 47.66603 ], [ -117.35848, 47.66914 ], [ -117.3528, 47.67091 ], [ -117.34681, 47.67092 ], [ -117.34692, 47.66099 ] ] ] } },
{ "type": "Feature", "properties": { "name": "Emerson/Garfield" }, "geometry": { "type": "Polygon", "coordinates": [ [ [ -117.42798, 47.68915 ], [ -117.42718, 47.68912 ], [ -117.42708, 47.6887 ], [ -117.42159, 47.68871 ], [ -117.41887, 47.68839 ], [ -117.41452, 47.68722 ], [ -117.41377, 47.68696 ], [ -117.41224, 47.68623 ], [ -117.41117, 47.68623 ], [ -117.41116, 47.66807 ], [ -117.42666, 47.66806 ], [ -117.42668, 47.67494 ], [ -117.44751, 47.67492 ], [ -117.44777, 47.67591 ], [ -117.44789, 47.67704 ], [ -117.44864, 47.67808 ], [ -117.45096, 47.67965 ], [ -117.45249, 47.68016 ], [ -117.45201, 47.68099 ], [ -117.45151, 47.68154 ], [ -117.44837, 47.68263 ], [ -117.44788, 47.68296 ], [ -117.44768, 47.68325 ], [ -117.44762, 47.68361 ], [ -117.44789, 47.68466 ], [ -117.44792, 47.68528 ], [ -117.43644, 47.68533 ], [ -117.4351, 47.68668 ], [ -117.43493, 47.68695 ], [ -117.43486, 47.68723 ], [ -117.43491, 47.68756 ], [ -117.43513, 47.6879 ], [ -117.43623, 47.68874 ], [ -117.43639, 47.68905 ], [ -117.43641, 47.68938 ], [ -117.43027, 47.68937 ], [ -117.42798, 47.68915 ] ] ] } },
{ "type": "Feature", "properties": { "name": "Five Mile Prairie" }, "geometry": { "type": "Polygon", "coordinates": [ [ [ -117.43035, 47.74395 ], [ -117.42982, 47.74299 ], [ -117.43212, 47.74301 ], [ -117.43215, 47.74216 ], [ -117.42901, 47.74212 ], [ -117.42808, 47.7416 ], [ -117.42721, 47.74051 ], [ -117.42725, 47.73827 ], [ -117.42848, 47.73828 ], [ -117.42848, 47.73771 ], [ -117.42913, 47.73689 ], [ -117.42954, 47.7369 ], [ -117.4307, 47.73552 ], [ -117.43085, 47.73487 ], [ -117.43068, 47.73276 ], [ -117.43073, 47.73234 ], [ -117.43221, 47.72945 ], [ -117.43235, 47.72896 ], [ -117.43231, 47.72651 ], [ -117.43153, 47.72477 ], [ -117.43153, 47.72442 ], [ -117.4317, 47.72396 ], [ -117.43238, 47.72327 ], [ -117.43398, 47.72191 ], [ -117.43419, 47.72161 ], [ -117.4344, 47.72096 ], [ -117.43479, 47.72066 ], [ -117.43538, 47.72096 ], [ -117.43563, 47.72058 ], [ -117.43586, 47.71978 ], [ -117.43646, 47.719 ], [ -117.43773, 47.719 ], [ -117.43781, 47.72259 ], [ -117.44316, 47.72255 ], [ -117.45396, 47.72264 ], [ -117.46076, 47.72496 ], [ -117.46193, 47.72512 ], [ -117.46286, 47.72568 ], [ -117.46468, 47.7263 ], [ -117.46417, 47.72629 ], [ -117.46417, 47.72667 ], [ -117.46732, 47.72864 ], [ -117.4673, 47.72998 ], [ -117.45403, 47.72992 ], [ -117.45387, 47.73717 ], [ -117.44617, 47.7371 ], [ -117.44611, 47.74064 ], [ -117.43898, 47.74055 ], [ -117.43891, 47.74411 ], [ -117.43243, 47.74398 ], [ -117.43209, 47.74398 ], [ -117.43209, 47.74407 ], [ -117.43041, 47.74406 ], [ -117.43035, 47.74395 ] ] ] } },
{ "type": "Feature", "properties": { "name": "Grandview/Thorpe" }, "geometry": { "type": "Polygon", "coordinates": [ [ [ -117.44886, 47.64183 ], [ -117.44841, 47.6407 ], [ -117.45191, 47.64082 ], [ -117.44398, 47.61376 ], [ -117.46454, 47.61382 ], [ -117.46453, 47.61739 ], [ -117.46463, 47.61756 ], [ -117.46476, 47.6284 ], [ -117.46455, 47.6284 ], [ -117.46454, 47.62859 ], [ -117.46464, 47.63199 ], [ -117.46476, 47.63207 ], [ -117.47324, 47.63201 ], [ -117.47325, 47.63492 ], [ -117.47304, 47.63499 ], [ -117.47302, 47.63528 ], [ -117.47211, 47.63562 ], [ -117.47176, 47.63597 ], [ -117.47165, 47.63629 ], [ -117.47169, 47.63661 ], [ -117.47202, 47.63711 ], [ -117.47323, 47.63658 ], [ -117.47424, 47.63658 ], [ -117.47424, 47.63644 ], [ -117.47692, 47.63507 ], [ -117.47711, 47.63526 ], [ -117.47427, 47.6366 ], [ -117.4514, 47.6466 ], [ -117.45073, 47.646 ], [ -117.45026, 47.64537 ], [ -117.44886, 47.64183 ] ] ] } },
{ "type": "Feature", "properties": { "name": "Hillyard" }, "geometry": { "type": "Polygon", "coordinates": [ [ [ -117.37405, 47.71846 ], [ -117.37344, 47.71841 ], [ -117.37341, 47.71666 ], [ -117.37173, 47.71665 ], [ -117.37173, 47.71501 ], [ -117.36379, 47.71496 ], [ -117.36379, 47.71516 ], [ -117.36219, 47.71507 ], [ -117.36219, 47.71518 ], [ -117.35789, 47.71512 ], [ -117.35754, 47.71506 ], [ -117.35272, 47.71506 ], [ -117.35272, 47.71498 ], [ -117.3521, 47.71498 ], [ -117.3521, 47.71506 ], [ -117.34824, 47.71506 ], [ -117.34682, 47.71513 ], [ -117.34679, 47.71212 ], [ -117.34259, 47.71208 ], [ -117.34258, 47.71027 ], [ -117.34677, 47.71031 ], [ -117.34661, 47.70044 ], [ -117.34533, 47.70044 ], [ -117.34537, 47.7023 ], [ -117.34117, 47.70229 ], [ -117.34117, 47.70052 ], [ -117.33507, 47.70051 ], [ -117.33512, 47.69451 ], [ -117.33471, 47.69451 ], [ -117.33471, 47.6941 ], [ -117.33512, 47.6941 ], [ -117.33513, 47.69342 ], [ -117.33332, 47.69342 ], [ -117.33332, 47.69161 ], [ -117.33594, 47.69162 ], [ -117.33594, 47.68982 ], [ -117.3453, 47.68988 ], [ -117.3651, 47.68983 ], [ -117.36506, 47.69344 ], [ -117.36656, 47.69344 ], [ -117.36651, 47.69973 ], [ -117.36627, 47.70051 ], [ -117.37889, 47.70058 ], [ -117.37868, 47.71477 ], [ -117.37882, 47.71849 ], [ -117.37405, 47.71846 ] ] ] } },
{ "type": "Feature", "properties": { "name": "Latah/Hangman" }, "geometry": { "type": "Polygon", "coordinates": [ [ [ -117.45951, 47.65451 ], [ -117.45703, 47.65448 ], [ -117.45531, 47.65426 ], [ -117.45476, 47.65426 ], [ -117.45448, 47.65433 ], [ -117.45385, 47.65488 ], [ -117.45314, 47.65508 ], [ -117.45129, 47.65464 ], [ -117.44962, 47.65395 ], [ -117.44801, 47.65243 ], [ -117.44711, 47.65195 ], [ -117.44697, 47.65177 ], [ -117.4469, 47.6518 ], [ -117.44673, 47.65131 ], [ -117.44662, 47.65135 ], [ -117.44663, 47.65104 ], [ -117.4462, 47.65118 ], [ -117.44623, 47.65019 ], [ -117.44658, 47.65002 ], [ -117.44535, 47.65001 ], [ -117.44494, 47.65053 ], [ -117.44297, 47.65155 ], [ -117.44263, 47.6516 ], [ -117.44283, 47.65136 ], [ -117.44381, 47.65084 ], [ -117.44443, 47.6504 ], [ -117.44442, 47.65034 ], [ -117.4437, 47.65068 ], [ -117.44411, 47.64995 ], [ -117.44368, 47.65009 ], [ -117.4439, 47.64972 ], [ -117.44332, 47.64985 ], [ -117.44354, 47.64942 ], [ -117.44364, 47.64858 ], [ -117.44356, 47.64793 ], [ -117.44332, 47.6472 ], [ -117.43837, 47.64061 ], [ -117.43663, 47.64059 ], [ -117.43661, 47.63897 ], [ -117.43473, 47.63779 ], [ -117.43412, 47.63712 ], [ -117.43341, 47.63583 ], [ -117.43207, 47.63582 ], [ -117.43074, 47.63347 ], [ -117.42995, 47.63099 ], [ -117.42963, 47.62897 ], [ -117.42906, 47.62807 ], [ -117.42905, 47.62773 ], [ -117.42922, 47.62704 ], [ -117.42907, 47.62594 ], [ -117.42908, 47.62503 ], [ -117.42876, 47.62373 ], [ -117.42832, 47.62313 ], [ -117.42743, 47.62239 ], [ -117.42692, 47.62185 ], [ -117.42603, 47.62126 ], [ -117.42516, 47.62037 ], [ -117.42372, 47.61972 ], [ -117.42245, 47.61902 ], [ -117.42203, 47.61888 ], [ -117.42084, 47.61889 ], [ -117.41924, 47.61856 ], [ -117.41775, 47.61842 ], [ -117.41617, 47.61852 ], [ -117.41415, 47.61812 ], [ -117.41226, 47.61783 ], [ -117.4114, 47.61778 ], [ -117.41147, 47.61378 ], [ -117.40078, 47.61364 ], [ -117.40106, 47.60247 ], [ -117.39321, 47.60237 ], [ -117.39311, 47.60247 ], [ -117.39186, 47.60238 ], [ -117.38983, 47.60238 ], [ -117.38988, 47.6009 ], [ -117.38879, 47.60005 ], [ -117.38844, 47.59949 ], [ -117.38838, 47.5991 ], [ -117.38848, 47.59869 ], [ -117.38876, 47.59825 ], [ -117.38916, 47.59786 ], [ -117.38999, 47.5974 ], [ -117.3922, 47.59664 ], [ -117.39274, 47.59628 ], [ -117.39313, 47.59584 ], [ -117.39332, 47.59545 ], [ -117.39339, 47.59504 ], [ -117.39314, 47.59385 ], [ -117.39315, 47.59343 ], [ -117.39344, 47.59192 ], [ -117.3938, 47.59124 ], [ -117.39426, 47.5908 ], [ -117.39483, 47.59044 ], [ -117.39653, 47.58979 ], [ -117.39709, 47.58948 ], [ -117.3975, 47.5891 ], [ -117.39786, 47.58822 ], [ -117.39816, 47.58786 ], [ -117.39842, 47.58763 ], [ -117.40011, 47.58679 ], [ -117.40078, 47.58729 ], [ -117.401, 47.58733 ], [ -117.40162, 47.58738 ], [ -117.40365, 47.58731 ], [ -117.40363, 47.58768 ], [ -117.41167, 47.58772 ], [ -117.4282, 47.58722 ], [ -117.4282, 47.5873 ], [ -117.43181, 47.5872 ], [ -117.43172, 47.59075 ], [ -117.43748, 47.59074 ], [ -117.43745, 47.59436 ], [ -117.44746, 47.59438 ], [ -117.4427, 47.59896 ], [ -117.44169, 47.59957 ], [ -117.43975, 47.6003 ], [ -117.4389, 47.60078 ], [ -117.43484, 47.60426 ], [ -117.4343, 47.60499 ], [ -117.43291, 47.60766 ], [ -117.43269, 47.60835 ], [ -117.43235, 47.61 ], [ -117.43114, 47.61249 ], [ -117.43014, 47.61373 ], [ -117.43353, 47.61381 ], [ -117.44033, 47.61382 ], [ -117.44028, 47.61374 ], [ -117.44413, 47.61376 ], [ -117.44398, 47.61376 ], [ -117.44401, 47.614 ], [ -117.45191, 47.64082 ], [ -117.44841, 47.6407 ], [ -117.45026, 47.64537 ], [ -117.45073, 47.646 ], [ -117.4514, 47.6466 ], [ -117.44805, 47.64805 ], [ -117.44853, 47.64962 ], [ -117.44874, 47.64997 ], [ -117.45334, 47.65011 ], [ -117.45333, 47.65062 ], [ -117.45421, 47.65062 ], [ -117.45417, 47.65176 ], [ -117.45583, 47.65178 ], [ -117.45585, 47.65144 ], [ -117.45716, 47.65147 ], [ -117.45769, 47.65265 ], [ -117.45787, 47.65287 ], [ -117.4591, 47.65343 ], [ -117.46125, 47.65506 ], [ -117.46144, 47.65534 ], [ -117.46109, 47.65533 ], [ -117.46042, 47.65483 ], [ -117.45992, 47.65459 ], [ -117.45951, 47.65451 ] ] ] } },
{ "type": "Feature", "properties": { "name": "Lincoln Heights" }, "geometry": { "type": "Polygon", "coordinates": [ [ [ -117.36756, 47.64567 ], [ -117.36303, 47.6456 ], [ -117.3605, 47.64597 ], [ -117.35951, 47.64583 ], [ -117.35857, 47.64553 ], [ -117.3577, 47.64548 ], [ -117.3577, 47.64402 ], [ -117.35692, 47.64367 ], [ -117.34699, 47.64361 ], [ -117.34703, 47.62279 ], [ -117.346, 47.62282 ], [ -117.346, 47.62266 ], [ -117.34527, 47.62268 ], [ -117.34196, 47.62372 ], [ -117.34034, 47.62446 ], [ -117.33764, 47.62444 ], [ -117.33764, 47.62208 ], [ -117.33889, 47.62179 ], [ -117.34059, 47.62085 ], [ -117.3698, 47.62094 ], [ -117.39003, 47.6209 ], [ -117.39008, 47.62818 ], [ -117.37531, 47.62821 ], [ -117.37533, 47.63106 ], [ -117.37551, 47.63146 ], [ -117.3768, 47.63317 ], [ -117.37758, 47.63592 ], [ -117.37774, 47.63627 ], [ -117.37826, 47.63678 ], [ -117.37937, 47.63747 ], [ -117.38086, 47.63807 ], [ -117.38135, 47.63818 ], [ -117.3839, 47.63837 ], [ -117.38611, 47.63838 ], [ -117.38819, 47.63877 ], [ -117.39049, 47.63879 ], [ -117.39142, 47.63892 ], [ -117.39202, 47.63917 ], [ -117.39243, 47.63945 ], [ -117.396, 47.64267 ], [ -117.3792, 47.64277 ], [ -117.37924, 47.64465 ], [ -117.37918, 47.64624 ], [ -117.37928, 47.6468 ], [ -117.37926, 47.64732 ], [ -117.37904, 47.6474 ], [ -117.37923, 47.64753 ], [ -117.37917, 47.64851 ], [ -117.37372, 47.64729 ], [ -117.37083, 47.64632 ], [ -117.36831, 47.64573 ], [ -117.36756, 47.64567 ] ] ] } },
{ "type": "Feature", "properties": { "name": "Logan" }, "geometry": { "type": "Polygon", "coordinates": [ [ [ -117.38187, 47.68613 ], [ -117.38193, 47.68009 ], [ -117.37898, 47.6805 ], [ -117.37901, 47.67785 ], [ -117.37881, 47.67723 ], [ -117.38238, 47.67629 ], [ -117.38471, 47.67503 ], [ -117.38583, 47.67411 ], [ -117.387, 47.67298 ], [ -117.38897, 47.66938 ], [ -117.39055, 47.66714 ], [ -117.39157, 47.6655 ], [ -117.39244, 47.66343 ], [ -117.39322, 47.66214 ], [ -117.39355, 47.66188 ], [ -117.39653, 47.66182 ], [ -117.39976, 47.66187 ], [ -117.40233, 47.66172 ], [ -117.40296, 47.66149 ], [ -117.40418, 47.66055 ], [ -117.40527, 47.66023 ], [ -117.41106, 47.66018 ], [ -117.41115, 47.66129 ], [ -117.41117, 47.66432 ], [ -117.41117, 47.68623 ], [ -117.38523, 47.68627 ], [ -117.38475, 47.68618 ], [ -117.38187, 47.68619 ], [ -117.38187, 47.68613 ] ] ] } },
{ "type": "Feature", "properties": { "name": "Manito/Cannon Hill" }, "geometry": { "type": "Polygon", "coordinates": [ [ [ -117.41003, 47.64065 ], [ -117.41003, 47.64037 ], [ -117.40768, 47.64038 ], [ -117.40653, 47.63666 ], [ -117.40566, 47.63491 ], [ -117.40189, 47.62873 ], [ -117.40177, 47.62815 ], [ -117.42737, 47.62821 ], [ -117.42905, 47.62802 ], [ -117.42954, 47.62877 ], [ -117.42975, 47.62947 ], [ -117.42997, 47.63106 ], [ -117.43071, 47.63341 ], [ -117.43178, 47.63522 ], [ -117.43231, 47.6364 ], [ -117.43233, 47.63988 ], [ -117.43172, 47.63988 ], [ -117.43172, 47.64008 ], [ -117.43152, 47.64008 ], [ -117.43152, 47.63988 ], [ -117.43097, 47.63988 ], [ -117.43096, 47.63996 ], [ -117.4302, 47.63997 ], [ -117.4302, 47.6401 ], [ -117.42479, 47.64009 ], [ -117.4248, 47.63981 ], [ -117.42412, 47.63981 ], [ -117.42412, 47.64037 ], [ -117.42401, 47.64037 ], [ -117.41136, 47.64043 ], [ -117.41136, 47.64022 ], [ -117.41071, 47.64021 ], [ -117.41071, 47.64065 ], [ -117.41003, 47.64065 ] ] ] } },
{ "type": "Feature", "properties": { "name": "Minnehaha" }, "geometry": { "type": "Polygon", "coordinates": [ [ [ -117.34671, 47.67891 ], [ -117.34673, 47.67637 ], [ -117.34763, 47.67622 ], [ -117.34982, 47.67612 ], [ -117.35314, 47.67636 ], [ -117.35424, 47.67629 ], [ -117.35517, 47.67635 ], [ -117.3563, 47.6766 ], [ -117.358, 47.67679 ], [ -117.35929, 47.67704 ], [ -117.36292, 47.67803 ], [ -117.36531, 47.67889 ], [ -117.36661, 47.67921 ], [ -117.36869, 47.67953 ], [ -117.36942, 47.67957 ], [ -117.37047, 47.67954 ], [ -117.37137, 47.67933 ], [ -117.37206, 47.68149 ], [ -117.3667, 47.6823 ], [ -117.36613, 47.68247 ], [ -117.36582, 47.6827 ], [ -117.36559, 47.68311 ], [ -117.36552, 47.68312 ], [ -117.36513, 47.68431 ], [ -117.3652, 47.68517 ], [ -117.3651, 47.68983 ], [ -117.3453, 47.68988 ], [ -117.34531, 47.68626 ], [ -117.34665, 47.68627 ], [ -117.34671, 47.67891 ] ] ] } },
{ "type": "Feature", "properties": { "name": "Nevada Heights" }, "geometry": { "type": "Polygon", "coordinates": [ [ [ -117.41117, 47.68623 ], [ -117.41124, 47.70716 ], [ -117.41118, 47.71509 ], [ -117.40258, 47.71511 ], [ -117.39004, 47.71501 ], [ -117.39004, 47.70807 ], [ -117.38966, 47.70064 ], [ -117.38975, 47.68695 ], [ -117.38964, 47.68662 ], [ -117.38922, 47.68622 ], [ -117.41117, 47.68623 ] ] ] } },
{ "type": "Feature", "properties": { "name": "North Hill" }, "geometry": { "type": "Polygon", "coordinates": [ [ [ -117.41118, 47.71487 ], [ -117.41124, 47.70716 ], [ -117.41117, 47.68623 ], [ -117.41224, 47.68623 ], [ -117.41377, 47.68696 ], [ -117.41452, 47.68722 ], [ -117.41903, 47.68841 ], [ -117.42159, 47.68871 ], [ -117.42708, 47.6887 ], [ -117.42712, 47.68904 ], [ -117.42723, 47.68913 ], [ -117.43015, 47.68936 ], [ -117.43641, 47.68938 ], [ -117.4364, 47.71546 ], [ -117.43261, 47.71544 ], [ -117.43225, 47.71545 ], [ -117.43218, 47.71552 ], [ -117.42126, 47.71517 ], [ -117.41147, 47.71522 ], [ -117.41118, 47.71509 ], [ -117.41118, 47.71487 ] ] ] } },
{ "type": "Feature", "properties": { "name": "North Indian Trail" }, "geometry": { "type": "Polygon", "coordinates": [ [ [ -117.47509, 47.75147 ], [ -117.47513, 47.74942 ], [ -117.47245, 47.74942 ], [ -117.47255, 47.74444 ], [ -117.47244, 47.74444 ], [ -117.47249, 47.74224 ], [ -117.47516, 47.74226 ], [ -117.47526, 47.73804 ], [ -117.47501, 47.73758 ], [ -117.47451, 47.7373 ], [ -117.47259, 47.73727 ], [ -117.47266, 47.73175 ], [ -117.46998, 47.73174 ], [ -117.46998, 47.72999 ], [ -117.49686, 47.73 ], [ -117.49682, 47.73164 ], [ -117.49931, 47.73361 ], [ -117.50217, 47.7336 ], [ -117.5021, 47.73589 ], [ -117.5029, 47.73686 ], [ -117.50341, 47.73788 ], [ -117.50358, 47.73849 ], [ -117.50383, 47.74095 ], [ -117.5073, 47.74094 ], [ -117.5073, 47.74455 ], [ -117.5074, 47.74679 ], [ -117.50778, 47.74791 ], [ -117.5082, 47.74867 ], [ -117.50881, 47.74937 ], [ -117.51215, 47.75206 ], [ -117.51195, 47.75207 ], [ -117.51222, 47.75231 ], [ -117.51232, 47.75228 ], [ -117.51397, 47.75351 ], [ -117.51808, 47.75677 ], [ -117.51813, 47.75696 ], [ -117.51905, 47.75771 ], [ -117.51993, 47.75828 ], [ -117.52084, 47.75872 ], [ -117.49647, 47.75877 ], [ -117.47501, 47.75867 ], [ -117.47509, 47.75147 ] ] ] } },
{ "type": "Feature", "properties": { "name": "Northwest" }, "geometry": { "type": "Polygon", "coordinates": [ [ [ -117.48988, 47.72189 ], [ -117.48686, 47.71966 ], [ -117.48528, 47.7186 ], [ -117.48419, 47.71823 ], [ -117.48284, 47.71794 ], [ -117.48156, 47.71779 ], [ -117.48056, 47.71753 ], [ -117.47898, 47.71673 ], [ -117.47775, 47.71558 ], [ -117.47709, 47.71525 ], [ -117.47489, 47.71541 ], [ -117.4364, 47.71546 ], [ -117.43643, 47.70072 ], [ -117.47835, 47.70083 ], [ -117.49225, 47.701 ], [ -117.49214, 47.70138 ], [ -117.49461, 47.70434 ], [ -117.49649, 47.70541 ], [ -117.49922, 47.70652 ], [ -117.49997, 47.7071 ], [ -117.50079, 47.71037 ], [ -117.5007, 47.71113 ], [ -117.50132, 47.71292 ], [ -117.50129, 47.71378 ], [ -117.50016, 47.71541 ], [ -117.49932, 47.71695 ], [ -117.49881, 47.7186 ], [ -117.49888, 47.71913 ], [ -117.49999, 47.7201 ], [ -117.50074, 47.72052 ], [ -117.50181, 47.72091 ], [ -117.50281, 47.72093 ], [ -117.50368, 47.72082 ], [ -117.50477, 47.72093 ], [ -117.50625, 47.72086 ], [ -117.50838, 47.72058 ], [ -117.50969, 47.72053 ], [ -117.51172, 47.72093 ], [ -117.51248, 47.72117 ], [ -117.5131, 47.72151 ], [ -117.51381, 47.72206 ], [ -117.51423, 47.72278 ], [ -117.51452, 47.72384 ], [ -117.51458, 47.72458 ], [ -117.51443, 47.72542 ], [ -117.51405, 47.72631 ], [ -117.51321, 47.72777 ], [ -117.51279, 47.72821 ], [ -117.51062, 47.73005 ], [ -117.50104, 47.73002 ], [ -117.49583, 47.72616 ], [ -117.48988, 47.72189 ] ] ] } },
{ "type": "Feature", "properties": { "name": "Peaceful Valley" }, "geometry": { "type": "Polygon", "coordinates": [ [ [ -117.42657, 47.66061 ], [ -117.42655, 47.65905 ], [ -117.43299, 47.65903 ], [ -117.43299, 47.65745 ], [ -117.43351, 47.65745 ], [ -117.43351, 47.65714 ], [ -117.43745, 47.65717 ], [ -117.43744, 47.65747 ], [ -117.43764, 47.65747 ], [ -117.43764, 47.65775 ], [ -117.43784, 47.65775 ], [ -117.43784, 47.65781 ], [ -117.44321, 47.65784 ], [ -117.44321, 47.65795 ], [ -117.44403, 47.65803 ], [ -117.44402, 47.65817 ], [ -117.44443, 47.65817 ], [ -117.44443, 47.65828 ], [ -117.44585, 47.65829 ], [ -117.44585, 47.65801 ], [ -117.44626, 47.65801 ], [ -117.44626, 47.65784 ], [ -117.44647, 47.65785 ], [ -117.44647, 47.65752 ], [ -117.44699, 47.65748 ], [ -117.44915, 47.65683 ], [ -117.45123, 47.65634 ], [ -117.45256, 47.65583 ], [ -117.45303, 47.65554 ], [ -117.45409, 47.65467 ], [ -117.4559, 47.65497 ], [ -117.45682, 47.65529 ], [ -117.4573, 47.65526 ], [ -117.45815, 47.65544 ], [ -117.45915, 47.65587 ], [ -117.46107, 47.65687 ], [ -117.46178, 47.6576 ], [ -117.46155, 47.65839 ], [ -117.46032, 47.65926 ], [ -117.45926, 47.65953 ], [ -117.45848, 47.65958 ], [ -117.45792, 47.65973 ], [ -117.45733, 47.65975 ], [ -117.45623, 47.65999 ], [ -117.45656, 47.6592 ], [ -117.45649, 47.6584 ], [ -117.4563, 47.65774 ], [ -117.45532, 47.65695 ], [ -117.45369, 47.6566 ], [ -117.45251, 47.65708 ], [ -117.45077, 47.65852 ], [ -117.44983, 47.65905 ], [ -117.44867, 47.65941 ], [ -117.44638, 47.6595 ], [ -117.4431, 47.65898 ], [ -117.44138, 47.65913 ], [ -117.44011, 47.65942 ], [ -117.43901, 47.6599 ], [ -117.4386, 47.66022 ], [ -117.43755, 47.6607 ], [ -117.43694, 47.66083 ], [ -117.43615, 47.66083 ], [ -117.43413, 47.66063 ], [ -117.43202, 47.66033 ], [ -117.43074, 47.66006 ], [ -117.42904, 47.65987 ], [ -117.42787, 47.66009 ], [ -117.42709, 47.66034 ], [ -117.42657, 47.66061 ] ] ] } },
{ "type": "Feature", "properties": { "name": "Riverside" }, "geometry": { "type": "Polygon", "coordinates": [ [ [ -117.41125, 47.65274 ], [ -117.41125, 47.65261 ], [ -117.41265, 47.65269 ], [ -117.41639, 47.65272 ], [ -117.42902, 47.65261 ], [ -117.43711, 47.65124 ], [ -117.44226, 47.65012 ], [ -117.44381, 47.64971 ], [ -117.4439, 47.64972 ], [ -117.44368, 47.65009 ], [ -117.44411, 47.64995 ], [ -117.4437, 47.65068 ], [ -117.43478, 47.65498 ], [ -117.43404, 47.65526 ], [ -117.4344, 47.65715 ], [ -117.43351, 47.65714 ], [ -117.43351, 47.65745 ], [ -117.43299, 47.65745 ], [ -117.43299, 47.65903 ], [ -117.42655, 47.65905 ], [ -117.42666, 47.66806 ], [ -117.41116, 47.66807 ], [ -117.41115, 47.66129 ], [ -117.41106, 47.66033 ], [ -117.4111, 47.6577 ], [ -117.41116, 47.65726 ], [ -117.41126, 47.65709 ], [ -117.41125, 47.65274 ] ] ] } },
{ "type": "Feature", "properties": { "name": "Rockwood" }, "geometry": { "type": "Polygon", "coordinates": [ [ [ -117.4054, 47.64433 ], [ -117.40513, 47.64416 ], [ -117.40498, 47.64423 ], [ -117.40092, 47.64421 ], [ -117.40008, 47.64429 ], [ -117.39976, 47.64418 ], [ -117.39944, 47.64388 ], [ -117.39851, 47.64424 ], [ -117.39853, 47.64439 ], [ -117.39732, 47.64383 ], [ -117.39243, 47.63945 ], [ -117.39202, 47.63917 ], [ -117.39147, 47.63894 ], [ -117.39049, 47.63879 ], [ -117.38819, 47.63877 ], [ -117.38611, 47.63838 ], [ -117.3839, 47.63837 ], [ -117.38135, 47.63818 ], [ -117.38086, 47.63807 ], [ -117.37937, 47.63747 ], [ -117.37826, 47.63678 ], [ -117.37774, 47.63627 ], [ -117.37758, 47.63592 ], [ -117.3768, 47.63317 ], [ -117.3754, 47.63127 ], [ -117.3753, 47.63081 ], [ -117.37531, 47.62821 ], [ -117.40177, 47.62815 ], [ -117.40189, 47.62873 ], [ -117.40566, 47.63491 ], [ -117.40653, 47.63666 ], [ -117.40837, 47.64269 ], [ -117.41083, 47.64481 ], [ -117.41065, 47.64518 ], [ -117.41031, 47.64538 ], [ -117.40699, 47.64572 ], [ -117.40645, 47.64501 ], [ -117.4054, 47.64433 ] ] ] } },
{ "type": "Feature", "properties": { "name": "Shiloh Hills" }, "geometry": { "type": "Polygon", "coordinates": [ [ [ -117.39488, 47.75114 ], [ -117.39487, 47.75101 ], [ -117.39499, 47.75097 ], [ -117.39501, 47.75082 ], [ -117.39511, 47.74753 ], [ -117.38993, 47.74751 ], [ -117.39007, 47.744 ], [ -117.39514, 47.74403 ], [ -117.39531, 47.74393 ], [ -117.39523, 47.73688 ], [ -117.37924, 47.73678 ], [ -117.37912, 47.73658 ], [ -117.37906, 47.72861 ], [ -117.37888, 47.72197 ], [ -117.3787, 47.71849 ], [ -117.37882, 47.71849 ], [ -117.37868, 47.71492 ], [ -117.40258, 47.71511 ], [ -117.41118, 47.71509 ], [ -117.41147, 47.71522 ], [ -117.41268, 47.71519 ], [ -117.41269, 47.72222 ], [ -117.42189, 47.72241 ], [ -117.4219, 47.72599 ], [ -117.41507, 47.72587 ], [ -117.41509, 47.72806 ], [ -117.41491, 47.72858 ], [ -117.41418, 47.72857 ], [ -117.41418, 47.7291 ], [ -117.41363, 47.72909 ], [ -117.41369, 47.72988 ], [ -117.41259, 47.72955 ], [ -117.4116, 47.7295 ], [ -117.41169, 47.73249 ], [ -117.41163, 47.73249 ], [ -117.41161, 47.73508 ], [ -117.41166, 47.74162 ], [ -117.41178, 47.74179 ], [ -117.41178, 47.74253 ], [ -117.41166, 47.74253 ], [ -117.41162, 47.74583 ], [ -117.4058, 47.74584 ], [ -117.4006, 47.75125 ], [ -117.39488, 47.75124 ], [ -117.39488, 47.75114 ] ] ] } },
{ "type": "Feature", "properties": { "name": "Southgate" }, "geometry": { "type": "Polygon", "coordinates": [ [ [ -117.33995, 47.62098 ], [ -117.33995, 47.62083 ], [ -117.3385, 47.62082 ], [ -117.3385, 47.61719 ], [ -117.33835, 47.61719 ], [ -117.33836, 47.61649 ], [ -117.34135, 47.6165 ], [ -117.34135, 47.61581 ], [ -117.34114, 47.61581 ], [ -117.3411, 47.61284 ], [ -117.34636, 47.61292 ], [ -117.34642, 47.60929 ], [ -117.35575, 47.60935 ], [ -117.35579, 47.60765 ], [ -117.35748, 47.60767 ], [ -117.35757, 47.60443 ], [ -117.35752, 47.60402 ], [ -117.3686, 47.60409 ], [ -117.36849, 47.60577 ], [ -117.38506, 47.60582 ], [ -117.38506, 47.60591 ], [ -117.38726, 47.60593 ], [ -117.38909, 47.60586 ], [ -117.38906, 47.60842 ], [ -117.3892, 47.60879 ], [ -117.38957, 47.60923 ], [ -117.38972, 47.60964 ], [ -117.38968, 47.61323 ], [ -117.38993, 47.61375 ], [ -117.39003, 47.6209 ], [ -117.3698, 47.62094 ], [ -117.34107, 47.62084 ], [ -117.34059, 47.62085 ], [ -117.33995, 47.62098 ] ] ] } },
{ "type": "Feature", "properties": { "name": "West Central" }, "geometry": { "type": "Polygon", "coordinates": [ [ [ -117.42667, 47.67156 ], [ -117.42657, 47.66061 ], [ -117.42709, 47.66034 ], [ -117.42787, 47.66009 ], [ -117.42904, 47.65987 ], [ -117.43074, 47.66006 ], [ -117.43202, 47.66033 ], [ -117.43413, 47.66063 ], [ -117.43615, 47.66083 ], [ -117.43694, 47.66083 ], [ -117.43755, 47.6607 ], [ -117.4386, 47.66022 ], [ -117.43901, 47.6599 ], [ -117.44011, 47.65942 ], [ -117.44138, 47.65913 ], [ -117.4431, 47.65898 ], [ -117.44638, 47.6595 ], [ -117.44867, 47.65941 ], [ -117.44983, 47.65905 ], [ -117.45077, 47.65852 ], [ -117.45251, 47.65708 ], [ -117.45369, 47.6566 ], [ -117.45532, 47.65695 ], [ -117.4563, 47.65774 ], [ -117.45649, 47.6584 ], [ -117.45656, 47.6592 ], [ -117.45623, 47.65999 ], [ -117.45531, 47.66092 ], [ -117.45489, 47.66173 ], [ -117.45468, 47.66245 ], [ -117.45531, 47.6634 ], [ -117.45647, 47.66439 ], [ -117.45884, 47.66498 ], [ -117.46068, 47.66517 ], [ -117.46205, 47.66548 ], [ -117.46299, 47.66607 ], [ -117.46338, 47.66683 ], [ -117.46338, 47.66712 ], [ -117.46191, 47.66837 ], [ -117.46145, 47.66898 ], [ -117.46119, 47.67051 ], [ -117.46092, 47.67109 ], [ -117.46085, 47.67193 ], [ -117.46038, 47.67369 ], [ -117.45986, 47.67428 ], [ -117.45907, 47.6746 ], [ -117.45761, 47.67467 ], [ -117.45647, 47.67448 ], [ -117.45532, 47.67388 ], [ -117.45394, 47.67276 ], [ -117.45338, 47.67245 ], [ -117.45221, 47.67223 ], [ -117.45021, 47.67243 ], [ -117.44862, 47.67339 ], [ -117.44751, 47.67492 ], [ -117.42668, 47.67494 ], [ -117.42667, 47.67156 ] ] ] } },
{ "type": "Feature", "properties": { "name": "West Hills" }, "geometry": { "type": "Polygon", "coordinates": [ [ [ -117.47357, 47.68083 ], [ -117.47132, 47.68043 ], [ -117.46848, 47.68055 ], [ -117.46604, 47.68075 ], [ -117.46448, 47.68067 ], [ -117.4618, 47.68072 ], [ -117.46108, 47.68094 ], [ -117.45924, 47.68126 ], [ -117.45797, 47.68136 ], [ -117.45712, 47.68123 ], [ -117.45688, 47.68099 ], [ -117.45529, 47.6806 ], [ -117.45313, 47.68037 ], [ -117.45096, 47.67965 ], [ -117.44864, 47.67808 ], [ -117.44789, 47.67704 ], [ -117.44777, 47.67591 ], [ -117.44751, 47.67492 ], [ -117.44862, 47.67339 ], [ -117.45021, 47.67243 ], [ -117.45221, 47.67223 ], [ -117.45338, 47.67245 ], [ -117.45394, 47.67276 ], [ -117.45532, 47.67388 ], [ -117.45647, 47.67448 ], [ -117.45761, 47.67467 ], [ -117.45907, 47.6746 ], [ -117.45986, 47.67428 ], [ -117.46038, 47.67369 ], [ -117.46085, 47.67193 ], [ -117.46092, 47.67109 ], [ -117.46119, 47.67051 ], [ -117.46145, 47.66898 ], [ -117.46191, 47.66837 ], [ -117.46338, 47.66712 ], [ -117.46338, 47.66683 ], [ -117.46299, 47.66607 ], [ -117.46205, 47.66548 ], [ -117.46068, 47.66517 ], [ -117.45884, 47.66498 ], [ -117.45647, 47.66439 ], [ -117.45531, 47.6634 ], [ -117.45468, 47.66245 ], [ -117.45489, 47.66173 ], [ -117.45531, 47.66092 ], [ -117.45623, 47.65999 ], [ -117.45733, 47.65975 ], [ -117.45792, 47.65973 ], [ -117.45848, 47.65958 ], [ -117.45926, 47.65953 ], [ -117.46032, 47.65926 ], [ -117.46155, 47.65839 ], [ -117.46178, 47.6576 ], [ -117.46107, 47.65687 ], [ -117.45915, 47.65587 ], [ -117.45815, 47.65544 ], [ -117.4573, 47.65526 ], [ -117.45682, 47.65529 ], [ -117.4559, 47.65497 ], [ -117.45409, 47.65467 ], [ -117.45448, 47.65433 ], [ -117.45501, 47.65424 ], [ -117.45703, 47.65448 ], [ -117.45951, 47.65451 ], [ -117.45992, 47.65459 ], [ -117.46042, 47.65483 ], [ -117.46113, 47.65534 ], [ -117.46144, 47.65534 ], [ -117.46131, 47.65512 ], [ -117.45904, 47.65339 ], [ -117.45813, 47.65304 ], [ -117.45787, 47.65287 ], [ -117.45769, 47.65265 ], [ -117.45716, 47.65147 ], [ -117.45585, 47.65144 ], [ -117.45583, 47.65178 ], [ -117.45417, 47.65176 ], [ -117.45421, 47.65062 ], [ -117.45333, 47.65062 ], [ -117.45334, 47.65011 ], [ -117.44874, 47.64997 ], [ -117.44853, 47.64962 ], [ -117.44805, 47.64805 ], [ -117.47427, 47.6366 ], [ -117.47711, 47.63526 ], [ -117.4776, 47.63576 ], [ -117.48006, 47.63483 ], [ -117.48098, 47.63474 ], [ -117.4819, 47.63484 ], [ -117.48263, 47.63503 ], [ -117.48368, 47.6355 ], [ -117.48368, 47.63563 ], [ -117.48399, 47.63563 ], [ -117.48914, 47.63789 ], [ -117.51398, 47.61449 ], [ -117.51486, 47.61376 ], [ -117.52255, 47.61371 ], [ -117.5343, 47.61118 ], [ -117.53631, 47.61065 ], [ -117.5402, 47.60991 ], [ -117.54576, 47.60871 ], [ -117.55133, 47.60485 ], [ -117.55135, 47.60439 ], [ -117.55409, 47.60263 ], [ -117.55412, 47.60172 ], [ -117.56214, 47.60184 ], [ -117.56202, 47.60508 ], [ -117.56434, 47.60458 ], [ -117.56433, 47.60727 ], [ -117.56194, 47.60728 ], [ -117.5619, 47.60836 ], [ -117.56432, 47.60836 ], [ -117.56432, 47.60849 ], [ -117.5642, 47.60849 ], [ -117.56412, 47.60919 ], [ -117.56456, 47.60919 ], [ -117.56455, 47.61095 ], [ -117.56719, 47.61095 ], [ -117.5672, 47.6092 ], [ -117.56984, 47.60926 ], [ -117.56985, 47.60734 ], [ -117.57259, 47.60736 ], [ -117.5726, 47.60554 ], [ -117.57526, 47.60555 ], [ -117.57528, 47.60235 ], [ -117.57732, 47.60191 ], [ -117.58099, 47.60192 ], [ -117.58098, 47.60564 ], [ -117.58589, 47.60565 ], [ -117.5859, 47.61146 ], [ -117.58062, 47.61146 ], [ -117.58063, 47.61374 ], [ -117.60398, 47.61377 ], [ -117.6039, 47.62828 ], [ -117.59323, 47.62825 ], [ -117.59326, 47.62471 ], [ -117.58247, 47.62468 ], [ -117.58246, 47.6265 ], [ -117.57634, 47.62653 ], [ -117.57169, 47.62746 ], [ -117.57168, 47.62828 ], [ -117.56079, 47.62826 ], [ -117.56079, 47.63003 ], [ -117.55972, 47.63004 ], [ -117.55972, 47.63031 ], [ -117.55875, 47.63033 ], [ -117.55875, 47.6306 ], [ -117.55675, 47.63062 ], [ -117.55675, 47.63168 ], [ -117.55045, 47.63391 ], [ -117.55043, 47.63573 ], [ -117.55559, 47.63567 ], [ -117.55557, 47.63749 ], [ -117.55308, 47.63752 ], [ -117.55308, 47.63768 ], [ -117.55091, 47.63771 ], [ -117.55083, 47.64053 ], [ -117.55091, 47.64159 ], [ -117.55079, 47.64196 ], [ -117.55041, 47.64246 ], [ -117.55032, 47.64276 ], [ -117.55035, 47.64663 ], [ -117.53981, 47.64674 ], [ -117.53956, 47.64668 ], [ -117.5364, 47.64668 ], [ -117.5364, 47.64674 ], [ -117.5327, 47.64674 ], [ -117.5327, 47.64665 ], [ -117.52901, 47.64664 ], [ -117.52901, 47.64673 ], [ -117.51026, 47.64662 ], [ -117.51026, 47.6459 ], [ -117.50622, 47.64585 ], [ -117.50623, 47.64482 ], [ -117.50406, 47.64481 ], [ -117.50404, 47.64615 ], [ -117.50229, 47.64616 ], [ -117.50231, 47.64487 ], [ -117.5005, 47.64487 ], [ -117.5005, 47.6447 ], [ -117.49883, 47.64469 ], [ -117.49881, 47.64569 ], [ -117.4967, 47.64569 ], [ -117.49669, 47.64583 ], [ -117.49231, 47.64584 ], [ -117.49234, 47.64475 ], [ -117.48636, 47.64476 ], [ -117.48636, 47.64484 ], [ -117.48505, 47.64401 ], [ -117.48482, 47.64347 ], [ -117.485, 47.64305 ], [ -117.48369, 47.64295 ], [ -117.47563, 47.64291 ], [ -117.47558, 47.64534 ], [ -117.47544, 47.64534 ], [ -117.47541, 47.64679 ], [ -117.47566, 47.64707 ], [ -117.4765, 47.64745 ], [ -117.47693, 47.64773 ], [ -117.47793, 47.64902 ], [ -117.47846, 47.64944 ], [ -117.47904, 47.64958 ], [ -117.48066, 47.64953 ], [ -117.48083, 47.64963 ], [ -117.47905, 47.65155 ], [ -117.47898, 47.65177 ], [ -117.47915, 47.65227 ], [ -117.47908, 47.6528 ], [ -117.47872, 47.65306 ], [ -117.47765, 47.65319 ], [ -117.47661, 47.65354 ], [ -117.47559, 47.65354 ], [ -117.47558, 47.65343 ], [ -117.47497, 47.65354 ], [ -117.47311, 47.65437 ], [ -117.47193, 47.65455 ], [ -117.47122, 47.655 ], [ -117.47099, 47.65538 ], [ -117.4708, 47.65552 ], [ -117.46927, 47.65465 ], [ -117.46556, 47.65411 ], [ -117.46452, 47.65377 ], [ -117.4645, 47.65396 ], [ -117.46433, 47.65721 ], [ -117.46434, 47.6659 ], [ -117.46734, 47.66602 ], [ -117.468, 47.66599 ], [ -117.46888, 47.66575 ], [ -117.46945, 47.66688 ], [ -117.47039, 47.66785 ], [ -117.47124, 47.66847 ], [ -117.4743, 47.67029 ], [ -117.47512, 47.67121 ], [ -117.47523, 47.67171 ], [ -117.47648, 47.67335 ], [ -117.48022, 47.68051 ], [ -117.47918, 47.68056 ], [ -117.47771, 47.6804 ], [ -117.47511, 47.67983 ], [ -117.47515, 47.68215 ], [ -117.47459, 47.68144 ], [ -117.47357, 47.68083 ] ] ] } },
{ "type": "Feature", "properties": { "name": "Whitman" }, "geometry": { "type": "Polygon", "coordinates": [ [ [ -117.38966, 47.70064 ], [ -117.39004, 47.70807 ], [ -117.39004, 47.71501 ], [ -117.37868, 47.71492 ], [ -117.37889, 47.70058 ], [ -117.38966, 47.70064 ] ] ] } }
]
}
