{
"type": "FeatureCollection",
"name": "vancouver-neighborhood-overlay",
"crs": { "type": "name", "properties": { "name": "urn:ogc:def:crs:OGC:1.3:CRS84" } },
"xy_coordinate_resolution": 1e-05,
"features": [
{ "type": "Feature", "properties": { "name": "Airport Green" }, "geometry": { "type": "Polygon", "coordinates": [ [ [ -122.53087, 45.62846 ], [ -122.52773, 45.62843 ], [ -122.52768, 45.62615 ], [ -122.52751, 45.62512 ], [ -122.52703, 45.62446 ], [ -122.52385, 45.62229 ], [ -122.52301, 45.6212 ], [ -122.52279, 45.62073 ], [ -122.52401, 45.62054 ], [ -122.52442, 45.62055 ], [ -122.53041, 45.62316 ], [ -122.53101, 45.62314 ], [ -122.53107, 45.62846 ], [ -122.53087, 45.62846 ] ] ] } },
{ "type": "Feature", "properties": { "name": "Arnada" }, "geometry": { "type": "Polygon", "coordinates": [ [ [ -122.662, 45.64009 ], [ -122.662, 45.63731 ], [ -122.6627, 45.63547 ], [ -122.66507, 45.63163 ], [ -122.66609, 45.63191 ], [ -122.66699, 45.63237 ], [ -122.66737, 45.63247 ], [ -122.66825, 45.63256 ], [ -122.67156, 45.6326 ], [ -122.67142, 45.64021 ], [ -122.662, 45.64009 ] ] ] } },
{ "type": "Feature", "properties": { "name": "Bagley Downs" }, "geometry": { "type": "Polygon", "coordinates": [ [ [ -122.60939, 45.64835 ], [ -122.60647, 45.64844 ], [ -122.60647, 45.64785 ], [ -122.60455, 45.64798 ], [ -122.60302, 45.64818 ], [ -122.60146, 45.6485 ], [ -122.60079, 45.6463 ], [ -122.6007, 45.64561 ], [ -122.6007, 45.64479 ], [ -122.60629, 45.64388 ], [ -122.6221, 45.63981 ], [ -122.62817, 45.63778 ], [ -122.62811, 45.63821 ], [ -122.62788, 45.63839 ], [ -122.62781, 45.63872 ], [ -122.62794, 45.63891 ], [ -122.62863, 45.63903 ], [ -122.62951, 45.63965 ], [ -122.63058, 45.64008 ], [ -122.63078, 45.64034 ], [ -122.63081, 45.64109 ], [ -122.63126, 45.64136 ], [ -122.63165, 45.64141 ], [ -122.63195, 45.64159 ], [ -122.63195, 45.64214 ], [ -122.63286, 45.6424 ], [ -122.63332, 45.64278 ], [ -122.63332, 45.64333 ], [ -122.63296, 45.64406 ], [ -122.63296, 45.64441 ], [ -122.63325, 45.6447 ], [ -122.6339, 45.64505 ], [ -122.63429, 45.64514 ], [ -122.63605, 45.64503 ], [ -122.63657, 45.64516 ], [ -122.6369, 45.6454 ], [ -122.63703, 45.64596 ], [ -122.63739, 45.64615 ], [ -122.63785, 45.64633 ], [ -122.6384, 45.64634 ], [ -122.63895, 45.64587 ], [ -122.63921, 45.6459 ], [ -122.63949, 45.64623 ], [ -122.63952, 45.64641 ], [ -122.63952, 45.64654 ], [ -122.6285, 45.64657 ], [ -122.62784, 45.64681 ], [ -122.62403, 45.64729 ], [ -122.62279, 45.64726 ], [ -122.61997, 45.64741 ], [ -122.61708, 45.64745 ], [ -122.61662, 45.64753 ], [ -122.61142, 45.64754 ], [ -122.61142, 45.64837 ], [ -122.60939, 45.64835 ] ] ] } },
{ "type": "Feature", "properties": { "name": "Bella Vista" }, "geometry": { "type": "Polygon", "coordinates": [ [ [ -122.52343, 45.60797 ], [ -122.52343, 45.60735 ], [ -122.52354, 45.60724 ], [ -122.52371, 45.60724 ], [ -122.52375, 45.59831 ], [ -122.5242, 45.59829 ], [ -122.52414, 45.59813 ], [ -122.52466, 45.59799 ], [ -122.52437, 45.59768 ], [ -122.52458, 45.59753 ], [ -122.52653, 45.59808 ], [ -122.52651, 45.59986 ], [ -122.5292, 45.59986 ], [ -122.5292, 45.60044 ], [ -122.52986, 45.60045 ], [ -122.52975, 45.60075 ], [ -122.52976, 45.6011 ], [ -122.52921, 45.6011 ], [ -122.52925, 45.60766 ], [ -122.52864, 45.60787 ], [ -122.52823, 45.60817 ], [ -122.52793, 45.60801 ], [ -122.52724, 45.60785 ], [ -122.52625, 45.60777 ], [ -122.5253, 45.60796 ], [ -122.52343, 45.60797 ] ] ] } },
{ "type": "Feature", "properties": { "name": "Burnt Bridge Creek" }, "geometry": { "type": "Polygon", "coordinates": [ [ [ -122.50605, 45.65036 ], [ -122.53204, 45.6502 ], [ -122.53202, 45.65047 ], [ -122.53214, 45.6508 ], [ -122.53227, 45.65735 ], [ -122.53199, 45.6574 ], [ -122.53186, 45.66297 ], [ -122.52157, 45.66298 ], [ -122.52155, 45.66035 ], [ -122.52061, 45.66009 ], [ -122.52005, 45.66009 ], [ -122.5172, 45.65885 ], [ -122.51118, 45.658 ], [ -122.51119, 45.65758 ], [ -122.506, 45.65756 ], [ -122.50605, 45.65036 ] ] ] } },
{ "type": "Feature", "properties": { "name": "Burton Ridge" }, "geometry": { "type": "Polygon", "coordinates": [ [ [ -122.56346, 45.64188 ], [ -122.56096, 45.63552 ], [ -122.57718, 45.63551 ], [ -122.57718, 45.63965 ], [ -122.57311, 45.63992 ], [ -122.56349, 45.64196 ], [ -122.56346, 45.64188 ] ] ] } },
{ "type": "Feature", "properties": { "name": "Burton-Evergreen" }, "geometry": { "type": "Polygon", "coordinates": [ [ [ -122.52357, 45.64298 ], [ -122.51383, 45.64299 ], [ -122.51395, 45.63573 ], [ -122.52296, 45.63569 ], [ -122.52293, 45.64059 ], [ -122.52421, 45.64058 ], [ -122.52421, 45.64298 ], [ -122.52357, 45.64298 ] ] ] } },
{ "type": "Feature", "properties": { "name": "Carter Park" }, "geometry": { "type": "Polygon", "coordinates": [ [ [ -122.66866, 45.64583 ], [ -122.66878, 45.64545 ], [ -122.67142, 45.64021 ], [ -122.68732, 45.64032 ], [ -122.68797, 45.64598 ], [ -122.66866, 45.64583 ] ] ] } },
{ "type": "Feature", "properties": { "name": "Cascade Highlands" }, "geometry": { "type": "Polygon", "coordinates": [ [ [ -122.5043, 45.61546 ], [ -122.50409, 45.61544 ], [ -122.50395, 45.61021 ], [ -122.50392, 45.60435 ], [ -122.50539, 45.60435 ], [ -122.50704, 45.60446 ], [ -122.51081, 45.60514 ], [ -122.51369, 45.60526 ], [ -122.51515, 45.60545 ], [ -122.51628, 45.60574 ], [ -122.52143, 45.60755 ], [ -122.52053, 45.60871 ], [ -122.5189, 45.61036 ], [ -122.51861, 45.61054 ], [ -122.51628, 45.61141 ], [ -122.51632, 45.6139 ], [ -122.52144, 45.61391 ], [ -122.52143, 45.61506 ], [ -122.52179, 45.61521 ], [ -122.52221, 45.61553 ], [ -122.52259, 45.61627 ], [ -122.52256, 45.61748 ], [ -122.5043, 45.61546 ] ] ] } },
{ "type": "Feature", "properties": { "name": "Cascade South East" }, "geometry": { "type": "Polygon", "coordinates": [ [ [ -122.52143, 45.60755 ], [ -122.51628, 45.60574 ], [ -122.51515, 45.60545 ], [ -122.51369, 45.60526 ], [ -122.51302, 45.60525 ], [ -122.51302, 45.60449 ], [ -122.51313, 45.60432 ], [ -122.51314, 45.60402 ], [ -122.51375, 45.60272 ], [ -122.51425, 45.60208 ], [ -122.51497, 45.60142 ], [ -122.51723, 45.59966 ], [ -122.51747, 45.59959 ], [ -122.5179, 45.59926 ], [ -122.51952, 45.59638 ], [ -122.52444, 45.59769 ], [ -122.52466, 45.59799 ], [ -122.52414, 45.59813 ], [ -122.5242, 45.59829 ], [ -122.52375, 45.59831 ], [ -122.52371, 45.60724 ], [ -122.52354, 45.60724 ], [ -122.52343, 45.60735 ], [ -122.52343, 45.60797 ], [ -122.52233, 45.60786 ], [ -122.52143, 45.60755 ] ] ] } },
{ "type": "Feature", "properties": { "name": "Central Park" }, "geometry": { "type": "Polygon", "coordinates": [ [ [ -122.64511, 45.6383 ], [ -122.64511, 45.63526 ], [ -122.6438, 45.63525 ], [ -122.6438, 45.63488 ], [ -122.6436, 45.63485 ], [ -122.6436, 45.63478 ], [ -122.64282, 45.63477 ], [ -122.64281, 45.63442 ], [ -122.64234, 45.63438 ], [ -122.64234, 45.63433 ], [ -122.64168, 45.63433 ], [ -122.6409, 45.63284 ], [ -122.64072, 45.6321 ], [ -122.64071, 45.6283 ], [ -122.65258, 45.62834 ], [ -122.66507, 45.63163 ], [ -122.6627, 45.63547 ], [ -122.662, 45.63731 ], [ -122.662, 45.64009 ], [ -122.65741, 45.6399 ], [ -122.65236, 45.63887 ], [ -122.64511, 45.6383 ] ] ] } },
{ "type": "Feature", "properties": { "name": "Cimarron" }, "geometry": { "type": "Polygon", "coordinates": [ [ [ -122.50613, 45.63571 ], [ -122.51004, 45.63572 ], [ -122.50998, 45.64024 ], [ -122.51128, 45.64024 ], [ -122.51127, 45.6412 ], [ -122.51027, 45.64167 ], [ -122.50951, 45.64181 ], [ -122.50882, 45.64169 ], [ -122.50726, 45.642 ], [ -122.50609, 45.64202 ], [ -122.50613, 45.63571 ] ] ] } },
{ "type": "Feature", "properties": { "name": "Columbia River" }, "geometry": { "type": "Polygon", "coordinates": [ [ [ -122.53281, 45.59951 ], [ -122.52815, 45.59834 ], [ -122.52653, 45.59809 ], [ -122.50725, 45.5927 ], [ -122.48971, 45.58805 ], [ -122.48617, 45.58751 ], [ -122.47892, 45.58543 ], [ -122.4706, 45.58407 ], [ -122.47102, 45.58276 ], [ -122.47121, 45.57986 ], [ -122.47172, 45.57769 ], [ -122.47282, 45.57765 ], [ -122.47468, 45.57859 ], [ -122.49224, 45.58331 ], [ -122.52426, 45.58912 ], [ -122.53161, 45.59188 ], [ -122.53313, 45.5923 ], [ -122.53315, 45.59959 ], [ -122.53281, 45.59951 ] ] ] } },
{ "type": "Feature", "properties": { "name": "Countryside Woods" }, "geometry": { "type": "Polygon", "coordinates": [ [ [ -122.51395, 45.63573 ], [ -122.50613, 45.63571 ], [ -122.50604, 45.6265 ], [ -122.50569, 45.62563 ], [ -122.50534, 45.62509 ], [ -122.50614, 45.62482 ], [ -122.51647, 45.62482 ], [ -122.51655, 45.63574 ], [ -122.51395, 45.63573 ] ] ] } },
{ "type": "Feature", "properties": { "name": "Dubois Park" }, "geometry": { "type": "Polygon", "coordinates": [ [ [ -122.61679, 45.62655 ], [ -122.61486, 45.62458 ], [ -122.61427, 45.6242 ], [ -122.61363, 45.62395 ], [ -122.61357, 45.61923 ], [ -122.61428, 45.61925 ], [ -122.61427, 45.61831 ], [ -122.61386, 45.61832 ], [ -122.61385, 45.61825 ], [ -122.61356, 45.61814 ], [ -122.61356, 45.61751 ], [ -122.6203, 45.62023 ], [ -122.62062, 45.6205 ], [ -122.62258, 45.62173 ], [ -122.62413, 45.62241 ], [ -122.62411, 45.62265 ], [ -122.62353, 45.62351 ], [ -122.62279, 45.62424 ], [ -122.62158, 45.62565 ], [ -122.62118, 45.62596 ], [ -122.62053, 45.62619 ], [ -122.61893, 45.62635 ], [ -122.6173, 45.62708 ], [ -122.61679, 45.62655 ] ] ] } },
{ "type": "Feature", "properties": { "name": "East Mill Plain" }, "geometry": { "type": "Polygon", "coordinates": [ [ [ -122.50426, 45.62127 ], [ -122.50409, 45.61547 ], [ -122.52256, 45.61748 ], [ -122.52261, 45.61997 ], [ -122.52279, 45.62074 ], [ -122.52104, 45.62101 ], [ -122.51925, 45.62101 ], [ -122.51862, 45.6212 ], [ -122.51641, 45.62115 ], [ -122.51647, 45.62482 ], [ -122.50614, 45.62482 ], [ -122.50535, 45.6251 ], [ -122.50476, 45.62426 ], [ -122.50442, 45.62353 ], [ -122.50429, 45.62285 ], [ -122.50426, 45.62127 ] ] ] } },
{ "type": "Feature", "properties": { "name": "Edgewood Park" }, "geometry": { "type": "Polygon", "coordinates": [ [ [ -122.63268, 45.6276 ], [ -122.63286, 45.62739 ], [ -122.62675, 45.62451 ], [ -122.62674, 45.62386 ], [ -122.62412, 45.62261 ], [ -122.62438, 45.6222 ], [ -122.62447, 45.62189 ], [ -122.62458, 45.62089 ], [ -122.62453, 45.62017 ], [ -122.62438, 45.61963 ], [ -122.62486, 45.61952 ], [ -122.62534, 45.61951 ], [ -122.62736, 45.6199 ], [ -122.63251, 45.62148 ], [ -122.63794, 45.62271 ], [ -122.64337, 45.62371 ], [ -122.64159, 45.62377 ], [ -122.64104, 45.62394 ], [ -122.64073, 45.62421 ], [ -122.64067, 45.62435 ], [ -122.64071, 45.6283 ], [ -122.63578, 45.62821 ], [ -122.63268, 45.6276 ] ] ] } },
{ "type": "Feature", "properties": { "name": "Ellsworth Springs" }, "geometry": { "type": "Polygon", "coordinates": [ [ [ -122.55948, 45.62101 ], [ -122.55781, 45.61842 ], [ -122.55412, 45.6144 ], [ -122.55353, 45.61362 ], [ -122.55306, 45.61279 ], [ -122.55257, 45.6114 ], [ -122.55133, 45.6039 ], [ -122.57633, 45.6093 ], [ -122.57601, 45.61012 ], [ -122.57604, 45.61281 ], [ -122.57224, 45.61286 ], [ -122.57236, 45.61321 ], [ -122.57226, 45.6198 ], [ -122.57288, 45.621 ], [ -122.55948, 45.62101 ] ] ] } },
{ "type": "Feature", "properties": { "name": "Emerald Landing" }, "geometry": { "type": "Polygon", "coordinates": [ [ [ -122.52257, 45.61754 ], [ -122.52256, 45.61748 ], [ -122.53267, 45.6186 ], [ -122.53275, 45.61968 ], [ -122.53283, 45.61989 ], [ -122.53436, 45.62163 ], [ -122.53444, 45.62189 ], [ -122.53462, 45.63166 ], [ -122.53451, 45.6321 ], [ -122.53429, 45.63245 ], [ -122.53392, 45.63278 ], [ -122.53338, 45.63307 ], [ -122.53149, 45.63371 ], [ -122.53115, 45.63397 ], [ -122.53088, 45.63429 ], [ -122.53073, 45.6347 ], [ -122.53091, 45.634 ], [ -122.53087, 45.62846 ], [ -122.53107, 45.62846 ], [ -122.53101, 45.62314 ], [ -122.53041, 45.62316 ], [ -122.52442, 45.62055 ], [ -122.52401, 45.62054 ], [ -122.52279, 45.62074 ], [ -122.52261, 45.61997 ], [ -122.52257, 45.61754 ] ] ] } },
{ "type": "Feature", "properties": { "name": "Esther Short" }, "geometry": { "type": "Polygon", "coordinates": [ [ [ -122.67156, 45.6326 ], [ -122.66825, 45.63256 ], [ -122.66737, 45.63247 ], [ -122.66699, 45.63237 ], [ -122.66609, 45.63191 ], [ -122.66507, 45.63163 ], [ -122.66839, 45.62576 ], [ -122.66869, 45.6254 ], [ -122.66911, 45.62522 ], [ -122.66908, 45.62498 ], [ -122.66927, 45.62479 ], [ -122.66967, 45.62468 ], [ -122.6697, 45.62439 ], [ -122.66998, 45.62416 ], [ -122.67036, 45.6241 ], [ -122.67057, 45.62394 ], [ -122.67056, 45.6237 ], [ -122.6715, 45.62297 ], [ -122.67178, 45.62307 ], [ -122.67191, 45.62297 ], [ -122.67177, 45.62278 ], [ -122.67203, 45.62287 ], [ -122.67195, 45.62263 ], [ -122.67226, 45.62268 ], [ -122.67267, 45.62231 ], [ -122.67539, 45.61852 ], [ -122.68281, 45.62121 ], [ -122.68945, 45.62412 ], [ -122.69088, 45.62494 ], [ -122.6884, 45.62735 ], [ -122.68745, 45.62809 ], [ -122.68675, 45.62907 ], [ -122.68652, 45.6297 ], [ -122.68643, 45.63034 ], [ -122.68662, 45.63362 ], [ -122.68477, 45.63291 ], [ -122.68428, 45.63283 ], [ -122.67664, 45.63274 ], [ -122.67582, 45.63259 ], [ -122.67156, 45.6326 ] ], [ [ -122.67816, 45.62958 ], [ -122.67706, 45.62959 ], [ -122.67707, 45.63107 ], [ -122.67924, 45.63109 ], [ -122.67925, 45.62957 ], [ -122.67816, 45.62958 ] ] ] } },
{ "type": "Feature", "properties": { "name": "Evergreen Highlands" }, "geometry": { "type": "Polygon", "coordinates": [ [ [ -122.61428, 45.61925 ], [ -122.61357, 45.61923 ], [ -122.61363, 45.62395 ], [ -122.60216, 45.62048 ], [ -122.60223, 45.61565 ], [ -122.60234, 45.6155 ], [ -122.60254, 45.61543 ], [ -122.60307, 45.61539 ], [ -122.60347, 45.61523 ], [ -122.60418, 45.61429 ], [ -122.60714, 45.61474 ], [ -122.60733, 45.61496 ], [ -122.60845, 45.61512 ], [ -122.60982, 45.61522 ], [ -122.60981, 45.61511 ], [ -122.61117, 45.61509 ], [ -122.61255, 45.6152 ], [ -122.61317, 45.61582 ], [ -122.61421, 45.61777 ], [ -122.61356, 45.61751 ], [ -122.61356, 45.61814 ], [ -122.61385, 45.61825 ], [ -122.61386, 45.61832 ], [ -122.61427, 45.61831 ], [ -122.61428, 45.61925 ] ] ] } },
{ "type": "Feature", "properties": { "name": "Evergreen Shores" }, "geometry": { "type": "Polygon", "coordinates": [ [ [ -122.61421, 45.61777 ], [ -122.61317, 45.61582 ], [ -122.61276, 45.61535 ], [ -122.61351, 45.61543 ], [ -122.61717, 45.61652 ], [ -122.61994, 45.61752 ], [ -122.62248, 45.61805 ], [ -122.62476, 45.61839 ], [ -122.62443, 45.61899 ], [ -122.62438, 45.61963 ], [ -122.62453, 45.62017 ], [ -122.62458, 45.62089 ], [ -122.62438, 45.6222 ], [ -122.62412, 45.62258 ], [ -122.62413, 45.62241 ], [ -122.62258, 45.62173 ], [ -122.62062, 45.6205 ], [ -122.6203, 45.62023 ], [ -122.61421, 45.61777 ] ] ] } },
{ "type": "Feature", "properties": { "name": "Father Blanchet Park" }, "geometry": { "type": "Polygon", "coordinates": [ [ [ -122.58568, 45.61112 ], [ -122.58568, 45.61107 ], [ -122.59126, 45.61213 ], [ -122.60035, 45.61321 ], [ -122.60418, 45.61429 ], [ -122.60347, 45.61523 ], [ -122.60307, 45.61539 ], [ -122.60254, 45.61543 ], [ -122.60234, 45.6155 ], [ -122.60223, 45.61565 ], [ -122.60216, 45.62048 ], [ -122.59543, 45.61842 ], [ -122.59107, 45.61758 ], [ -122.59093, 45.61603 ], [ -122.58569, 45.61605 ], [ -122.58568, 45.61112 ] ] ] } },
{ "type": "Feature", "properties": { "name": "Fircrest" }, "geometry": { "type": "Polygon", "coordinates": [ [ [ -122.55793, 45.63551 ], [ -122.5307, 45.63566 ], [ -122.53071, 45.63474 ], [ -122.53088, 45.63429 ], [ -122.53115, 45.63397 ], [ -122.53191, 45.63352 ], [ -122.53338, 45.63307 ], [ -122.53392, 45.63278 ], [ -122.53429, 45.63245 ], [ -122.53451, 45.6321 ], [ -122.53462, 45.63166 ], [ -122.53444, 45.62189 ], [ -122.53436, 45.62163 ], [ -122.53407, 45.62123 ], [ -122.53283, 45.61989 ], [ -122.53275, 45.61968 ], [ -122.53269, 45.61862 ], [ -122.553, 45.62083 ], [ -122.55584, 45.62103 ], [ -122.55943, 45.62101 ], [ -122.5595, 45.63227 ], [ -122.56137, 45.63658 ], [ -122.55911, 45.63653 ], [ -122.55912, 45.63552 ], [ -122.55793, 45.63551 ] ] ] } },
{ "type": "Feature", "properties": { "name": "First Place" }, "geometry": { "type": "Polygon", "coordinates": [ [ [ -122.52296, 45.63569 ], [ -122.51655, 45.63574 ], [ -122.51651, 45.62846 ], [ -122.52457, 45.62844 ], [ -122.5246, 45.63568 ], [ -122.52296, 45.63569 ] ] ] } },
{ "type": "Feature", "properties": { "name": "Fishers Creek" }, "geometry": { "type": "Polygon", "coordinates": [ [ [ -122.4782, 45.5967 ], [ -122.47814, 45.5947 ], [ -122.47824, 45.59418 ], [ -122.47756, 45.59349 ], [ -122.47581, 45.59252 ], [ -122.47555, 45.59228 ], [ -122.48053, 45.59223 ], [ -122.48054, 45.58919 ], [ -122.48928, 45.58911 ], [ -122.48929, 45.58945 ], [ -122.49167, 45.58944 ], [ -122.49256, 45.58974 ], [ -122.49118, 45.59219 ], [ -122.49113, 45.5924 ], [ -122.49097, 45.5924 ], [ -122.49059, 45.59269 ], [ -122.48962, 45.59268 ], [ -122.48956, 45.59275 ], [ -122.48955, 45.59304 ], [ -122.49346, 45.59304 ], [ -122.49353, 45.59669 ], [ -122.48784, 45.5967 ], [ -122.48675, 45.59662 ], [ -122.4782, 45.5967 ] ] ] } },
{ "type": "Feature", "properties": { "name": "Fishers Landing East" }, "geometry": { "type": "Polygon", "coordinates": [ [ [ -122.49559, 45.61013 ], [ -122.49559, 45.60836 ], [ -122.49778, 45.60836 ], [ -122.49778, 45.60668 ], [ -122.49212, 45.6067 ], [ -122.49211, 45.60919 ], [ -122.49311, 45.60918 ], [ -122.49313, 45.61017 ], [ -122.47592, 45.61004 ], [ -122.47594, 45.60311 ], [ -122.47587, 45.59872 ], [ -122.47609, 45.59851 ], [ -122.47608, 45.59671 ], [ -122.48675, 45.59662 ], [ -122.48784, 45.5967 ], [ -122.50393, 45.5967 ], [ -122.50388, 45.60027 ], [ -122.50395, 45.61021 ], [ -122.49559, 45.61013 ] ] ] } },
{ "type": "Feature", "properties": { "name": "Forest Ridge" }, "geometry": { "type": "Polygon", "coordinates": [ [ [ -122.57329, 45.63551 ], [ -122.57341, 45.63427 ], [ -122.57332, 45.62791 ], [ -122.57485, 45.62791 ], [ -122.57548, 45.62771 ], [ -122.57846, 45.62768 ], [ -122.57859, 45.63466 ], [ -122.57713, 45.63466 ], [ -122.57716, 45.63551 ], [ -122.57329, 45.63551 ] ] ] } },
{ "type": "Feature", "properties": { "name": "Fourth Plain Village" }, "geometry": { "type": "Polygon", "coordinates": [ [ [ -122.64004, 45.64696 ], [ -122.6394, 45.64696 ], [ -122.63935, 45.6468 ], [ -122.63954, 45.64654 ], [ -122.63949, 45.64623 ], [ -122.63921, 45.6459 ], [ -122.63895, 45.64587 ], [ -122.6384, 45.64634 ], [ -122.63785, 45.64633 ], [ -122.63703, 45.64596 ], [ -122.6369, 45.6454 ], [ -122.63657, 45.64516 ], [ -122.63605, 45.64503 ], [ -122.63429, 45.64514 ], [ -122.6339, 45.64505 ], [ -122.63325, 45.6447 ], [ -122.63296, 45.64441 ], [ -122.63296, 45.64406 ], [ -122.63332, 45.64333 ], [ -122.63332, 45.64278 ], [ -122.63286, 45.6424 ], [ -122.63195, 45.64214 ], [ -122.63195, 45.64159 ], [ -122.63165, 45.64141 ], [ -122.63126, 45.64136 ], [ -122.63081, 45.64109 ], [ -122.63078, 45.64034 ], [ -122.63058, 45.64008 ], [ -122.62951, 45.63965 ], [ -122.62863, 45.63903 ], [ -122.62794, 45.63891 ], [ -122.62781, 45.63872 ], [ -122.62788, 45.63839 ], [ -122.62811, 45.63821 ], [ -122.62817, 45.63778 ], [ -122.62921, 45.63745 ], [ -122.63017, 45.63735 ], [ -122.63758, 45.63768 ], [ -122.64186, 45.63803 ], [ -122.64174, 45.64662 ], [ -122.64069, 45.64696 ], [ -122.64004, 45.64696 ] ] ] } },
{ "type": "Feature", "properties": { "name": "Fruit Valley" }, "geometry": { "type": "Polygon", "coordinates": [ [ [ -122.76149, 45.69279 ], [ -122.76144, 45.69246 ], [ -122.76176, 45.69246 ], [ -122.76149, 45.69095 ], [ -122.76126, 45.68888 ], [ -122.76129, 45.68633 ], [ -122.76141, 45.6847 ], [ -122.76122, 45.68114 ], [ -122.75381, 45.67925 ], [ -122.75566, 45.68474 ], [ -122.7498, 45.68325 ], [ -122.74953, 45.68377 ], [ -122.74882, 45.68361 ], [ -122.74913, 45.68255 ], [ -122.7495, 45.68074 ], [ -122.74936, 45.6797 ], [ -122.74947, 45.67853 ], [ -122.74973, 45.67775 ], [ -122.75001, 45.67719 ], [ -122.74967, 45.67681 ], [ -122.74891, 45.67696 ], [ -122.74852, 45.67712 ], [ -122.74809, 45.6779 ], [ -122.74784, 45.6781 ], [ -122.74719, 45.67841 ], [ -122.7455, 45.68186 ], [ -122.74536, 45.68247 ], [ -122.7449, 45.68316 ], [ -122.74462, 45.68344 ], [ -122.74445, 45.68355 ], [ -122.74383, 45.68355 ], [ -122.74355, 45.68404 ], [ -122.7435, 45.68434 ], [ -122.7434, 45.68442 ], [ -122.74339, 45.68498 ], [ -122.74329, 45.68512 ], [ -122.74277, 45.68548 ], [ -122.74235, 45.686 ], [ -122.74164, 45.68652 ], [ -122.74103, 45.68718 ], [ -122.73924, 45.68816 ], [ -122.73822, 45.68909 ], [ -122.73663, 45.69082 ], [ -122.73623, 45.69109 ], [ -122.73566, 45.69176 ], [ -122.73556, 45.69218 ], [ -122.73568, 45.69247 ], [ -122.7357, 45.69284 ], [ -122.73559, 45.69316 ], [ -122.73535, 45.69345 ], [ -122.73316, 45.69543 ], [ -122.72867, 45.69544 ], [ -122.72921, 45.69471 ], [ -122.73013, 45.69376 ], [ -122.73086, 45.69318 ], [ -122.73201, 45.692 ], [ -122.7325, 45.69203 ], [ -122.73249, 45.6918 ], [ -122.73232, 45.69182 ], [ -122.73234, 45.69168 ], [ -122.73387, 45.69039 ], [ -122.73446, 45.6901 ], [ -122.73445, 45.68987 ], [ -122.73507, 45.68921 ], [ -122.73527, 45.68909 ], [ -122.73536, 45.6889 ], [ -122.73595, 45.68837 ], [ -122.73675, 45.68743 ], [ -122.73822, 45.68529 ], [ -122.73841, 45.68514 ], [ -122.73845, 45.68482 ], [ -122.73887, 45.68369 ], [ -122.73887, 45.68357 ], [ -122.73861, 45.68332 ], [ -122.7385, 45.68301 ], [ -122.73854, 45.68253 ], [ -122.73918, 45.68197 ], [ -122.73969, 45.68179 ], [ -122.74012, 45.68117 ], [ -122.74031, 45.68072 ], [ -122.74029, 45.68063 ], [ -122.74074, 45.67972 ], [ -122.74095, 45.679 ], [ -122.74151, 45.67809 ], [ -122.74205, 45.67694 ], [ -122.74198, 45.67651 ], [ -122.74227, 45.67594 ], [ -122.74244, 45.67514 ], [ -122.74257, 45.67498 ], [ -122.74262, 45.67462 ], [ -122.7427, 45.67455 ], [ -122.7427, 45.67424 ], [ -122.74285, 45.67405 ], [ -122.74276, 45.67386 ], [ -122.7428, 45.67334 ], [ -122.74289, 45.67319 ], [ -122.74281, 45.67308 ], [ -122.74292, 45.67236 ], [ -122.74279, 45.6716 ], [ -122.74288, 45.67149 ], [ -122.74285, 45.67136 ], [ -122.74316, 45.67119 ], [ -122.74311, 45.67105 ], [ -122.74277, 45.67079 ], [ -122.74284, 45.67065 ], [ -122.74273, 45.67045 ], [ -122.74267, 45.66984 ], [ -122.74332, 45.66951 ], [ -122.74339, 45.66935 ], [ -122.74314, 45.66922 ], [ -122.74224, 45.66912 ], [ -122.74205, 45.669 ], [ -122.74195, 45.66869 ], [ -122.74216, 45.66857 ], [ -122.74219, 45.6684 ], [ -122.74194, 45.66751 ], [ -122.74074, 45.66534 ], [ -122.73995, 45.66459 ], [ -122.7388, 45.66385 ], [ -122.73875, 45.66364 ], [ -122.73851, 45.66358 ], [ -122.73846, 45.66339 ], [ -122.73701, 45.66227 ], [ -122.73695, 45.6621 ], [ -122.73701, 45.66147 ], [ -122.73539, 45.66043 ], [ -122.73414, 45.66012 ], [ -122.73464, 45.65961 ], [ -122.73422, 45.65942 ], [ -122.73278, 45.65932 ], [ -122.73233, 45.66028 ], [ -122.7326, 45.66236 ], [ -122.7329, 45.66326 ], [ -122.73193, 45.66326 ], [ -122.73175, 45.66221 ], [ -122.73138, 45.66184 ], [ -122.73134, 45.6615 ], [ -122.72968, 45.66139 ], [ -122.72755, 45.66143 ], [ -122.72632, 45.65969 ], [ -122.72675, 45.65956 ], [ -122.72908, 45.65995 ], [ -122.73058, 45.65953 ], [ -122.73027, 45.65881 ], [ -122.73356, 45.65787 ], [ -122.73083, 45.65599 ], [ -122.7285, 45.65427 ], [ -122.72675, 45.65316 ], [ -122.72527, 45.65239 ], [ -122.72392, 45.65186 ], [ -122.72235, 45.65113 ], [ -122.72092, 45.65061 ], [ -122.72008, 45.65063 ], [ -122.72117, 45.65222 ], [ -122.72037, 45.6525 ], [ -122.71756, 45.65224 ], [ -122.71755, 45.65376 ], [ -122.71611, 45.65467 ], [ -122.71681, 45.65526 ], [ -122.70882, 45.65529 ], [ -122.71048, 45.65644 ], [ -122.71042, 45.65807 ], [ -122.71308, 45.66096 ], [ -122.71384, 45.66101 ], [ -122.71385, 45.66127 ], [ -122.71373, 45.66136 ], [ -122.71334, 45.66141 ], [ -122.71244, 45.66132 ], [ -122.71215, 45.66117 ], [ -122.71197, 45.66079 ], [ -122.71179, 45.66004 ], [ -122.71167, 45.65985 ], [ -122.70957, 45.65832 ], [ -122.70895, 45.65743 ], [ -122.70832, 45.65633 ], [ -122.70705, 45.65499 ], [ -122.70586, 45.65445 ], [ -122.70565, 45.65492 ], [ -122.7065, 45.65575 ], [ -122.7074, 45.6573 ], [ -122.70765, 45.65879 ], [ -122.70834, 45.65966 ], [ -122.70864, 45.66063 ], [ -122.70752, 45.66289 ], [ -122.70691, 45.66329 ], [ -122.70649, 45.66291 ], [ -122.70555, 45.66244 ], [ -122.70538, 45.66278 ], [ -122.70591, 45.66323 ], [ -122.70611, 45.66361 ], [ -122.70572, 45.66405 ], [ -122.70452, 45.66444 ], [ -122.70427, 45.66416 ], [ -122.70422, 45.66343 ], [ -122.70352, 45.66273 ], [ -122.70331, 45.66242 ], [ -122.70315, 45.66181 ], [ -122.70316, 45.66141 ], [ -122.70277, 45.66094 ], [ -122.70116, 45.66062 ], [ -122.70133, 45.65994 ], [ -122.70132, 45.65933 ], [ -122.70118, 45.65915 ], [ -122.70103, 45.65915 ], [ -122.70066, 45.65944 ], [ -122.70038, 45.65954 ], [ -122.70004, 45.66003 ], [ -122.70024, 45.66045 ], [ -122.70041, 45.66064 ], [ -122.70108, 45.66082 ], [ -122.70143, 45.66107 ], [ -122.70134, 45.66149 ], [ -122.7014, 45.66195 ], [ -122.70162, 45.6622 ], [ -122.70239, 45.66263 ], [ -122.70268, 45.66304 ], [ -122.70276, 45.66346 ], [ -122.7026, 45.66434 ], [ -122.70268, 45.66503 ], [ -122.70284, 45.66537 ], [ -122.70389, 45.66591 ], [ -122.70435, 45.66598 ], [ -122.70481, 45.66595 ], [ -122.70527, 45.66584 ], [ -122.70756, 45.66457 ], [ -122.70846, 45.66421 ], [ -122.70879, 45.66416 ], [ -122.7092, 45.66423 ], [ -122.70946, 45.66469 ], [ -122.70978, 45.66476 ], [ -122.70993, 45.66467 ], [ -122.71001, 45.66451 ], [ -122.70978, 45.66412 ], [ -122.71003, 45.6638 ], [ -122.71042, 45.66363 ], [ -122.71143, 45.66342 ], [ -122.71298, 45.66319 ], [ -122.71349, 45.66318 ], [ -122.71337, 45.66457 ], [ -122.71093, 45.66521 ], [ -122.70963, 45.66544 ], [ -122.70897, 45.66574 ], [ -122.7084, 45.66589 ], [ -122.70702, 45.66656 ], [ -122.706, 45.66681 ], [ -122.70522, 45.66712 ], [ -122.70422, 45.66772 ], [ -122.70311, 45.66813 ], [ -122.70276, 45.6684 ], [ -122.70239, 45.66842 ], [ -122.70235, 45.66836 ], [ -122.70249, 45.66826 ], [ -122.70225, 45.66817 ], [ -122.70261, 45.66778 ], [ -122.70236, 45.66789 ], [ -122.70174, 45.66841 ], [ -122.70105, 45.66873 ], [ -122.69977, 45.66906 ], [ -122.70013, 45.66881 ], [ -122.70021, 45.66862 ], [ -122.70004, 45.66821 ], [ -122.7002, 45.66767 ], [ -122.70018, 45.66738 ], [ -122.70051, 45.66591 ], [ -122.70099, 45.66462 ], [ -122.70061, 45.66422 ], [ -122.69961, 45.66251 ], [ -122.69946, 45.66242 ], [ -122.69816, 45.66244 ], [ -122.69781, 45.66257 ], [ -122.69758, 45.66274 ], [ -122.69753, 45.66302 ], [ -122.69768, 45.66378 ], [ -122.69768, 45.66472 ], [ -122.69761, 45.66507 ], [ -122.69775, 45.66565 ], [ -122.69772, 45.66632 ], [ -122.69784, 45.66707 ], [ -122.69842, 45.66914 ], [ -122.69907, 45.67057 ], [ -122.69916, 45.6711 ], [ -122.69205, 45.67246 ], [ -122.69219, 45.67334 ], [ -122.68897, 45.65381 ], [ -122.68891, 45.65358 ], [ -122.68884, 45.65358 ], [ -122.68732, 45.64032 ], [ -122.68651, 45.63257 ], [ -122.68643, 45.63041 ], [ -122.68649, 45.62984 ], [ -122.68666, 45.62928 ], [ -122.68727, 45.62829 ], [ -122.6884, 45.62735 ], [ -122.69088, 45.62494 ], [ -122.70277, 45.63188 ], [ -122.70962, 45.63553 ], [ -122.71379, 45.63789 ], [ -122.72373, 45.64047 ], [ -122.73184, 45.64269 ], [ -122.73001, 45.6459 ], [ -122.73196, 45.64646 ], [ -122.73146, 45.6473 ], [ -122.72963, 45.64671 ], [ -122.72874, 45.64824 ], [ -122.73048, 45.64876 ], [ -122.73053, 45.64891 ], [ -122.7302, 45.64945 ], [ -122.73028, 45.64947 ], [ -122.73022, 45.64958 ], [ -122.73181, 45.65004 ], [ -122.73143, 45.65069 ], [ -122.73132, 45.65065 ], [ -122.73142, 45.65083 ], [ -122.73181, 45.65095 ], [ -122.73115, 45.65205 ], [ -122.73318, 45.65264 ], [ -122.73325, 45.65257 ], [ -122.73422, 45.65305 ], [ -122.73457, 45.65291 ], [ -122.73482, 45.65258 ], [ -122.73604, 45.65236 ], [ -122.73749, 45.65184 ], [ -122.73859, 45.65 ], [ -122.73875, 45.64929 ], [ -122.73838, 45.64929 ], [ -122.73874, 45.64737 ], [ -122.74054, 45.64555 ], [ -122.7477, 45.64909 ], [ -122.76373, 45.65722 ], [ -122.76648, 45.6635 ], [ -122.77467, 45.68066 ], [ -122.7728, 45.69804 ], [ -122.76118, 45.69488 ], [ -122.76159, 45.69354 ], [ -122.76149, 45.69279 ] ] ] } },
{ "type": "Feature", "properties": { "name": "Green Meadows" }, "geometry": { "type": "Polygon", "coordinates": [ [ [ -122.58607, 45.67881 ], [ -122.58549, 45.67815 ], [ -122.58392, 45.67572 ], [ -122.57919, 45.66805 ], [ -122.60243, 45.66795 ], [ -122.60252, 45.66867 ], [ -122.60323, 45.67013 ], [ -122.60339, 45.67078 ], [ -122.60341, 45.6752 ], [ -122.60327, 45.67586 ], [ -122.60275, 45.67703 ], [ -122.60344, 45.67702 ], [ -122.60344, 45.67881 ], [ -122.58701, 45.67891 ], [ -122.58607, 45.67881 ] ] ] } },
{ "type": "Feature", "properties": { "name": "Harney Heights" }, "geometry": { "type": "Polygon", "coordinates": [ [ [ -122.6247, 45.63213 ], [ -122.61807, 45.63215 ], [ -122.61806, 45.6326 ], [ -122.61729, 45.63237 ], [ -122.61431, 45.63235 ], [ -122.61433, 45.63182 ], [ -122.61395, 45.63103 ], [ -122.61361, 45.62872 ], [ -122.62032, 45.62871 ], [ -122.62697, 45.62852 ], [ -122.62789, 45.62835 ], [ -122.62988, 45.62767 ], [ -122.63073, 45.62752 ], [ -122.63257, 45.62759 ], [ -122.63486, 45.62808 ], [ -122.63589, 45.62822 ], [ -122.64071, 45.6283 ], [ -122.64073, 45.63225 ], [ -122.6409, 45.63284 ], [ -122.64168, 45.63433 ], [ -122.64157, 45.63433 ], [ -122.64134, 45.63377 ], [ -122.64117, 45.63365 ], [ -122.64111, 45.63348 ], [ -122.64069, 45.63314 ], [ -122.63984, 45.63262 ], [ -122.63987, 45.63258 ], [ -122.63936, 45.63251 ], [ -122.63929, 45.63225 ], [ -122.63889, 45.63238 ], [ -122.63889, 45.63199 ], [ -122.63848, 45.63187 ], [ -122.63812, 45.6316 ], [ -122.63664, 45.63162 ], [ -122.6366, 45.63206 ], [ -122.6247, 45.63213 ] ] ] } },
{ "type": "Feature", "properties": { "name": "Hough" }, "geometry": { "type": "Polygon", "coordinates": [ [ [ -122.67142, 45.64021 ], [ -122.67156, 45.6326 ], [ -122.67582, 45.63259 ], [ -122.67664, 45.63274 ], [ -122.68428, 45.63283 ], [ -122.68477, 45.63291 ], [ -122.68662, 45.63362 ], [ -122.68732, 45.64032 ], [ -122.67142, 45.64021 ] ] ] } },
{ "type": "Feature", "properties": { "name": "Hudsons Bay" }, "geometry": { "type": "Polygon", "coordinates": [ [ [ -122.64071, 45.6283 ], [ -122.64067, 45.62435 ], [ -122.64073, 45.62421 ], [ -122.64104, 45.62394 ], [ -122.64159, 45.62377 ], [ -122.64337, 45.62371 ], [ -122.6434, 45.61865 ], [ -122.65047, 45.61901 ], [ -122.65047, 45.61895 ], [ -122.65501, 45.61868 ], [ -122.65716, 45.61867 ], [ -122.659, 45.61878 ], [ -122.66216, 45.61946 ], [ -122.66501, 45.62017 ], [ -122.66714, 45.62105 ], [ -122.66854, 45.62191 ], [ -122.66935, 45.62255 ], [ -122.66963, 45.62306 ], [ -122.66969, 45.62343 ], [ -122.66927, 45.62479 ], [ -122.66908, 45.62498 ], [ -122.66911, 45.62522 ], [ -122.66869, 45.6254 ], [ -122.66839, 45.62576 ], [ -122.66507, 45.63163 ], [ -122.65258, 45.62834 ], [ -122.64071, 45.6283 ] ] ] } },
{ "type": "Feature", "properties": { "name": "Image" }, "geometry": { "type": "Polygon", "coordinates": [ [ [ -122.53216, 45.65198 ], [ -122.53214, 45.6508 ], [ -122.53202, 45.65047 ], [ -122.53204, 45.6502 ], [ -122.53093, 45.64862 ], [ -122.53074, 45.64793 ], [ -122.53069, 45.6454 ], [ -122.53074, 45.64295 ], [ -122.55797, 45.6428 ], [ -122.55803, 45.65178 ], [ -122.54267, 45.65189 ], [ -122.54202, 45.65182 ], [ -122.54202, 45.65191 ], [ -122.53843, 45.65185 ], [ -122.53216, 45.65198 ] ] ] } },
{ "type": "Feature", "properties": { "name": "Landover-Sharmel" }, "geometry": { "type": "Polygon", "coordinates": [ [ [ -122.53074, 45.64295 ], [ -122.53076, 45.64202 ], [ -122.53062, 45.63965 ], [ -122.5307, 45.63566 ], [ -122.55793, 45.63551 ], [ -122.55797, 45.6428 ], [ -122.53074, 45.64295 ] ] ] } },
{ "type": "Feature", "properties": { "name": "Lewis and Clark Woods" }, "geometry": { "type": "Polygon", "coordinates": [ [ [ -122.52925, 45.6076 ], [ -122.52921, 45.6011 ], [ -122.52976, 45.6011 ], [ -122.52975, 45.60075 ], [ -122.52986, 45.60045 ], [ -122.5292, 45.60044 ], [ -122.5292, 45.59986 ], [ -122.53041, 45.59986 ], [ -122.5304, 45.59946 ], [ -122.53046, 45.59944 ], [ -122.53196, 45.59979 ], [ -122.53219, 45.59993 ], [ -122.5323, 45.60012 ], [ -122.53238, 45.60187 ], [ -122.53248, 45.60221 ], [ -122.53272, 45.60264 ], [ -122.53328, 45.60315 ], [ -122.53431, 45.60369 ], [ -122.53503, 45.60422 ], [ -122.53567, 45.60496 ], [ -122.53584, 45.60551 ], [ -122.53583, 45.60714 ], [ -122.5324, 45.60716 ], [ -122.5323, 45.60676 ], [ -122.53208, 45.60671 ], [ -122.52989, 45.60671 ], [ -122.52984, 45.60753 ], [ -122.52925, 45.6076 ] ] ] } },
{ "type": "Feature", "properties": { "name": "Lincoln" }, "geometry": { "type": "Polygon", "coordinates": [ [ [ -122.67315, 45.65516 ], [ -122.6721, 45.65516 ], [ -122.67188, 45.65447 ], [ -122.66832, 45.65447 ], [ -122.66829, 45.65683 ], [ -122.66433, 45.65671 ], [ -122.66198, 45.65084 ], [ -122.66177, 45.64984 ], [ -122.66771, 45.64991 ], [ -122.66866, 45.64583 ], [ -122.68797, 45.64598 ], [ -122.68884, 45.65358 ], [ -122.68248, 45.65354 ], [ -122.68248, 45.65417 ], [ -122.68127, 45.65421 ], [ -122.681, 45.65446 ], [ -122.67735, 45.65447 ], [ -122.67735, 45.65518 ], [ -122.67315, 45.65516 ] ] ] } },
{ "type": "Feature", "properties": { "name": "Maplewood" }, "geometry": { "type": "Polygon", "coordinates": [ [ [ -122.64186, 45.63803 ], [ -122.63758, 45.63768 ], [ -122.63017, 45.63735 ], [ -122.62892, 45.63753 ], [ -122.62656, 45.63833 ], [ -122.62205, 45.63481 ], [ -122.6241, 45.6348 ], [ -122.62401, 45.63426 ], [ -122.62369, 45.63396 ], [ -122.62495, 45.63394 ], [ -122.62492, 45.63305 ], [ -122.62414, 45.63306 ], [ -122.62453, 45.63237 ], [ -122.62462, 45.63239 ], [ -122.6247, 45.63213 ], [ -122.6366, 45.63206 ], [ -122.63664, 45.63162 ], [ -122.63812, 45.6316 ], [ -122.63848, 45.63187 ], [ -122.63889, 45.63199 ], [ -122.63889, 45.63238 ], [ -122.63929, 45.63225 ], [ -122.63929, 45.63225 ], [ -122.63936, 45.63251 ], [ -122.63987, 45.63258 ], [ -122.63984, 45.63262 ], [ -122.64069, 45.63314 ], [ -122.64134, 45.63377 ], [ -122.64157, 45.63433 ], [ -122.64234, 45.63433 ], [ -122.64234, 45.63438 ], [ -122.64281, 45.63442 ], [ -122.64282, 45.63477 ], [ -122.6436, 45.63478 ], [ -122.6436, 45.63485 ], [ -122.6438, 45.63488 ], [ -122.6438, 45.63525 ], [ -122.64511, 45.63526 ], [ -122.64511, 45.6383 ], [ -122.64186, 45.63803 ] ] ] } },
{ "type": "Feature", "properties": { "name": "Marrion" }, "geometry": { "type": "Polygon", "coordinates": [ [ [ -122.56096, 45.63552 ], [ -122.5595, 45.63227 ], [ -122.55943, 45.62101 ], [ -122.57327, 45.62104 ], [ -122.57341, 45.63427 ], [ -122.57329, 45.63551 ], [ -122.56096, 45.63552 ] ] ] } },
{ "type": "Feature", "properties": { "name": "Meadow Homes" }, "geometry": { "type": "Polygon", "coordinates": [ [ [ -122.60097, 45.63235 ], [ -122.60184, 45.63227 ], [ -122.61729, 45.63237 ], [ -122.61806, 45.6326 ], [ -122.61807, 45.63215 ], [ -122.6247, 45.63213 ], [ -122.62462, 45.63239 ], [ -122.62453, 45.63237 ], [ -122.62414, 45.63306 ], [ -122.62492, 45.63305 ], [ -122.62495, 45.63394 ], [ -122.62369, 45.63396 ], [ -122.62401, 45.63426 ], [ -122.6241, 45.6348 ], [ -122.62205, 45.63481 ], [ -122.62656, 45.63833 ], [ -122.6221, 45.63981 ], [ -122.60629, 45.64388 ], [ -122.6007, 45.64479 ], [ -122.6008, 45.6415 ], [ -122.60073, 45.64109 ], [ -122.60023, 45.63976 ], [ -122.60006, 45.63469 ], [ -122.60024, 45.63379 ], [ -122.60097, 45.63235 ] ] ] } },
{ "type": "Feature", "properties": { "name": "Mountain View" }, "geometry": { "type": "Polygon", "coordinates": [ [ [ -122.52256, 45.61748 ], [ -122.52259, 45.61627 ], [ -122.52221, 45.61553 ], [ -122.52179, 45.61521 ], [ -122.52143, 45.61506 ], [ -122.52144, 45.61391 ], [ -122.51632, 45.6139 ], [ -122.51628, 45.61141 ], [ -122.51861, 45.61054 ], [ -122.5189, 45.61036 ], [ -122.52053, 45.60871 ], [ -122.52143, 45.60755 ], [ -122.52233, 45.60786 ], [ -122.52345, 45.60798 ], [ -122.5253, 45.60796 ], [ -122.52625, 45.60777 ], [ -122.52724, 45.60785 ], [ -122.52793, 45.60801 ], [ -122.52989, 45.6092 ], [ -122.53041, 45.60939 ], [ -122.53108, 45.60957 ], [ -122.5325, 45.60968 ], [ -122.53268, 45.6186 ], [ -122.52256, 45.61748 ] ] ] } },
{ "type": "Feature", "properties": { "name": "North Garrison Heights" }, "geometry": { "type": "Polygon", "coordinates": [ [ [ -122.57859, 45.63466 ], [ -122.57845, 45.62428 ], [ -122.57637, 45.62429 ], [ -122.57637, 45.62221 ], [ -122.57649, 45.62186 ], [ -122.57666, 45.62175 ], [ -122.58262, 45.62297 ], [ -122.58661, 45.62346 ], [ -122.59147, 45.62457 ], [ -122.59158, 45.63376 ], [ -122.58315, 45.63472 ], [ -122.57859, 45.63466 ] ] ] } },
{ "type": "Feature", "properties": { "name": "North Image" }, "geometry": { "type": "Polygon", "coordinates": [ [ [ -122.53185, 45.66297 ], [ -122.53199, 45.6574 ], [ -122.53227, 45.65735 ], [ -122.5322, 45.65196 ], [ -122.53784, 45.65192 ], [ -122.53843, 45.65185 ], [ -122.54202, 45.65191 ], [ -122.54202, 45.65182 ], [ -122.54267, 45.65189 ], [ -122.55803, 45.65178 ], [ -122.55809, 45.66046 ], [ -122.55933, 45.66222 ], [ -122.55959, 45.66213 ], [ -122.55972, 45.66227 ], [ -122.56091, 45.66402 ], [ -122.56085, 45.66404 ], [ -122.56142, 45.66476 ], [ -122.56171, 45.6648 ], [ -122.55925, 45.6657 ], [ -122.53156, 45.67254 ], [ -122.53185, 45.66297 ] ] ] } },
{ "type": "Feature", "properties": { "name": "Northcrest" }, "geometry": { "type": "Polygon", "coordinates": [ [ [ -122.60097, 45.63234 ], [ -122.60132, 45.63149 ], [ -122.60151, 45.63061 ], [ -122.60172, 45.62684 ], [ -122.60488, 45.62745 ], [ -122.61247, 45.62864 ], [ -122.61361, 45.62872 ], [ -122.61395, 45.63103 ], [ -122.61428, 45.63165 ], [ -122.61435, 45.63193 ], [ -122.61431, 45.63235 ], [ -122.60184, 45.63227 ], [ -122.60097, 45.63234 ] ] ] } },
{ "type": "Feature", "properties": { "name": "Northfield" }, "geometry": { "type": "Polygon", "coordinates": [ [ [ -122.49313, 45.61017 ], [ -122.49311, 45.60918 ], [ -122.49211, 45.60919 ], [ -122.49212, 45.6067 ], [ -122.49778, 45.60668 ], [ -122.49778, 45.60836 ], [ -122.49559, 45.60836 ], [ -122.49559, 45.61013 ], [ -122.49313, 45.61017 ] ] ] } },
{ "type": "Feature", "properties": { "name": "Northwest" }, "geometry": { "type": "Polygon", "coordinates": [ [ [ -122.69297, 45.67866 ], [ -122.69272, 45.67866 ], [ -122.69252, 45.67823 ], [ -122.69125, 45.67823 ], [ -122.69121, 45.67835 ], [ -122.68994, 45.67855 ], [ -122.68842, 45.67856 ], [ -122.6884, 45.678 ], [ -122.68702, 45.67802 ], [ -122.68695, 45.67511 ], [ -122.68534, 45.67431 ], [ -122.6832, 45.67283 ], [ -122.68247, 45.67246 ], [ -122.68247, 45.67238 ], [ -122.68078, 45.67188 ], [ -122.67803, 45.67048 ], [ -122.67657, 45.66933 ], [ -122.67462, 45.66828 ], [ -122.67346, 45.6675 ], [ -122.67347, 45.66216 ], [ -122.67301, 45.66216 ], [ -122.67263, 45.66185 ], [ -122.67265, 45.66144 ], [ -122.67252, 45.6613 ], [ -122.67229, 45.66123 ], [ -122.67229, 45.66094 ], [ -122.6731, 45.66094 ], [ -122.67307, 45.66035 ], [ -122.67326, 45.66035 ], [ -122.67328, 45.65789 ], [ -122.67357, 45.65789 ], [ -122.67359, 45.65581 ], [ -122.67354, 45.6558 ], [ -122.67354, 45.65549 ], [ -122.67223, 45.65551 ], [ -122.6721, 45.65516 ], [ -122.67735, 45.65518 ], [ -122.67735, 45.65447 ], [ -122.681, 45.65446 ], [ -122.68127, 45.65421 ], [ -122.68248, 45.65417 ], [ -122.68248, 45.65354 ], [ -122.68891, 45.65358 ], [ -122.69124, 45.66736 ], [ -122.69282, 45.67748 ], [ -122.69319, 45.67866 ], [ -122.69297, 45.67866 ] ] ] } },
{ "type": "Feature", "properties": { "name": "Northwood" }, "geometry": { "type": "Polygon", "coordinates": [ [ [ -122.59147, 45.62457 ], [ -122.59838, 45.62616 ], [ -122.60172, 45.62684 ], [ -122.60151, 45.63061 ], [ -122.60132, 45.63149 ], [ -122.60097, 45.63235 ], [ -122.59158, 45.63376 ], [ -122.59147, 45.62457 ] ] ] } },
{ "type": "Feature", "properties": { "name": "Oakbrook" }, "geometry": { "type": "Polygon", "coordinates": [ [ [ -122.56849, 45.65391 ], [ -122.56836, 45.65388 ], [ -122.56349, 45.64196 ], [ -122.57311, 45.63992 ], [ -122.57718, 45.63965 ], [ -122.57713, 45.63466 ], [ -122.58315, 45.63472 ], [ -122.5854, 45.63446 ], [ -122.58539, 45.63534 ], [ -122.58437, 45.63535 ], [ -122.58336, 45.63626 ], [ -122.58234, 45.63828 ], [ -122.58206, 45.63957 ], [ -122.58217, 45.63958 ], [ -122.58151, 45.64071 ], [ -122.58038, 45.64214 ], [ -122.57964, 45.64289 ], [ -122.57915, 45.64365 ], [ -122.57859, 45.6448 ], [ -122.57817, 45.64521 ], [ -122.57777, 45.64647 ], [ -122.57747, 45.64691 ], [ -122.57645, 45.64764 ], [ -122.57597, 45.64844 ], [ -122.57573, 45.64932 ], [ -122.57536, 45.64987 ], [ -122.57518, 45.64993 ], [ -122.57382, 45.64992 ], [ -122.57352, 45.65013 ], [ -122.57345, 45.65068 ], [ -122.57209, 45.65142 ], [ -122.57146, 45.65245 ], [ -122.57097, 45.6528 ], [ -122.56995, 45.65322 ], [ -122.56875, 45.65398 ], [ -122.56849, 45.65391 ] ] ] } },
{ "type": "Feature", "properties": { "name": "Ogden" }, "geometry": { "type": "Polygon", "coordinates": [ [ [ -122.57761, 45.65596 ], [ -122.57642, 45.65589 ], [ -122.57536, 45.65569 ], [ -122.56875, 45.65398 ], [ -122.56995, 45.65322 ], [ -122.57097, 45.6528 ], [ -122.57146, 45.65245 ], [ -122.57209, 45.65142 ], [ -122.57345, 45.65068 ], [ -122.57352, 45.65013 ], [ -122.57382, 45.64992 ], [ -122.57518, 45.64993 ], [ -122.57536, 45.64987 ], [ -122.57573, 45.64932 ], [ -122.57597, 45.64844 ], [ -122.57645, 45.64764 ], [ -122.57747, 45.64691 ], [ -122.57777, 45.64647 ], [ -122.57817, 45.64521 ], [ -122.57859, 45.6448 ], [ -122.57915, 45.64365 ], [ -122.57964, 45.64289 ], [ -122.58038, 45.64214 ], [ -122.58151, 45.64071 ], [ -122.58217, 45.63958 ], [ -122.58206, 45.63957 ], [ -122.58234, 45.63828 ], [ -122.58336, 45.63626 ], [ -122.58437, 45.63535 ], [ -122.58539, 45.63534 ], [ -122.5854, 45.63446 ], [ -122.59158, 45.63376 ], [ -122.60097, 45.63235 ], [ -122.60024, 45.63379 ], [ -122.60006, 45.63469 ], [ -122.60023, 45.63976 ], [ -122.60073, 45.64109 ], [ -122.6008, 45.6415 ], [ -122.60071, 45.64575 ], [ -122.60086, 45.64657 ], [ -122.60146, 45.6485 ], [ -122.5997, 45.64894 ], [ -122.59794, 45.64956 ], [ -122.58428, 45.65562 ], [ -122.5829, 45.65595 ], [ -122.58144, 45.65611 ], [ -122.57928, 45.65608 ], [ -122.57761, 45.65596 ] ] ] } },
{ "type": "Feature", "properties": { "name": "Old Evergreen Highway" }, "geometry": { "type": "Polygon", "coordinates": [ [ [ -122.58568, 45.61112 ], [ -122.58119, 45.6102 ], [ -122.57633, 45.6093 ], [ -122.55133, 45.6039 ], [ -122.53315, 45.59959 ], [ -122.53313, 45.5923 ], [ -122.54954, 45.59646 ], [ -122.57852, 45.60135 ], [ -122.59707, 45.60588 ], [ -122.59708, 45.61132 ], [ -122.59712, 45.61178 ], [ -122.59751, 45.61188 ], [ -122.59729, 45.61287 ], [ -122.59126, 45.61213 ], [ -122.58568, 45.61107 ], [ -122.58568, 45.61112 ] ] ] } },
{ "type": "Feature", "properties": { "name": "Parkway East" }, "geometry": { "type": "Polygon", "coordinates": [ [ [ -122.50605, 45.65036 ], [ -122.50609, 45.64299 ], [ -122.5164, 45.643 ], [ -122.51645, 45.6503 ], [ -122.50605, 45.65036 ] ] ] } },
{ "type": "Feature", "properties": { "name": "Riveridge" }, "geometry": { "type": "Polygon", "coordinates": [ [ [ -122.53603, 45.60739 ], [ -122.53662, 45.60736 ], [ -122.53663, 45.60748 ], [ -122.5373, 45.60749 ], [ -122.5399, 45.60719 ], [ -122.53993, 45.6074 ], [ -122.54208, 45.60706 ], [ -122.54207, 45.60552 ], [ -122.54244, 45.60556 ], [ -122.54442, 45.60634 ], [ -122.54443, 45.60654 ], [ -122.54664, 45.60649 ], [ -122.54665, 45.6028 ], [ -122.55133, 45.6039 ], [ -122.55171, 45.60652 ], [ -122.55263, 45.61164 ], [ -122.5532, 45.61307 ], [ -122.55371, 45.61388 ], [ -122.55423, 45.61453 ], [ -122.5535, 45.61472 ], [ -122.55232, 45.6145 ], [ -122.55158, 45.61415 ], [ -122.55062, 45.61338 ], [ -122.54978, 45.61307 ], [ -122.54524, 45.61222 ], [ -122.54241, 45.6122 ], [ -122.54126, 45.6121 ], [ -122.53763, 45.61115 ], [ -122.5369, 45.61085 ], [ -122.5372, 45.61038 ], [ -122.5372, 45.6099 ], [ -122.53631, 45.60846 ], [ -122.53611, 45.60791 ], [ -122.53603, 45.60739 ] ] ] } },
{ "type": "Feature", "properties": { "name": "Riverview" }, "geometry": { "type": "Polygon", "coordinates": [ [ [ -122.61275, 45.61534 ], [ -122.61255, 45.6152 ], [ -122.61171, 45.61511 ], [ -122.60981, 45.61511 ], [ -122.60982, 45.61522 ], [ -122.60755, 45.61499 ], [ -122.60733, 45.61496 ], [ -122.60714, 45.61474 ], [ -122.60418, 45.61429 ], [ -122.60035, 45.61321 ], [ -122.5973, 45.61286 ], [ -122.59751, 45.61188 ], [ -122.59712, 45.61178 ], [ -122.59708, 45.61132 ], [ -122.59707, 45.60588 ], [ -122.60944, 45.60864 ], [ -122.61858, 45.60888 ], [ -122.61863, 45.61474 ], [ -122.61691, 45.61478 ], [ -122.61551, 45.61539 ], [ -122.61275, 45.61534 ] ] ] } },
{ "type": "Feature", "properties": { "name": "Rose Village" }, "geometry": { "type": "Polygon", "coordinates": [ [ [ -122.64194, 45.64687 ], [ -122.64174, 45.64662 ], [ -122.6417, 45.64631 ], [ -122.64186, 45.63803 ], [ -122.65236, 45.63887 ], [ -122.65741, 45.6399 ], [ -122.662, 45.64009 ], [ -122.66188, 45.64808 ], [ -122.66152, 45.64849 ], [ -122.66101, 45.64884 ], [ -122.65979, 45.64942 ], [ -122.65803, 45.65011 ], [ -122.65612, 45.6506 ], [ -122.65429, 45.65082 ], [ -122.65147, 45.6508 ], [ -122.64929, 45.65057 ], [ -122.64806, 45.65024 ], [ -122.64692, 45.64977 ], [ -122.64274, 45.64726 ], [ -122.64194, 45.64687 ] ] ] } },
{ "type": "Feature", "properties": { "name": "Shumway" }, "geometry": { "type": "Polygon", "coordinates": [ [ [ -122.66177, 45.64984 ], [ -122.66188, 45.64808 ], [ -122.662, 45.64009 ], [ -122.67142, 45.64021 ], [ -122.66878, 45.64545 ], [ -122.66771, 45.64991 ], [ -122.66177, 45.64984 ] ] ] } },
{ "type": "Feature", "properties": { "name": "Southcliff" }, "geometry": { "type": "Polygon", "coordinates": [ [ [ -122.61872, 45.62868 ], [ -122.6173, 45.62708 ], [ -122.61893, 45.62635 ], [ -122.62053, 45.62619 ], [ -122.62128, 45.62589 ], [ -122.62353, 45.62351 ], [ -122.62412, 45.62261 ], [ -122.62674, 45.62386 ], [ -122.62675, 45.62451 ], [ -122.63286, 45.62739 ], [ -122.63268, 45.6276 ], [ -122.63184, 45.62752 ], [ -122.63027, 45.62758 ], [ -122.62797, 45.62833 ], [ -122.62697, 45.62852 ], [ -122.62032, 45.62871 ], [ -122.61872, 45.62868 ] ] ] } },
{ "type": "Feature", "properties": { "name": "Vancouver Heights" }, "geometry": { "type": "Polygon", "coordinates": [ [ [ -122.60172, 45.62684 ], [ -122.59838, 45.62616 ], [ -122.58661, 45.62346 ], [ -122.58262, 45.62297 ], [ -122.57288, 45.621 ], [ -122.57226, 45.6198 ], [ -122.57236, 45.61321 ], [ -122.57224, 45.61286 ], [ -122.57604, 45.61281 ], [ -122.57601, 45.61012 ], [ -122.57634, 45.60927 ], [ -122.58568, 45.61112 ], [ -122.58569, 45.61605 ], [ -122.59093, 45.61603 ], [ -122.59107, 45.61758 ], [ -122.59543, 45.61842 ], [ -122.61362, 45.62395 ], [ -122.61361, 45.62872 ], [ -122.61247, 45.62864 ], [ -122.60488, 45.62745 ], [ -122.60172, 45.62684 ] ] ] } },
{ "type": "Feature", "properties": { "name": "Village at Fisher's Landing" }, "geometry": { "type": "Polygon", "coordinates": [ [ [ -122.49353, 45.59669 ], [ -122.49347, 45.59312 ], [ -122.50388, 45.59304 ], [ -122.50393, 45.5967 ], [ -122.49353, 45.59669 ] ] ] } },
{ "type": "Feature", "properties": { "name": "Walnut Grove" }, "geometry": { "type": "Polygon", "coordinates": [ [ [ -122.58903, 45.66104 ], [ -122.58894, 45.65963 ], [ -122.58883, 45.65909 ], [ -122.60229, 45.65898 ], [ -122.6024, 45.66004 ], [ -122.60243, 45.66795 ], [ -122.57919, 45.66805 ], [ -122.57869, 45.66714 ], [ -122.57692, 45.66444 ], [ -122.57818, 45.66439 ], [ -122.57962, 45.6645 ], [ -122.58914, 45.66447 ], [ -122.58903, 45.66104 ] ] ] } },
{ "type": "Feature", "properties": { "name": "West Minnehaha" }, "geometry": { "type": "Polygon", "coordinates": [ [ [ -122.64153, 45.66841 ], [ -122.63648, 45.66685 ], [ -122.63631, 45.66674 ], [ -122.63622, 45.66159 ], [ -122.63557, 45.66158 ], [ -122.63557, 45.66149 ], [ -122.63551, 45.66149 ], [ -122.63551, 45.6606 ], [ -122.63562, 45.66059 ], [ -122.63542, 45.65997 ], [ -122.63518, 45.65997 ], [ -122.63518, 45.65984 ], [ -122.63518, 45.65967 ], [ -122.6359, 45.65964 ], [ -122.63587, 45.65689 ], [ -122.63527, 45.65689 ], [ -122.63527, 45.65617 ], [ -122.63598, 45.65617 ], [ -122.636, 45.65344 ], [ -122.6359, 45.65321 ], [ -122.63715, 45.65054 ], [ -122.63975, 45.64891 ], [ -122.64194, 45.64687 ], [ -122.64274, 45.64726 ], [ -122.64671, 45.64966 ], [ -122.64736, 45.64997 ], [ -122.64904, 45.65051 ], [ -122.65105, 45.65078 ], [ -122.65429, 45.65082 ], [ -122.6556, 45.65069 ], [ -122.657, 45.65041 ], [ -122.65836, 45.64999 ], [ -122.66024, 45.64922 ], [ -122.66128, 45.64868 ], [ -122.66188, 45.64808 ], [ -122.66177, 45.64984 ], [ -122.66198, 45.65084 ], [ -122.66434, 45.65674 ], [ -122.664, 45.65736 ], [ -122.66402, 45.65779 ], [ -122.66427, 45.65836 ], [ -122.66508, 45.65967 ], [ -122.66524, 45.66018 ], [ -122.66669, 45.65955 ], [ -122.66695, 45.66022 ], [ -122.66682, 45.66028 ], [ -122.6671, 45.66098 ], [ -122.66675, 45.66077 ], [ -122.66764, 45.66294 ], [ -122.66788, 45.66449 ], [ -122.66332, 45.66377 ], [ -122.66186, 45.66376 ], [ -122.66182, 45.66593 ], [ -122.65706, 45.66591 ], [ -122.65665, 45.66614 ], [ -122.65667, 45.66358 ], [ -122.65352, 45.66398 ], [ -122.64705, 45.66607 ], [ -122.64704, 45.66745 ], [ -122.64589, 45.66767 ], [ -122.64573, 45.66772 ], [ -122.64578, 45.66781 ], [ -122.64406, 45.66826 ], [ -122.64299, 45.66836 ], [ -122.643, 45.66857 ], [ -122.64221, 45.66854 ], [ -122.64153, 45.66841 ] ] ] } },
{ "type": "Feature", "properties": { "name": "Wildwood" }, "geometry": { "type": "Polygon", "coordinates": [ [ [ -122.53603, 45.60739 ], [ -122.53598, 45.60548 ], [ -122.53589, 45.60503 ], [ -122.53562, 45.60455 ], [ -122.53528, 45.60418 ], [ -122.53461, 45.60369 ], [ -122.53328, 45.60302 ], [ -122.5329, 45.60268 ], [ -122.5327, 45.60238 ], [ -122.53256, 45.60188 ], [ -122.53245, 45.59972 ], [ -122.53281, 45.59951 ], [ -122.54665, 45.6028 ], [ -122.54664, 45.60649 ], [ -122.54443, 45.60654 ], [ -122.54442, 45.60634 ], [ -122.54244, 45.60556 ], [ -122.54207, 45.60552 ], [ -122.54208, 45.60706 ], [ -122.53993, 45.6074 ], [ -122.5399, 45.60719 ], [ -122.5373, 45.60749 ], [ -122.53663, 45.60748 ], [ -122.53662, 45.60736 ], [ -122.53603, 45.60739 ] ] ] } },
{ "type": "Feature", "properties": { "name": "Woodland Meadows" }, "geometry": { "type": "Polygon", "coordinates": [ [ [ -122.51643, 45.67236 ], [ -122.51645, 45.67382 ], [ -122.51629, 45.67382 ], [ -122.51626, 45.67404 ], [ -122.51629, 45.67574 ], [ -122.51111, 45.67575 ], [ -122.51112, 45.67275 ], [ -122.51084, 45.67239 ], [ -122.51643, 45.67236 ] ] ] } }
]
}
